{
"type": "FeatureCollection",
"name": "tulyehualco_aoi_oficial",
"crs": { "type": "name", "properties": { "name": "urn:ogc:def:crs:OGC:1.3:CRS84" } },
"features": [
{ "type": "Feature", "properties": { "index": 0, "cve_ent": "09", "entidad": "Ciudad de México", "cve_alc": "011", "alc": "Tláhuac", "cve_col": "011-067", "colonia": "Pueblo Tulyehualco", "clasif": "Pueblos y Barrios Originarios" }, "geometry": { "type": "MultiPolygon", "coordinates": [ [ [ [ -99.088332588160696, 19.238052521876035 ], [ -99.088233157535086, 19.237890451554492 ], [ -99.088180897369966, 19.237822730193468 ], [ -99.088072582052021, 19.237730233057476 ], [ -99.088045457571994, 19.237708169783158 ], [ -99.088026779259422, 19.237301941576487 ], [ -99.088030725546986, 19.237082276473181 ], [ -99.088036998459387, 19.236908060988508 ], [ -99.088033073678659, 19.236804826907974 ], [ -99.088020107294, 19.23676078138892 ], [ -99.087913292972559, 19.236474191294697 ], [ -99.08788791910321, 19.236390633600887 ], [ -99.087886856222667, 19.236346873155139 ], [ -99.087887872920959, 19.236308522654038 ], [ -99.087893032354017, 19.236275582990121 ], [ -99.087895099993958, 19.236266237705301 ], [ -99.087913186435472, 19.236220507946086 ], [ -99.087928706356863, 19.236193460403939 ], [ -99.087944222031254, 19.23617526238111 ], [ -99.088225724325483, 19.235975592362834 ], [ -99.088289973799718, 19.235842488895713 ], [ -99.08843054623766, 19.235518187250506 ], [ -99.08855204365382, 19.235258623307683 ], [ -99.088596568717605, 19.235156376231739 ], [ -99.088624704422458, 19.235070466647205 ], [ -99.088626637140393, 19.235064823646962 ], [ -99.08861927118339, 19.235059754588857 ], [ -99.08871113820274, 19.234748995072412 ], [ -99.088775027894258, 19.23457078578824 ], [ -99.088868905696344, 19.234449623573955 ], [ -99.089090406822194, 19.234299998596558 ], [ -99.089214295523064, 19.234207366126476 ], [ -99.089394474153153, 19.234143274610823 ], [ -99.08963465912511, 19.234150510194681 ], [ -99.089789839462867, 19.234133057342074 ], [ -99.089851131134594, 19.234119736685926 ], [ -99.089845360564951, 19.234098359941783 ], [ -99.089838079186848, 19.234054768448669 ], [ -99.08983510377405, 19.233972538860833 ], [ -99.089836075563198, 19.233907242425683 ], [ -99.089861232332225, 19.233907415582578 ], [ -99.090042425833857, 19.233908422035505 ], [ -99.09010729061724, 19.233898543275 ], [ -99.090205173423186, 19.233891929206909 ], [ -99.090232974115494, 19.233890297397398 ], [ -99.090232629230073, 19.233936775314213 ], [ -99.090232639730715, 19.233955070355023 ], [ -99.090246623377126, 19.234102167955925 ], [ -99.090266326496831, 19.234196721648917 ], [ -99.090293873676245, 19.23427012104391 ], [ -99.090345029745379, 19.234380833784552 ], [ -99.090405360341066, 19.234512698908802 ], [ -99.090459205724642, 19.234647071672246 ], [ -99.090509846628322, 19.234782571843731 ], [ -99.09054898023507, 19.234842990722019 ], [ -99.090645974928321, 19.234948701782194 ], [ -99.090728558567946, 19.235049449240535 ], [ -99.090774449655342, 19.235115379264254 ], [ -99.090814111683869, 19.23518484649022 ], [ -99.090870755670053, 19.235333713642735 ], [ -99.090913764748507, 19.235423174937353 ], [ -99.091007868568781, 19.235552001718428 ], [ -99.09104784412105, 19.235601756257626 ], [ -99.091085195542163, 19.235630975193324 ], [ -99.091166443084219, 19.235681956872078 ], [ -99.091223447630071, 19.23570929663196 ], [ -99.091327614022219, 19.235748440209779 ], [ -99.091364956493578, 19.235755887451838 ], [ -99.091403101025563, 19.235755876134171 ], [ -99.091440535709083, 19.235748830047658 ], [ -99.091509031756615, 19.235720982339664 ], [ -99.091700127546517, 19.235611579886214 ], [ -99.091729244704581, 19.235600873114418 ], [ -99.091762106118395, 19.235593969561243 ], [ -99.091789535043745, 19.235595064459169 ], [ -99.091808698113198, 19.235604391428868 ], [ -99.091836269921188, 19.235625768040201 ], [ -99.091976061018741, 19.235749366588259 ], [ -99.092025524913069, 19.235779511372112 ], [ -99.092066474805861, 19.235799087407468 ], [ -99.092120202519126, 19.235819589738696 ], [ -99.092152953710396, 19.235825174733296 ], [ -99.092202727765894, 19.235821420505474 ], [ -99.092286562603675, 19.235807692864018 ], [ -99.092596993843472, 19.235748428289885 ], [ -99.092930683258217, 19.235682932790787 ], [ -99.092900500726586, 19.235631439819503 ], [ -99.092882018627662, 19.235608766715348 ], [ -99.092856376972193, 19.235586849237478 ], [ -99.092751102837369, 19.235515676229255 ], [ -99.092725613266268, 19.235493912306669 ], [ -99.09271668402603, 19.235476372176283 ], [ -99.092716043503188, 19.235463061511155 ], [ -99.092725265212778, 19.235443397643241 ], [ -99.092863692552683, 19.235281218574769 ], [ -99.092936234041844, 19.235178349685047 ], [ -99.092943544415405, 19.235159290050092 ], [ -99.092947362521272, 19.235146884203356 ], [ -99.092949583014104, 19.235135236240311 ], [ -99.092949893838764, 19.235120571442017 ], [ -99.092939669113875, 19.235066133703747 ], [ -99.092919152026383, 19.235002065681726 ], [ -99.092917984242405, 19.234998398977559 ], [ -99.092809562028492, 19.234718980990852 ], [ -99.092794235629881, 19.234656079944987 ], [ -99.09279294100179, 19.234617367269358 ], [ -99.092800541653972, 19.234544777169667 ], [ -99.092827581809416, 19.234374010392454 ], [ -99.092840231900752, 19.234320412693236 ], [ -99.092851600682778, 19.234283041610365 ], [ -99.092863845535092, 19.234263749194671 ], [ -99.092889529292307, 19.234233815705561 ], [ -99.092948046369514, 19.234174087063526 ], [ -99.093049977874074, 19.234086093606461 ], [ -99.093153705246138, 19.234000204836484 ], [ -99.09318994151127, 19.233971900987989 ], [ -99.093249437845245, 19.233933023205239 ], [ -99.09329261097966, 19.233912722825444 ], [ -99.093327014120376, 19.233901530300443 ], [ -99.093490334204617, 19.23385835074205 ], [ -99.093548433921825, 19.233838363324693 ], [ -99.093595646699384, 19.233820267846177 ], [ -99.093742020036032, 19.233722403842698 ], [ -99.093877594812241, 19.233641214047829 ], [ -99.094012133075196, 19.233581659921516 ], [ -99.094110463662247, 19.233550635499984 ], [ -99.094218108508898, 19.233526486658505 ], [ -99.094348763318479, 19.233519621527265 ], [ -99.094593305251095, 19.23351949274738 ], [ -99.094780740081035, 19.233509480200873 ], [ -99.09510022232763, 19.233460247395264 ], [ -99.095355963144684, 19.233462036379841 ], [ -99.09585466681196, 19.233465463819574 ], [ -99.095965599656097, 19.233466364795305 ], [ -99.09619294942884, 19.233472205133506 ], [ -99.096265559625508, 19.233468476693282 ], [ -99.096319364293393, 19.23346413594 ], [ -99.096410118704043, 19.233451158572215 ], [ -99.097045983736493, 19.233371883546155 ], [ -99.097064857065476, 19.233369524869232 ], [ -99.097142517711831, 19.233360957861994 ], [ -99.097127663396748, 19.233639025910385 ], [ -99.096895438786945, 19.234141409418029 ], [ -99.096786459891177, 19.23437368567803 ], [ -99.096604545694277, 19.234745864647451 ], [ -99.096415781287064, 19.23472715372764 ], [ -99.09641306303881, 19.234769476878846 ], [ -99.096326708697447, 19.236050592585134 ], [ -99.09600323914367, 19.23600897390001 ], [ -99.095745289547935, 19.235982939080351 ], [ -99.0956211697996, 19.235955746131673 ], [ -99.095631567019723, 19.235921300261264 ], [ -99.095596136532208, 19.235911118513002 ], [ -99.095502231111126, 19.23588613159561 ], [ -99.095482937391964, 19.235958319903556 ], [ -99.095446797584259, 19.236092962994778 ], [ -99.095555941370677, 19.236145624195878 ], [ -99.095588938214775, 19.236155199983333 ], [ -99.095659129221502, 19.236230050987992 ], [ -99.09573396085851, 19.23630296229646 ], [ -99.095729613117811, 19.236309326840551 ], [ -99.095793444623681, 19.236359866218553 ], [ -99.095785307331312, 19.236378997885222 ], [ -99.095890283036852, 19.236485133660743 ], [ -99.0959512120602, 19.236586258612977 ], [ -99.095967113636576, 19.236597254450384 ], [ -99.096074138025656, 19.236671315911067 ], [ -99.096097848367194, 19.236653300974101 ], [ -99.096109871203197, 19.236663437433705 ], [ -99.096131230299406, 19.23667419155829 ], [ -99.096183951641422, 19.236693184267974 ], [ -99.096295395609204, 19.236726711079733 ], [ -99.096371469990927, 19.236740619769769 ], [ -99.096493581332837, 19.236752595671145 ], [ -99.096519849981078, 19.236755016837332 ], [ -99.096670616471457, 19.236769297309806 ], [ -99.09667774708997, 19.236769607075349 ], [ -99.096686845980102, 19.236769484151242 ], [ -99.096694766258182, 19.236768566122688 ], [ -99.096707773795146, 19.236766105897328 ], [ -99.096813689377129, 19.236743354531075 ], [ -99.096821856917828, 19.236742283079717 ], [ -99.096853137904901, 19.236740480022316 ], [ -99.096867228048282, 19.236740991111748 ], [ -99.09688274373903, 19.236742920476051 ], [ -99.096971328138508, 19.236761845429204 ], [ -99.097033503201203, 19.236773825104638 ], [ -99.097006691412787, 19.236819046741743 ], [ -99.097089457910229, 19.236881115345881 ], [ -99.09716555985689, 19.236942549259354 ], [ -99.09718224863839, 19.236958385437518 ], [ -99.097184932610006, 19.236974225300052 ], [ -99.097178957203312, 19.237030002097825 ], [ -99.097168352716906, 19.237150423788133 ], [ -99.097161733162565, 19.237245490409332 ], [ -99.097161783897505, 19.237327800010711 ], [ -99.097161874297342, 19.237473645579886 ], [ -99.0971519141806, 19.237554136302872 ], [ -99.097148269361057, 19.237584548368904 ], [ -99.097146599601743, 19.237598508303002 ], [ -99.097134656343385, 19.23771449568423 ], [ -99.09713402209249, 19.237775331386665 ], [ -99.097135603161092, 19.237813664866216 ], [ -99.097136054829591, 19.237824772091088 ], [ -99.097134082668816, 19.237879277165231 ], [ -99.097123530925217, 19.238077014784636 ], [ -99.097116904752113, 19.238165110139679 ], [ -99.097111587348095, 19.23819363426875 ], [ -99.097103613098568, 19.238254476194783 ], [ -99.097098334323817, 19.238348911209574 ], [ -99.097089682480998, 19.238393281930126 ], [ -99.097087056520323, 19.238464898835591 ], [ -99.09708840539183, 19.238490246907478 ], [ -99.097093120502123, 19.238559329153073 ], [ -99.097099156012561, 19.23860876235452 ], [ -99.097105182825942, 19.23865629019619 ], [ -99.097125236419998, 19.238719653201692 ], [ -99.097138608084492, 19.238755769771487 ], [ -99.097138662291144, 19.238852310839089 ], [ -99.097176049279213, 19.23889166032917 ], [ -99.097216109883817, 19.238926495769824 ], [ -99.097268849623447, 19.23897145880283 ], [ -99.097372316736539, 19.239053798753371 ], [ -99.097389680272983, 19.239070899384004 ], [ -99.09740102697512, 19.23908420507232 ], [ -99.097407038732868, 19.239100046195077 ], [ -99.097422141082575, 19.239158305262766 ], [ -99.097425767170279, 19.239172285272069 ], [ -99.097447193490709, 19.239295220482287 ], [ -99.097469938862133, 19.239401685246246 ], [ -99.097488684671674, 19.239500545123523 ], [ -99.09749404555015, 19.239549336913186 ], [ -99.097490750830374, 19.23960637894616 ], [ -99.097487355350353, 19.239631761330795 ], [ -99.097482777185235, 19.239665956665512 ], [ -99.097474797496247, 19.239717298910044 ], [ -99.097461489937956, 19.239776883630867 ], [ -99.097444171932722, 19.239832024005359 ], [ -99.097423519060399, 19.239881474132648 ], [ -99.097396195292745, 19.239944864228409 ], [ -99.097358884122897, 19.240040578356158 ], [ -99.097348234807029, 19.240086853678882 ], [ -99.09734026979045, 19.240148336748927 ], [ -99.09734029257433, 19.240184457246635 ], [ -99.097346993502768, 19.240234522795657 ], [ -99.097361698994291, 19.240287119825734 ], [ -99.097382432641808, 19.240361888098295 ], [ -99.097405173421024, 19.240456947815861 ], [ -99.097417888331137, 19.240517779554509 ], [ -99.097428314233227, 19.240572957565124 ], [ -99.09746058514547, 19.240547685493031 ], [ -99.097511281306225, 19.240524840487279 ], [ -99.097553984428799, 19.240517208189114 ], [ -99.097622050853346, 19.240518444050799 ], [ -99.097752828641603, 19.240525979569355 ], [ -99.097832244304811, 19.240534804950343 ], [ -99.097869427611016, 19.240539659149903 ], [ -99.09789029627845, 19.240542385101001 ], [ -99.097964366138271, 19.24055691544201 ], [ -99.098046452483445, 19.240568279201636 ], [ -99.098089151090164, 19.240571428741813 ], [ -99.098125852867994, 19.24056823686896 ], [ -99.098170554478429, 19.240556171388619 ], [ -99.098199901104948, 19.240543486075335 ], [ -99.098247928614072, 19.240513036498299 ], [ -99.098420023091066, 19.240417246342762 ], [ -99.098520750286681, 19.240369659208067 ], [ -99.098591463214845, 19.240339832077808 ], [ -99.098646835190436, 19.240321422293885 ], [ -99.098749569542264, 19.240294117436491 ], [ -99.098872330315928, 19.240259830664634 ], [ -99.098937031807836, 19.240235708198718 ], [ -99.098981062910184, 19.240212237225386 ], [ -99.099023747014925, 19.240181162378033 ], [ -99.099089240676051, 19.240126473188454 ], [ -99.099117877143286, 19.240175652830683 ], [ -99.098850063769277, 19.24101751281124 ], [ -99.099273957938209, 19.241126365783966 ], [ -99.099322415129123, 19.241462376473191 ], [ -99.099262845654266, 19.241699485413999 ], [ -99.099263796356752, 19.241699711519008 ], [ -99.099209866286841, 19.241910382331483 ], [ -99.09916052479133, 19.242106778205049 ], [ -99.099200663106231, 19.242117394444762 ], [ -99.099198101602624, 19.242126784821284 ], [ -99.09916833231911, 19.24224198006921 ], [ -99.099091575781799, 19.242538925177179 ], [ -99.099070472431691, 19.242620603814256 ], [ -99.099054862528092, 19.242684440970322 ], [ -99.100089032797271, 19.242911423916347 ], [ -99.100049465550484, 19.243062817470282 ], [ -99.100034133803135, 19.243121516671511 ], [ -99.100024925243616, 19.243156730769918 ], [ -99.099939241844481, 19.243476880354908 ], [ -99.099902302333618, 19.243642352790459 ], [ -99.099886533192915, 19.24370084412357 ], [ -99.099875437006716, 19.243701508282175 ], [ -99.099839782430209, 19.243863396216121 ], [ -99.099834945261989, 19.243904120280426 ], [ -99.099807371382582, 19.244021989338524 ], [ -99.099897337469656, 19.244043983604097 ], [ -99.09992768315162, 19.244030765604769 ], [ -99.099950928214227, 19.244036210255977 ], [ -99.09986310999254, 19.244320437186847 ], [ -99.099856437707487, 19.244337898989492 ], [ -99.099824843816947, 19.244497630204258 ], [ -99.099631192144713, 19.2445206761134 ], [ -99.09953436594121, 19.244533047821822 ], [ -99.099514269658854, 19.244616578043793 ], [ -99.099494859119275, 19.244697227908038 ], [ -99.099476115448667, 19.244774654263285 ], [ -99.099471134276499, 19.244795232066327 ], [ -99.099456924138991, 19.244853886474743 ], [ -99.099449733334282, 19.244883601941844 ], [ -99.099440494821181, 19.244921759813852 ], [ -99.099418712869465, 19.245011718845088 ], [ -99.099406521827802, 19.245062057254877 ], [ -99.099399940558271, 19.245089253541568 ], [ -99.099391854468735, 19.245122625873176 ], [ -99.099372520207496, 19.245202463038812 ], [ -99.099364576947494, 19.245235302644833 ], [ -99.099352957335611, 19.245283266340124 ], [ -99.099338813763353, 19.245341695008698 ], [ -99.099323419042406, 19.245405282608399 ], [ -99.099194903186941, 19.245375838795205 ], [ -99.099061555107312, 19.245343163511919 ], [ -99.098298057308341, 19.245164678053669 ], [ -99.097526842861839, 19.244958129881013 ], [ -99.097471074398484, 19.244943190938418 ], [ -99.097230937809755, 19.24489451104095 ], [ -99.097094270621696, 19.244866806051053 ], [ -99.096766291915984, 19.244811668944621 ], [ -99.09664048652769, 19.244797064050385 ], [ -99.096339475609241, 19.245735357977249 ], [ -99.096099818195427, 19.245787928900796 ], [ -99.096065163817116, 19.245803131215965 ], [ -99.096045372152375, 19.245837149026666 ], [ -99.09584313258118, 19.246344978502229 ], [ -99.095586372676777, 19.246981772658799 ], [ -99.095436911799865, 19.247048826083443 ], [ -99.09514759993327, 19.246839593206222 ], [ -99.094936407962734, 19.246718642000463 ], [ -99.094762259400952, 19.246621671114486 ], [ -99.094688946390391, 19.246610237108143 ], [ -99.094626810146252, 19.24667506684052 ], [ -99.094562428782382, 19.246764114438268 ], [ -99.094487804236067, 19.246880997805423 ], [ -99.09444722780411, 19.246978208992687 ], [ -99.09453557713033, 19.247132957019865 ], [ -99.094551779440579, 19.247154102943092 ], [ -99.09456767039255, 19.247169758430061 ], [ -99.094598152898357, 19.247193718369811 ], [ -99.095682875811576, 19.24796283322042 ], [ -99.09597710897323, 19.248165493213712 ], [ -99.095781188357165, 19.248058906815391 ], [ -99.095714549044203, 19.248026462739606 ], [ -99.095643658302492, 19.247996879528067 ], [ -99.09550490697562, 19.247944802848142 ], [ -99.095441360556407, 19.247928307067404 ], [ -99.095335970011291, 19.247907333998484 ], [ -99.095285700118509, 19.247906059111347 ], [ -99.095237586138524, 19.24791047402984 ], [ -99.095209886409478, 19.247915104641098 ], [ -99.095188270394544, 19.247923421924412 ], [ -99.095164703966404, 19.247934510684988 ], [ -99.095134821800883, 19.247950680917356 ], [ -99.095107371947847, 19.247971005954536 ], [ -99.095079262215634, 19.248000044790945 ], [ -99.095061119635531, 19.248023479840388 ], [ -99.095041574695756, 19.248057533753823 ], [ -99.095035147717866, 19.24807784898853 ], [ -99.095017677993312, 19.248128166956171 ], [ -99.094991739273965, 19.248237114136735 ], [ -99.094932590733961, 19.248491938796374 ], [ -99.094885529432631, 19.248654498467566 ], [ -99.094821652094311, 19.248894042261973 ], [ -99.094752684544687, 19.249183954007183 ], [ -99.094670275090976, 19.249553271244316 ], [ -99.09457299431476, 19.250030356975504 ], [ -99.094420092681929, 19.249914304535391 ], [ -99.094321967611407, 19.249823630303151 ], [ -99.094239124279227, 19.249729322960118 ], [ -99.094151153657407, 19.249575739856336 ], [ -99.09408227993022, 19.249391904403371 ], [ -99.094035045310918, 19.249212899636962 ], [ -99.093995912933622, 19.249074605853668 ], [ -99.093952361917204, 19.248951715674277 ], [ -99.093810980747406, 19.248632877987486 ], [ -99.093759852310427, 19.248551749014911 ], [ -99.093713035877897, 19.24848150304577 ], [ -99.093662402209389, 19.248421224782586 ], [ -99.093617020839844, 19.248374096462243 ], [ -99.093573565247127, 19.248336947182523 ], [ -99.093466114100721, 19.248267182483751 ], [ -99.093365892861001, 19.248210911626536 ], [ -99.093304033646319, 19.248185196030125 ], [ -99.093219672788763, 19.248149312455691 ], [ -99.093155822176797, 19.248132987327004 ], [ -99.093095525671515, 19.248121169640399 ], [ -99.093021280458046, 19.248109364352683 ], [ -99.092793416647353, 19.248081170320738 ], [ -99.091519050316862, 19.24792348865877 ], [ -99.091510892660864, 19.24792244682828 ], [ -99.091349042175963, 19.247901664860404 ], [ -99.089671953130136, 19.247685956299943 ], [ -99.08915289231031, 19.247631338636996 ], [ -99.089106806272497, 19.247468849139075 ], [ -99.089108345000341, 19.247452135047133 ], [ -99.08911765199953, 19.247435415233792 ], [ -99.089139381924696, 19.247407873599201 ], [ -99.089442615459475, 19.247195325134086 ], [ -99.089589001821054, 19.247080126740542 ], [ -99.089595014395243, 19.24707298646258 ], [ -99.089599830089028, 19.24706337142571 ], [ -99.089570598931275, 19.246947719362595 ], [ -99.089825334068777, 19.246806695335227 ], [ -99.090013235230828, 19.246462212325696 ], [ -99.090179925362406, 19.246071377636696 ], [ -99.090197370501286, 19.246035734056832 ], [ -99.090214825497213, 19.246019749047225 ], [ -99.0902342262372, 19.246011142459469 ], [ -99.090270453355799, 19.246009279399011 ], [ -99.090411854778949, 19.246019109262814 ], [ -99.090398218142539, 19.245306573007078 ], [ -99.090404208166618, 19.245265876770134 ], [ -99.090407708696958, 19.245242110963279 ], [ -99.090295989373104, 19.245238813293938 ], [ -99.090009879041261, 19.245239568981269 ], [ -99.089865166278415, 19.245236573207748 ], [ -99.08954626057583, 19.245241025708889 ], [ -99.089532674137473, 19.245239493863465 ], [ -99.089525878253355, 19.245234280605658 ], [ -99.089522639866274, 19.245225989584355 ], [ -99.089523921611274, 19.245209699792767 ], [ -99.089554870916601, 19.245026907172747 ], [ -99.089552276646216, 19.24500356321596 ], [ -99.089543858487772, 19.244990664640248 ], [ -99.089523154654572, 19.24498022608164 ], [ -99.089491447299977, 19.24497532735014 ], [ -99.088744027300351, 19.244903436281657 ], [ -99.088763177052044, 19.244722282222973 ], [ -99.088775935492279, 19.244665235387306 ], [ -99.088793767178814, 19.244616796424172 ], [ -99.088832846589028, 19.244373884859257 ], [ -99.088870205692814, 19.244069125256082 ], [ -99.088961837461596, 19.243662357482563 ], [ -99.088977321003398, 19.243572640816645 ], [ -99.088987635461763, 19.243516116665329 ], [ -99.088988428047401, 19.243508892907293 ], [ -99.089036557846114, 19.243066356267477 ], [ -99.089037720480718, 19.24281936490538 ], [ -99.088629221556104, 19.24281188490837 ], [ -99.088388577971273, 19.242802787606411 ], [ -99.088238499173301, 19.242791796574551 ], [ -99.088010134812862, 19.242753816705132 ], [ -99.088003329631547, 19.24272862875835 ], [ -99.08799379714155, 19.242720181476688 ], [ -99.087995609092332, 19.242689001252668 ], [ -99.088002027243533, 19.242549542839921 ], [ -99.088125668661704, 19.242550887525471 ], [ -99.088203532128773, 19.242505987215932 ], [ -99.088234947157162, 19.242504736534706 ], [ -99.088304742514396, 19.242411115203574 ], [ -99.088322980268686, 19.242388204605145 ], [ -99.088220488974528, 19.242378010618815 ], [ -99.088138326763996, 19.24236575744629 ], [ -99.088137677025529, 19.24235255512918 ], [ -99.088132764197809, 19.242346692461659 ], [ -99.088146522711085, 19.242266203896857 ], [ -99.088145473397958, 19.242213729410814 ], [ -99.088172536163938, 19.242107890000383 ], [ -99.088136866133311, 19.242099738479556 ], [ -99.088161606813756, 19.24199834991806 ], [ -99.088174705997332, 19.241944527012947 ], [ -99.088195606248163, 19.241841393976568 ], [ -99.088199818784503, 19.241820427850321 ], [ -99.088203640557282, 19.241801421091957 ], [ -99.088227123071775, 19.241805910150457 ], [ -99.088235396191578, 19.241763589535587 ], [ -99.088236006210082, 19.241760429255933 ], [ -99.088244069645853, 19.241719165074418 ], [ -99.088153300397366, 19.24169260448808 ], [ -99.088152825068946, 19.241692459801136 ], [ -99.088140990610711, 19.241686305184686 ], [ -99.08812259647749, 19.241658574777514 ], [ -99.088094843783821, 19.241616708189913 ], [ -99.088091288174837, 19.241615948125208 ], [ -99.08808911789076, 19.241581370853336 ], [ -99.08808898815299, 19.241534576707561 ], [ -99.088089597073321, 19.241513843811273 ], [ -99.088090254557173, 19.241490970797038 ], [ -99.088091211465994, 19.241458318290388 ], [ -99.088091374267407, 19.241455880227797 ], [ -99.088093955363931, 19.241446589346594 ], [ -99.088103031732501, 19.241414599542452 ], [ -99.08813007029994, 19.241319379544628 ], [ -99.088128045417676, 19.241318737532552 ], [ -99.088089574774386, 19.241302114539643 ], [ -99.088082236166272, 19.241298950829727 ], [ -99.088017756359022, 19.241272889146607 ], [ -99.088011872094327, 19.241270502652497 ], [ -99.087940062223225, 19.241243345130247 ], [ -99.087843604711097, 19.241202884571269 ], [ -99.087826778155204, 19.241197739146461 ], [ -99.087811788047105, 19.241189641665681 ], [ -99.087790674787243, 19.241181649892489 ], [ -99.087840466784542, 19.241025251686047 ], [ -99.087619812711367, 19.24089510420395 ], [ -99.087410811520868, 19.240773558202353 ], [ -99.087360748412436, 19.240742499872841 ], [ -99.087366055509634, 19.240699618134535 ], [ -99.087384013403252, 19.240566973460531 ], [ -99.087381283468972, 19.240372454407549 ], [ -99.087381120187558, 19.240336478328945 ], [ -99.087371783379453, 19.240257867047273 ], [ -99.087350262396981, 19.240149423962471 ], [ -99.087370906252261, 19.239908391892499 ], [ -99.087371178500277, 19.239856522986372 ], [ -99.087371459894072, 19.239805403584196 ], [ -99.087370796343492, 19.239781572801277 ], [ -99.086954846608421, 19.239704580942192 ], [ -99.086963100202695, 19.239663768400451 ], [ -99.087022479800481, 19.239382758899502 ], [ -99.087071279707644, 19.238958861108177 ], [ -99.08727128431407, 19.238981334111813 ], [ -99.08733051643361, 19.238984330842758 ], [ -99.087348344140239, 19.238983110513665 ], [ -99.087388462504663, 19.238972806556259 ], [ -99.087464240499457, 19.23895129366284 ], [ -99.087508171616818, 19.238940693343483 ], [ -99.087535242643966, 19.238935837874941 ], [ -99.087592870848184, 19.238932783640781 ], [ -99.087829462820849, 19.238932669519507 ], [ -99.088017337430514, 19.238931369166306 ], [ -99.088083576791917, 19.238934359648972 ], [ -99.088287698471618, 19.238956643680556 ], [ -99.088310897368487, 19.238956897479479 ], [ -99.088323725099045, 19.238953299980544 ], [ -99.088336097049392, 19.238948456127584 ], [ -99.088346597406698, 19.238940586377339 ], [ -99.088369190388036, 19.238915474291897 ], [ -99.088427742130705, 19.238829848742839 ], [ -99.088488821579929, 19.238726985754276 ], [ -99.088541643928721, 19.238653096867704 ], [ -99.088577778185467, 19.238623204600483 ], [ -99.088618291838131, 19.238601043989242 ], [ -99.088672629756644, 19.238578934442138 ], [ -99.088628341761975, 19.238520571836194 ], [ -99.088452432131774, 19.238254505028774 ], [ -99.088332588160696, 19.238052521876035 ] ] ], [ [ [ -99.03139052526889, 19.245614508117864 ], [ -99.031391932495922, 19.245626031597279 ], [ -99.031393070645422, 19.245641013413028 ], [ -99.031392501205758, 19.245651280237041 ], [ -99.03138927759322, 19.245663233721739 ], [ -99.031382182983336, 19.245676602059039 ], [ -99.031376815995969, 19.245681907782171 ], [ -99.031372638802878, 19.24568567023859 ], [ -99.031363239736422, 19.245691713434933 ], [ -99.031341952772152, 19.24570098960902 ], [ -99.031291015777455, 19.245726046448699 ], [ -99.031260822772254, 19.245743045774514 ], [ -99.031233858961457, 19.245764390985247 ], [ -99.031225617686971, 19.245773098921269 ], [ -99.031219686021856, 19.245782874129265 ], [ -99.03121569381004, 19.245792912653386 ], [ -99.031162461010098, 19.246007537067459 ], [ -99.031099883349896, 19.246289022545074 ], [ -99.031095437396132, 19.246399484694464 ], [ -99.031090980910221, 19.246522697364401 ], [ -99.031083164151312, 19.246569964221976 ], [ -99.031069871562224, 19.246616116296416 ], [ -99.03105633749972, 19.246643792564488 ], [ -99.031037893721972, 19.246675655149975 ], [ -99.030988142647502, 19.246749484464218 ], [ -99.030895904674907, 19.24689713943766 ], [ -99.030677907594495, 19.247289109696478 ], [ -99.030619342928077, 19.247407721716343 ], [ -99.030486997722107, 19.247693633749886 ], [ -99.030415075821679, 19.247855408709494 ], [ -99.030362453693783, 19.247962285933866 ], [ -99.030200814378219, 19.248337375329733 ], [ -99.0302363626421, 19.248352933773702 ], [ -99.03034484935597, 19.248379997024902 ], [ -99.030404128840516, 19.248397514677613 ], [ -99.030651848381254, 19.248490944901814 ], [ -99.031071820296262, 19.248654974192281 ], [ -99.031077058162651, 19.248702539727148 ], [ -99.031005257113804, 19.24884480091136 ], [ -99.031001476601901, 19.248851688074872 ], [ -99.030961871787341, 19.248923700845815 ], [ -99.030946087459128, 19.248958734970259 ], [ -99.030945296801747, 19.248960504284046 ], [ -99.030927702539515, 19.248999573520575 ], [ -99.031202613844698, 19.249039510778722 ], [ -99.031235407672312, 19.249132446060422 ], [ -99.03123376877538, 19.249251931364864 ], [ -99.031242624270945, 19.249432558372796 ], [ -99.031236730257319, 19.249488757443185 ], [ -99.031253396256432, 19.24949146984379 ], [ -99.03137457419092, 19.249511146249908 ], [ -99.031447208704691, 19.249522948389142 ], [ -99.031430638625565, 19.249576945217942 ], [ -99.03142202474028, 19.249599143879795 ], [ -99.031470196275862, 19.249608363284008 ], [ -99.03170598973513, 19.249661545002947 ], [ -99.031718885506436, 19.249658673953498 ], [ -99.031706396762303, 19.249698487516536 ], [ -99.031737287101009, 19.249701544529916 ], [ -99.031733185566083, 19.249717262925497 ], [ -99.031874853898486, 19.249737514049148 ], [ -99.03194452342656, 19.249747480680714 ], [ -99.031948618571377, 19.249820663784721 ], [ -99.031942526434591, 19.249875246338416 ], [ -99.031935495718869, 19.249938054634352 ], [ -99.031932240386496, 19.249977026213031 ], [ -99.031923322621623, 19.249975628975807 ], [ -99.031885275645948, 19.250165540307989 ], [ -99.031897178900323, 19.250167147449577 ], [ -99.031894269659162, 19.250178315551512 ], [ -99.031868055410484, 19.250281916743496 ], [ -99.031821500995392, 19.250271596968471 ], [ -99.031823714547357, 19.250262351767606 ], [ -99.031749908852362, 19.250240543541594 ], [ -99.031642146937628, 19.250232210133472 ], [ -99.031640235911325, 19.25023200102364 ], [ -99.031510219276825, 19.250218142660994 ], [ -99.031451339121517, 19.250211263146319 ], [ -99.031246489821982, 19.250187352667982 ], [ -99.030995090098088, 19.250931102694661 ], [ -99.030914153518168, 19.251161536102657 ], [ -99.030823459088893, 19.251221825762329 ], [ -99.030546570938739, 19.251405905598748 ], [ -99.030278015603642, 19.251550863758897 ], [ -99.030037312141616, 19.251670738699282 ], [ -99.029893699517544, 19.251745553755697 ], [ -99.029815321538976, 19.251778716662518 ], [ -99.029689887582279, 19.251832496018569 ], [ -99.02955590703192, 19.251872886219992 ], [ -99.029477608111677, 19.25191369754927 ], [ -99.029437429640282, 19.251953652627559 ], [ -99.029402818311027, 19.251999409228382 ], [ -99.02950795719363, 19.252041559769239 ], [ -99.029772391719803, 19.252130840866389 ], [ -99.030142020766618, 19.2522404012139 ], [ -99.030153961752433, 19.252243940581312 ], [ -99.0300364953128, 19.252652510371167 ], [ -99.030005830038547, 19.252744007581217 ], [ -99.02976110150307, 19.253492375158388 ], [ -99.029735130296601, 19.253564533339759 ], [ -99.029697951891805, 19.253670034850273 ], [ -99.029659462042872, 19.253779257706512 ], [ -99.029636432928697, 19.253846614064784 ], [ -99.029625748823918, 19.253876450553904 ], [ -99.029609359793042, 19.253905957664003 ], [ -99.029518305146354, 19.254167464438908 ], [ -99.029303313082224, 19.254884672731169 ], [ -99.029156399239099, 19.255377904062232 ], [ -99.028560882047984, 19.255268857207284 ], [ -99.028520362034627, 19.255261439836573 ], [ -99.028299232174433, 19.255221169197487 ], [ -99.028248907198261, 19.255215505187458 ], [ -99.028126105070285, 19.255516006226657 ], [ -99.028122959557109, 19.255525042977354 ], [ -99.028121526951836, 19.255532500761287 ], [ -99.028121372411988, 19.255535345129552 ], [ -99.028121750476458, 19.255538054451335 ], [ -99.028122480920842, 19.255540104843007 ], [ -99.028130041532151, 19.255572555794284 ], [ -99.028125670876875, 19.255602369904572 ], [ -99.028116840613578, 19.255632180621358 ], [ -99.028022586464488, 19.255883868447253 ], [ -99.027824751797837, 19.256372878946994 ], [ -99.02798716767272, 19.256411416818501 ], [ -99.028148610598095, 19.256464934762572 ], [ -99.028342941596264, 19.256533323055706 ], [ -99.028377150758672, 19.256537539012122 ], [ -99.028419749177772, 19.256538808484784 ], [ -99.028484451501015, 19.256533638192089 ], [ -99.028492097106877, 19.256533020916262 ], [ -99.028519285257602, 19.256530106758841 ], [ -99.028546468273021, 19.256533296949879 ], [ -99.028589458560603, 19.256543488431767 ], [ -99.028917394586799, 19.2566275723802 ], [ -99.029274241666883, 19.256718368867723 ], [ -99.029411211720699, 19.256757960849239 ], [ -99.029427552780433, 19.256763481535057 ], [ -99.02950058358779, 19.256805409196872 ], [ -99.0295958682931, 19.256854902757016 ], [ -99.029704362778176, 19.256902058374294 ], [ -99.029715769984463, 19.256906130504966 ], [ -99.029755847665101, 19.256954947150245 ], [ -99.029755872711817, 19.256954961330557 ], [ -99.029761356798986, 19.256961411015382 ], [ -99.029768965695524, 19.256970627451015 ], [ -99.029776365270621, 19.256979997240904 ], [ -99.029783555531722, 19.256989511354934 ], [ -99.029790526970061, 19.256999169785971 ], [ -99.029797298610774, 19.257008963518246 ], [ -99.02980324365339, 19.257017952948903 ], [ -99.029809596703601, 19.257027990179189 ], [ -99.029815721437188, 19.257038153659185 ], [ -99.02982161785404, 19.257048443388904 ], [ -99.029827295478043, 19.257058841315395 ], [ -99.029827817591283, 19.257059889200839 ], [ -99.029829412276996, 19.257063249601096 ], [ -99.029830940378332, 19.257066637041714 ], [ -99.029832401895234, 19.257070051522597 ], [ -99.029833777810111, 19.257073493029456 ], [ -99.029835077631773, 19.257076961569467 ], [ -99.029836301360163, 19.257080457142603 ], [ -99.029837448995337, 19.257083979748927 ], [ -99.029838511035948, 19.257087520351156 ], [ -99.02983950649967, 19.257091078963516 ], [ -99.029840416361282, 19.257094664601905 ], [ -99.029841250144685, 19.257098259213279 ], [ -99.02984200784239, 19.257101871827647 ], [ -99.029842679945446, 19.257105502437962 ], [ -99.02984316246615, 19.257108419526883 ], [ -99.029843691921641, 19.257112068090215 ], [ -99.029844135782497, 19.257115734649435 ], [ -99.029844503572704, 19.257119401151517 ], [ -99.029844785783268, 19.257123067589305 ], [ -99.029844991908092, 19.257126752030107 ], [ -99.029845121962197, 19.257130436413732 ], [ -99.029845166444247, 19.257134111702964 ], [ -99.029845125339151, 19.257137795958045 ], [ -99.029845008163335, 19.257141480155948 ], [ -99.029844805407905, 19.25714516428954 ], [ -99.029844526596804, 19.257148830305677 ], [ -99.029844162198529, 19.257152505287724 ], [ -99.029843712235731, 19.257156162145233 ], [ -99.029843195718513, 19.257159809922534 ], [ -99.029842584120345, 19.25716344859838 ], [ -99.029841905967743, 19.257167078194026 ], [ -99.029841142250575, 19.257170689665099 ], [ -99.0298402929688, 19.257174283011768 ], [ -99.029839367631297, 19.257177858240961 ], [ -99.02983836623801, 19.257181415352868 ], [ -99.029837288788968, 19.257184954347359 ], [ -99.029836135284199, 19.257188475224453 ], [ -99.02981357406253, 19.257298634671933 ], [ -99.029805348023942, 19.257345323200735 ], [ -99.029804927962601, 19.257392965758072 ], [ -99.029809089862823, 19.257556278467753 ], [ -99.029809025704225, 19.25755934961623 ], [ -99.029809083743572, 19.257562259773916 ], [ -99.029809033653478, 19.25756226274645 ], [ -99.029807790379891, 19.257700723166113 ], [ -99.029810477658913, 19.257705204121493 ], [ -99.029810518352818, 19.257838931082443 ], [ -99.029810538217689, 19.257872143849511 ], [ -99.029811055227427, 19.257890728208665 ], [ -99.029818573315225, 19.258157302763347 ], [ -99.029818468790907, 19.258191445537605 ], [ -99.029817940235617, 19.258380689192208 ], [ -99.029826195947692, 19.258503848059 ], [ -99.029734355419905, 19.25850780644744 ], [ -99.029633532445629, 19.258496181087338 ], [ -99.029447508828198, 19.258473980435916 ], [ -99.028083023335228, 19.258363800113536 ], [ -99.028040401291307, 19.25852512673605 ], [ -99.027932622136902, 19.258778601153502 ], [ -99.027755955537316, 19.259149468590259 ], [ -99.027612460069506, 19.259436317936558 ], [ -99.027522687721117, 19.259411570066046 ], [ -99.02745713540412, 19.259587977361015 ], [ -99.027462153005018, 19.259614123367935 ], [ -99.027459394420532, 19.259626492510954 ], [ -99.027292255857972, 19.260073445439538 ], [ -99.027227707757518, 19.260253655088018 ], [ -99.027168159444543, 19.260424820370933 ], [ -99.027144641070862, 19.260506127525368 ], [ -99.027108114343619, 19.260632132782337 ], [ -99.027120134033666, 19.26066540891982 ], [ -99.027118638497626, 19.260679675347646 ], [ -99.027106625570255, 19.260716761833329 ], [ -99.027082609015068, 19.260802348868303 ], [ -99.02702356656161, 19.26098207502854 ], [ -99.026964513849279, 19.261151353322205 ], [ -99.026921485463461, 19.261274021436691 ], [ -99.026883453729326, 19.26141381446342 ], [ -99.026815397401876, 19.261614465421626 ], [ -99.026770365978024, 19.26175521023649 ], [ -99.026727329185647, 19.261887386997913 ], [ -99.026607185577788, 19.261915938134148 ], [ -99.026482022156557, 19.261932123107062 ], [ -99.026374894281432, 19.261952105505923 ], [ -99.026331835646801, 19.261975884724833 ], [ -99.026294790023783, 19.261995857862811 ], [ -99.026240559638637, 19.262006760542068 ], [ -99.026158596469116, 19.262000285938143 ], [ -99.026109426410059, 19.26199835166776 ], [ -99.026070498312208, 19.26200679185758 ], [ -99.02603908187794, 19.262015869947973 ], [ -99.026012103618569, 19.262027967517696 ], [ -99.025995367961045, 19.262038583028339 ], [ -99.02597181235457, 19.262073610683267 ], [ -99.025933743408899, 19.262133613430723 ], [ -99.025909334511809, 19.262176749455733 ], [ -99.025887318511195, 19.262212753541263 ], [ -99.025875025653335, 19.262220970466434 ], [ -99.025865464518347, 19.262226155386351 ], [ -99.025851348490306, 19.262231354843731 ], [ -99.02583905242399, 19.262232221255193 ], [ -99.025819616776445, 19.262231005218585 ], [ -99.025724339410274, 19.262214966265145 ], [ -99.025579885058789, 19.262182878782628 ], [ -99.025384323346572, 19.262123796663833 ], [ -99.0251284565703, 19.262040647380111 ], [ -99.02482186646273, 19.261959697698448 ], [ -99.024287939817896, 19.261815503603589 ], [ -99.024019032901862, 19.2617481091327 ], [ -99.022830771180423, 19.261468776119891 ], [ -99.022489556653326, 19.261392382448427 ], [ -99.021258743624529, 19.261116825205455 ], [ -99.020797209568528, 19.261032719857052 ], [ -99.020638149985103, 19.261002088657197 ], [ -99.020529050013749, 19.26099407269545 ], [ -99.020330172372766, 19.26099956582738 ], [ -99.020317315093209, 19.261000702318331 ], [ -99.020226315639022, 19.261008702077049 ], [ -99.020118622613566, 19.261022458596482 ], [ -99.019995690880393, 19.261052628548835 ], [ -99.019798994503773, 19.261096428584938 ], [ -99.019656281156415, 19.261044543801326 ], [ -99.0191515083323, 19.260856860122292 ], [ -99.016581110635855, 19.259891887986267 ], [ -99.016441159860051, 19.259816046068124 ], [ -99.016268219849323, 19.259722324267223 ], [ -99.015989969087471, 19.259513345147969 ], [ -99.015544583733828, 19.259279403189673 ], [ -99.015452917096979, 19.259238240081803 ], [ -99.015615889024119, 19.258837609952824 ], [ -99.015452916427463, 19.259238241426413 ], [ -99.015128823999717, 19.259092712278566 ], [ -99.014412035338808, 19.258808830705807 ], [ -99.014279719577118, 19.258756273131006 ], [ -99.013896070219133, 19.258604597949539 ], [ -99.013717993528175, 19.258536216930683 ], [ -99.013596224450893, 19.258482755674894 ], [ -99.013457428220619, 19.258415617451526 ], [ -99.01341539236364, 19.258391923183524 ], [ -99.01337363214239, 19.258368373619525 ], [ -99.013262331973763, 19.258285067400646 ], [ -99.012811896739379, 19.257897132992426 ], [ -99.012810500244512, 19.257895732144942 ], [ -99.012672208443234, 19.257768137139866 ], [ -99.012553537090866, 19.257647033226284 ], [ -99.012423645866505, 19.257495108984504 ], [ -99.012245339851546, 19.257268049174218 ], [ -99.012189593664061, 19.257192781045966 ], [ -99.012100634848068, 19.257065164233527 ], [ -99.012006756269926, 19.256951711445648 ], [ -99.011999813215382, 19.256943316572922 ], [ -99.011939584590877, 19.256882384378855 ], [ -99.01183220965811, 19.256792858861498 ], [ -99.011743766961089, 19.256733518998828 ], [ -99.01180014843537, 19.256417088562362 ], [ -99.011816970330983, 19.256275050146076 ], [ -99.011818067928232, 19.256240465742824 ], [ -99.011809235262035, 19.256199064188493 ], [ -99.011775017356072, 19.256134072443636 ], [ -99.011690300568119, 19.256026379459538 ], [ -99.011310196649291, 19.255644153956169 ], [ -99.011296425586039, 19.255686863677639 ], [ -99.01117327519448, 19.255649193278487 ], [ -99.010967209932474, 19.255579882635015 ], [ -99.010766020111276, 19.255433314271411 ], [ -99.010695808095747, 19.255382622290035 ], [ -99.010712666456499, 19.255343256399428 ], [ -99.009794351388123, 19.254515426412823 ], [ -99.009603547849281, 19.254308743189341 ], [ -99.00951083538078, 19.254202351643215 ], [ -99.009272295748573, 19.253969349223063 ], [ -99.009249251036607, 19.253945029260091 ], [ -99.009148461855304, 19.25383320344373 ], [ -99.009079321307155, 19.253757155192879 ], [ -99.008978538136972, 19.25364921223564 ], [ -99.008789472853238, 19.253436651042922 ], [ -99.008736345992133, 19.253379525606654 ], [ -99.008556854319679, 19.253179117977258 ], [ -99.008530095244453, 19.253151381312218 ], [ -99.008408997127603, 19.25301931900874 ], [ -99.008355872684092, 19.252959963022697 ], [ -99.008322958619587, 19.252925466447962 ], [ -99.007717815583618, 19.252253649341949 ], [ -99.007675497826327, 19.252209328701582 ], [ -99.007582144822663, 19.252138469105557 ], [ -99.007455966444084, 19.252040165326108 ], [ -99.007380191745568, 19.251952994542659 ], [ -99.0071848749498, 19.251739315478503 ], [ -99.007040379677861, 19.251606003657756 ], [ -99.00705743908027, 19.251555955640615 ], [ -99.007078924090052, 19.251462494694994 ], [ -99.00749483976368, 19.250762428630345 ], [ -99.006412100855812, 19.249328733179656 ], [ -99.005662524603466, 19.248311126930957 ], [ -99.005298991869822, 19.247895446677109 ], [ -99.005811862304142, 19.248185207478056 ], [ -99.00701101155272, 19.24898103082749 ], [ -99.007268385598323, 19.249175638672085 ], [ -99.007387126900511, 19.249224098872038 ], [ -99.007569986565954, 19.249298712075049 ], [ -99.007875431892941, 19.24936018485722 ], [ -99.00875838654089, 19.249998099864467 ], [ -99.009159251491667, 19.249236016076676 ], [ -99.008926274796536, 19.249139174056157 ], [ -99.008896924608138, 19.249126985056272 ], [ -99.00900229101353, 19.248825723183177 ], [ -99.009008378980553, 19.248783386224751 ], [ -99.008759597242687, 19.248432431765067 ], [ -99.008780546679986, 19.248380328081275 ], [ -99.008847581817747, 19.248200858385658 ], [ -99.00887892232835, 19.248130495763409 ], [ -99.008892643936562, 19.248099669794414 ], [ -99.009746278521149, 19.248462045720093 ], [ -99.009867840359078, 19.248086118198081 ], [ -99.010019697138347, 19.247807732917696 ], [ -99.010126500519945, 19.247641787953864 ], [ -99.010422513081053, 19.247181894366879 ], [ -99.010531833945535, 19.246997412480688 ], [ -99.010805684373594, 19.246964244691494 ], [ -99.010913871165641, 19.246852065779109 ], [ -99.01102662518835, 19.246736278657455 ], [ -99.011054513019246, 19.246695992034805 ], [ -99.011129456863628, 19.246264452409857 ], [ -99.011067901629175, 19.246142989837562 ], [ -99.011174570153386, 19.246056960697498 ], [ -99.011932669880551, 19.246338696144043 ], [ -99.012294714298491, 19.246470454931668 ], [ -99.012338783775348, 19.246390765352757 ], [ -99.012460633260062, 19.245943570573445 ], [ -99.012507158988129, 19.245779270794113 ], [ -99.012615870800417, 19.245368862512667 ], [ -99.012673375649499, 19.245136232011276 ], [ -99.01248375405504, 19.245035448888551 ], [ -99.012581557325717, 19.244708550966337 ], [ -99.012829025344587, 19.244789841690661 ], [ -99.01292835727115, 19.244494821199869 ], [ -99.013262356614248, 19.244588375045698 ], [ -99.013281680245683, 19.244595209067761 ], [ -99.013293981706965, 19.24459740472005 ], [ -99.013285950027694, 19.244533446629145 ], [ -99.01330744251527, 19.244539198860991 ], [ -99.013970420072781, 19.244677140351726 ], [ -99.014065580769326, 19.24427446765382 ], [ -99.014138218063152, 19.244013278047319 ], [ -99.014154922515189, 19.243953205605123 ], [ -99.014250013516062, 19.243737384030979 ], [ -99.014283817234755, 19.243621953176387 ], [ -99.014308127451955, 19.243572768381878 ], [ -99.014426204249546, 19.243341018745731 ], [ -99.014523078971763, 19.24314904706598 ], [ -99.014660963333839, 19.242883288316964 ], [ -99.014792693717865, 19.242670937505256 ], [ -99.014821812551759, 19.242634353672003 ], [ -99.014851405128198, 19.242599549163291 ], [ -99.014903414957075, 19.24251612709169 ], [ -99.014938277309398, 19.242447870353452 ], [ -99.014952887918952, 19.242379271649803 ], [ -99.014953175839963, 19.242355784538223 ], [ -99.014953587625101, 19.242321723255198 ], [ -99.014968019771871, 19.242199268743356 ], [ -99.014986503702488, 19.242095880196093 ], [ -99.01502347920237, 19.241963132055481 ], [ -99.01504567097021, 19.241890864395497 ], [ -99.015085290089516, 19.241788477718732 ], [ -99.015161366728648, 19.241619840262771 ], [ -99.015256454166249, 19.241425609151214 ], [ -99.0152991184748, 19.241320082473631 ], [ -99.015332568857716, 19.241204985225266 ], [ -99.015392440399694, 19.241039693401905 ], [ -99.015412152874433, 19.240943999489598 ], [ -99.015413567990777, 19.240914725001439 ], [ -99.01546859594535, 19.240877575624147 ], [ -99.015533757354888, 19.240811547273502 ], [ -99.015600364529249, 19.240734512376832 ], [ -99.015666972858753, 19.240635471042367 ], [ -99.015711859476014, 19.240573570638045 ], [ -99.01574402844993, 19.240548764463632 ], [ -99.015758618801399, 19.240543051458285 ], [ -99.015768909332735, 19.240539791082142 ], [ -99.015788648084367, 19.240539383024537 ], [ -99.015836706344174, 19.240543865664726 ], [ -99.015952784684089, 19.240558012663605 ], [ -99.01605147599922, 19.24056901175268 ], [ -99.016088374255361, 19.240571046960365 ], [ -99.016104194917631, 19.240571556700829 ], [ -99.016153438282785, 19.24054862477869 ], [ -99.016189150223965, 19.240527532835742 ], [ -99.016229697741338, 19.240521109803904 ], [ -99.016295031893009, 19.240525534355733 ], [ -99.016355537858132, 19.240538361944306 ], [ -99.016457874071975, 19.240566475908601 ], [ -99.016529324767902, 19.240588478045154 ], [ -99.016587899000342, 19.240613539782416 ], [ -99.016665779300865, 19.240633100001286 ], [ -99.016779211340875, 19.240661213895613 ], [ -99.01678403637392, 19.240687504560622 ], [ -99.016934269885652, 19.240677920789384 ], [ -99.016960560149712, 19.240739482707632 ], [ -99.016880985432891, 19.24123285034948 ], [ -99.016861469324041, 19.241353910198473 ], [ -99.016823216324283, 19.241408836055975 ], [ -99.01678286878419, 19.241466794302713 ], [ -99.016761699360487, 19.241461575522933 ], [ -99.016615094210763, 19.241432757024135 ], [ -99.016601860776873, 19.241430985243227 ], [ -99.016549380135046, 19.241489908690934 ], [ -99.016548391714124, 19.241489465399905 ], [ -99.016513261007916, 19.241529810115889 ], [ -99.016754951399278, 19.24161488341332 ], [ -99.017129376833552, 19.241748069593566 ], [ -99.017317140192063, 19.241821042628459 ], [ -99.017567324845317, 19.241923974367161 ], [ -99.017615798006929, 19.241848946636704 ], [ -99.017672519626643, 19.241757815902183 ], [ -99.017704493394746, 19.241696572673948 ], [ -99.017757203221848, 19.241594223215778 ], [ -99.018160066234074, 19.241792140399472 ], [ -99.018323228926604, 19.241869616420942 ], [ -99.018483536321668, 19.241929408989474 ], [ -99.018678896345492, 19.241982403137282 ], [ -99.018859865024652, 19.242020828833425 ], [ -99.019037651410741, 19.242087877260975 ], [ -99.019153714790264, 19.242120199842983 ], [ -99.019401822284166, 19.242166228566216 ], [ -99.019476097907258, 19.242188267948112 ], [ -99.019539551707453, 19.242212267122049 ], [ -99.019633110911727, 19.242254043811037 ], [ -99.019411205811238, 19.242485297505972 ], [ -99.019369705084131, 19.242515207825161 ], [ -99.019363401533212, 19.242525524156296 ], [ -99.019838104344345, 19.242741881047511 ], [ -99.019758442858816, 19.242883779353082 ], [ -99.019760303410436, 19.242908415029838 ], [ -99.019760805026564, 19.24293225495931 ], [ -99.019766476645842, 19.242937478946484 ], [ -99.019797660113028, 19.242951311161406 ], [ -99.019813855377834, 19.24295848511213 ], [ -99.019883531113891, 19.242989388196744 ], [ -99.019950503970307, 19.243012586381823 ], [ -99.019955335525978, 19.243000291247697 ], [ -99.019979217060822, 19.242939375219958 ], [ -99.020016144735166, 19.242845229814513 ], [ -99.020114824223043, 19.24288198059909 ], [ -99.020139879041665, 19.242891319851207 ], [ -99.02015248250008, 19.24289600759748 ], [ -99.020156160878543, 19.242897383136096 ], [ -99.020215539373083, 19.242917721593752 ], [ -99.020242495911504, 19.242926944969756 ], [ -99.02032768085094, 19.242956117542711 ], [ -99.020397205628228, 19.242804331891456 ], [ -99.020408290495567, 19.242752616251458 ], [ -99.020448747149388, 19.242667133480044 ], [ -99.020528115003202, 19.242694152118919 ], [ -99.020560604025619, 19.242704680226289 ], [ -99.020590328501214, 19.242723333220656 ], [ -99.020639157983481, 19.242780939424566 ], [ -99.020660387660143, 19.242836356254973 ], [ -99.02054838876029, 19.243054488357636 ], [ -99.020484882984135, 19.24316312393956 ], [ -99.020415635042809, 19.243281561599463 ], [ -99.020419930586286, 19.243283912881747 ], [ -99.020395669217962, 19.243323057034704 ], [ -99.020310230682767, 19.243460860288611 ], [ -99.020278662652458, 19.243515629694137 ], [ -99.020244048778281, 19.243574035783965 ], [ -99.020280086146471, 19.243593344073105 ], [ -99.02025760509801, 19.243640472266456 ], [ -99.020275473451122, 19.243648117087488 ], [ -99.020265562937979, 19.243672932925502 ], [ -99.020225280610319, 19.243658497485548 ], [ -99.020213074855079, 19.243676900087685 ], [ -99.02022250193383, 19.2436824250751 ], [ -99.020246184281703, 19.243695619070301 ], [ -99.02007542540548, 19.244093583640268 ], [ -99.02000472481933, 19.24417696503253 ], [ -99.020208532761345, 19.244249532606695 ], [ -99.020275561449921, 19.244242723618832 ], [ -99.020599213981328, 19.244203657373472 ], [ -99.020900521565309, 19.244272572924711 ], [ -99.021106540655907, 19.244329049585641 ], [ -99.021169623713178, 19.244375632225328 ], [ -99.021137646979767, 19.244398172944244 ], [ -99.021101538028077, 19.244437858555376 ], [ -99.021083672369244, 19.244469937324375 ], [ -99.021066609718162, 19.244518577977058 ], [ -99.021058252874681, 19.244560579420792 ], [ -99.021058488737253, 19.24458410307669 ], [ -99.021049726686428, 19.244654160784066 ], [ -99.021024469070113, 19.244776643213079 ], [ -99.020991297637934, 19.244956108403031 ], [ -99.020953893900554, 19.245104669121989 ], [ -99.020883912993725, 19.24539488635385 ], [ -99.020864837125643, 19.245547615579152 ], [ -99.021190299175444, 19.245389875881326 ], [ -99.021329015943166, 19.245656113362088 ], [ -99.021434448669282, 19.24584288621201 ], [ -99.021325070571564, 19.246289392585904 ], [ -99.021632459729858, 19.246399462025405 ], [ -99.021889051000556, 19.246515558800741 ], [ -99.021987230560967, 19.246550736919719 ], [ -99.022025191855704, 19.246556519266854 ], [ -99.022031429648266, 19.24646970864438 ], [ -99.022043137306099, 19.246390695359928 ], [ -99.022065008547756, 19.246344866809089 ], [ -99.022102980569102, 19.246273604160184 ], [ -99.022147434065204, 19.246205859364494 ], [ -99.022340072190687, 19.246063318198875 ], [ -99.022552160223427, 19.245870629902825 ], [ -99.022563271772867, 19.245820476376014 ], [ -99.022595662520132, 19.245629569131715 ], [ -99.022564157590509, 19.245580311980177 ], [ -99.022481246852919, 19.24544967982116 ], [ -99.022430423954788, 19.245354200216674 ], [ -99.022595619010943, 19.245310661340145 ], [ -99.022866066626321, 19.245205060176815 ], [ -99.02292240088147, 19.245348087599911 ], [ -99.023107232884129, 19.245986681038946 ], [ -99.0228698565721, 19.246219299262943 ], [ -99.023068390203434, 19.246390928907882 ], [ -99.023161950279061, 19.246446339250081 ], [ -99.023232353155521, 19.246474487429705 ], [ -99.02335092076305, 19.246529014360899 ], [ -99.023417983235731, 19.246691500938553 ], [ -99.023348077237486, 19.246714879088508 ], [ -99.023398280336991, 19.246791674619796 ], [ -99.023398146063542, 19.246793001941821 ], [ -99.023387870305541, 19.246898935225268 ], [ -99.02347321872314, 19.247070764280299 ], [ -99.023441214119885, 19.247179533992579 ], [ -99.023400502716896, 19.247285064064691 ], [ -99.023374788197145, 19.247333391090994 ], [ -99.023246764277701, 19.247523536855507 ], [ -99.023110912667917, 19.247683407395265 ], [ -99.023050527468612, 19.247735454535214 ], [ -99.022992378320652, 19.247774761920759 ], [ -99.022918579861638, 19.247812476662521 ], [ -99.022652989228618, 19.247904392066751 ], [ -99.022544399797582, 19.248061177379615 ], [ -99.022605057949221, 19.248099341516628 ], [ -99.022653191050665, 19.248129639523334 ], [ -99.022691127368248, 19.248153509039756 ], [ -99.022687451471427, 19.248159989758676 ], [ -99.022819174772835, 19.248209226750699 ], [ -99.022901662663543, 19.248238260522495 ], [ -99.022877092344984, 19.24832603193909 ], [ -99.022923825213965, 19.248348463534047 ], [ -99.022922935572097, 19.248354594282567 ], [ -99.023086052454843, 19.248374860149642 ], [ -99.023188280397292, 19.248392323713638 ], [ -99.023220269114574, 19.248389287707724 ], [ -99.023273024035788, 19.248397158375095 ], [ -99.023306769502355, 19.248407641825789 ], [ -99.023319369166003, 19.24839547914522 ], [ -99.023331635247928, 19.24838421921314 ], [ -99.023350122771021, 19.248304163699931 ], [ -99.023345357090861, 19.24827377359787 ], [ -99.023332009202591, 19.248249905515912 ], [ -99.023313663134772, 19.248244156947013 ], [ -99.02332797887432, 19.248150480730903 ], [ -99.02336163093365, 19.248137196824242 ], [ -99.023505628025433, 19.248133788354245 ], [ -99.023552345573904, 19.248141103356581 ], [ -99.023607572650135, 19.248148912659513 ], [ -99.023654708399633, 19.248145509212751 ], [ -99.023656144125923, 19.248156463875002 ], [ -99.023743055866589, 19.248182791704512 ], [ -99.02383341495549, 19.248213953310554 ], [ -99.023935071294659, 19.248254542142202 ], [ -99.02402992806438, 19.248285517543607 ], [ -99.024014893437766, 19.248320596807904 ], [ -99.024069654964862, 19.248349987590384 ], [ -99.024110504484085, 19.248260413706056 ], [ -99.024288262580527, 19.248304547533422 ], [ -99.024294720853504, 19.248269208697348 ], [ -99.024258115848838, 19.248157152413107 ], [ -99.024257104822667, 19.248138847570772 ], [ -99.024253767592384, 19.248105731513448 ], [ -99.024646789514222, 19.248144199776647 ], [ -99.024674746165687, 19.248152691832384 ], [ -99.024682681188295, 19.248157818097852 ], [ -99.024889870816736, 19.248220269307819 ], [ -99.024945813877039, 19.24810367081087 ], [ -99.024979038761657, 19.248034309232501 ], [ -99.024636506314565, 19.247874778147303 ], [ -99.024519750940243, 19.24782308893236 ], [ -99.024498299680303, 19.247878598388233 ], [ -99.024346714843887, 19.247860473907796 ], [ -99.02433485125114, 19.247824353186854 ], [ -99.024305633132244, 19.247801357720579 ], [ -99.024416978162819, 19.247556701415107 ], [ -99.024461938845505, 19.247528427110566 ], [ -99.024493743999685, 19.247440661124973 ], [ -99.02453164871585, 19.247347364431455 ], [ -99.024529917582825, 19.247249214708344 ], [ -99.024715174133277, 19.247296351976406 ], [ -99.024911629972053, 19.247345312829282 ], [ -99.024994708327981, 19.247362146422859 ], [ -99.025085482504849, 19.247385830793529 ], [ -99.025395642532445, 19.247485556534585 ], [ -99.025477987856448, 19.247271317606614 ], [ -99.025479546467693, 19.24727218570672 ], [ -99.025478606247319, 19.247248787937359 ], [ -99.025477076850365, 19.247213939519241 ], [ -99.025476169074551, 19.247152804904232 ], [ -99.025490665271306, 19.247102057841083 ], [ -99.02544501391823, 19.247060339405536 ], [ -99.025413572535768, 19.247057488588787 ], [ -99.025413567206655, 19.246997357016156 ], [ -99.025490627277208, 19.246869739915955 ], [ -99.025470556187713, 19.246835590498609 ], [ -99.025445853485294, 19.246791666896844 ], [ -99.025445064176836, 19.246791810766609 ], [ -99.025362701757118, 19.246794085667375 ], [ -99.025365193676677, 19.246660595335392 ], [ -99.025366267982164, 19.246616538212741 ], [ -99.02538041988511, 19.24661230503833 ], [ -99.025412133591672, 19.246519536129039 ], [ -99.025427175451313, 19.246475507901319 ], [ -99.025450043222492, 19.246408612447294 ], [ -99.025508614457451, 19.246430095370922 ], [ -99.025585787142759, 19.246458762605396 ], [ -99.026006083955608, 19.246586737565547 ], [ -99.026076498672694, 19.246368452672019 ], [ -99.026190660711308, 19.246049867836174 ], [ -99.026205280482912, 19.246009902771387 ], [ -99.026224266013372, 19.245957064120844 ], [ -99.026369750290456, 19.245568357341853 ], [ -99.026298248005475, 19.245547018237129 ], [ -99.025961119744068, 19.245421203218285 ], [ -99.025872013558455, 19.245382810502509 ], [ -99.02610598955863, 19.24509515617045 ], [ -99.026253193024019, 19.245163916732682 ], [ -99.02635162471428, 19.245193484991042 ], [ -99.026559112916161, 19.245247816469469 ], [ -99.026843766617461, 19.24530554813089 ], [ -99.027131122982979, 19.245349564664401 ], [ -99.027375492163728, 19.245394649537804 ], [ -99.027928589193124, 19.245487856321532 ], [ -99.028110369266813, 19.245518354010606 ], [ -99.028124614987973, 19.245504151440709 ], [ -99.028150342866965, 19.245471807062181 ], [ -99.028239798923281, 19.245321415220676 ], [ -99.028350218391509, 19.245162000108884 ], [ -99.028391148246854, 19.245086223330837 ], [ -99.028431023194273, 19.244987220270584 ], [ -99.028573201103555, 19.2446788140665 ], [ -99.028612518318141, 19.244598322289608 ], [ -99.029019109127347, 19.244717791607734 ], [ -99.029593225023021, 19.244859284257785 ], [ -99.030460072919098, 19.24506508108778 ], [ -99.030797966243085, 19.245154361509417 ], [ -99.030900122487097, 19.245176606659488 ], [ -99.03126029223489, 19.245244844589532 ], [ -99.031300549968108, 19.245267693639708 ], [ -99.031318313407155, 19.245345790300338 ], [ -99.031362539492491, 19.245502983393052 ], [ -99.031380447936101, 19.245566713231948 ], [ -99.03139052526889, 19.245614508117864 ] ], [ [ -99.021105656791434, 19.257727142258648 ], [ -99.021215215833521, 19.257472102035017 ], [ -99.021684779247607, 19.256506787196603 ], [ -99.01956018762084, 19.25583755006021 ], [ -99.018237411713471, 19.255501820564717 ], [ -99.018031598481898, 19.255445133192616 ], [ -99.016782363734649, 19.255115593605346 ], [ -99.015941127942881, 19.254896108547907 ], [ -99.015900222058846, 19.254885066972623 ], [ -99.015678495751317, 19.254825185159589 ], [ -99.015167376974134, 19.254698013921466 ], [ -99.014901242861512, 19.254630734663113 ], [ -99.015047881613128, 19.254244241474492 ], [ -99.015164275257675, 19.253906431437233 ], [ -99.015237162968333, 19.253696063284384 ], [ -99.01526439557307, 19.253624052697191 ], [ -99.015276612528595, 19.253594904611333 ], [ -99.015303498434122, 19.253548250294674 ], [ -99.015310980830961, 19.253528597952407 ], [ -99.015348937051613, 19.253427871466691 ], [ -99.015363340453931, 19.253399276028684 ], [ -99.015394102145279, 19.253366937652292 ], [ -99.015430109714799, 19.253337719017797 ], [ -99.015455362951528, 19.253318894139049 ], [ -99.01544489121207, 19.253228936457315 ], [ -99.015440721857701, 19.253192604837782 ], [ -99.015440255799533, 19.253161775634577 ], [ -99.015460178227116, 19.253035822060081 ], [ -99.015469443421011, 19.252949068397704 ], [ -99.0154775947654, 19.252843106752046 ], [ -99.015288692902814, 19.252764920568218 ], [ -99.015065534240705, 19.252684050814807 ], [ -99.014980687657385, 19.252654704514949 ], [ -99.014932925857522, 19.252644578080229 ], [ -99.014818435862779, 19.252620841792325 ], [ -99.014519622532148, 19.252555422000857 ], [ -99.014281307674494, 19.252484995494427 ], [ -99.01387911052467, 19.252345377931739 ], [ -99.013834805130429, 19.252330269484364 ], [ -99.013762137819683, 19.25231286162208 ], [ -99.013589315355489, 19.252286763856294 ], [ -99.013546305671269, 19.252279169485139 ], [ -99.013501198201226, 19.252420633475982 ], [ -99.013420784057686, 19.252665300034803 ], [ -99.013409199425368, 19.252699261582755 ], [ -99.013297658466087, 19.253000051143513 ], [ -99.013274876339196, 19.253080950824362 ], [ -99.013027277284621, 19.253695277587219 ], [ -99.012994594171943, 19.253788738795301 ], [ -99.012958237824961, 19.253875090195102 ], [ -99.012757804575287, 19.254453588746593 ], [ -99.012731088359331, 19.254521165605201 ], [ -99.012651153665999, 19.254799785423412 ], [ -99.012626903249682, 19.254884286786137 ], [ -99.012506074190654, 19.255291325314715 ], [ -99.012394779319223, 19.255660544679323 ], [ -99.012847877482045, 19.255786591071921 ], [ -99.013277338701783, 19.255891007361843 ], [ -99.013422226473509, 19.255929055836777 ], [ -99.01446097902776, 19.256201787701823 ], [ -99.015061961124445, 19.256348477580939 ], [ -99.015348371598321, 19.256414960733782 ], [ -99.015715973560873, 19.256507011802405 ], [ -99.015772984800762, 19.256521281484805 ], [ -99.016339249623272, 19.256650365768603 ], [ -99.016763343357596, 19.256754200497223 ], [ -99.017812908149665, 19.257006568239412 ], [ -99.018115942474296, 19.257083418162328 ], [ -99.019218134432137, 19.25735590369235 ], [ -99.020447292869392, 19.257660098965925 ], [ -99.021081957013081, 19.257817054201904 ], [ -99.021105656791434, 19.257727142258648 ] ], [ [ -99.023690735351096, 19.252557860690796 ], [ -99.023779546284374, 19.251879443583693 ], [ -99.023725946174821, 19.251879952350741 ], [ -99.023687529538464, 19.251871460969028 ], [ -99.023659784573979, 19.251848511714233 ], [ -99.02356501360201, 19.251574942111667 ], [ -99.023568045427325, 19.251576542825141 ], [ -99.023606388598481, 19.251603789727096 ], [ -99.023625890466718, 19.251614848881363 ], [ -99.023640394707854, 19.251621479350725 ], [ -99.023792529576312, 19.251677973808828 ], [ -99.023820212286836, 19.251685029989414 ], [ -99.023837831045441, 19.251685666888832 ], [ -99.02384643663153, 19.251685249223573 ], [ -99.023852361119182, 19.251684477280385 ], [ -99.02385663120954, 19.251683604708258 ], [ -99.023866713632401, 19.251679720635547 ], [ -99.02389123653775, 19.251668325798718 ], [ -99.023918625885798, 19.251651894400645 ], [ -99.023956406854921, 19.251625899219725 ], [ -99.023976418886164, 19.251607954001198 ], [ -99.024122456777008, 19.251458746375022 ], [ -99.024188580581111, 19.251391198673552 ], [ -99.024198142411336, 19.251362625835352 ], [ -99.024179189041533, 19.251333091552137 ], [ -99.024136420198488, 19.251310663388338 ], [ -99.024125505029076, 19.251299015023058 ], [ -99.024132194925741, 19.25124895729137 ], [ -99.024152766656826, 19.251177653529481 ], [ -99.024322499727546, 19.250994899337279 ], [ -99.024513746698489, 19.250728217811275 ], [ -99.024534749131504, 19.250697333145276 ], [ -99.024615113242888, 19.250666124563107 ], [ -99.024658730160283, 19.250642346166266 ], [ -99.024376604350934, 19.250510548071038 ], [ -99.024072360747383, 19.250369611798078 ], [ -99.024061692906571, 19.250401714541635 ], [ -99.024034083393175, 19.25045293883327 ], [ -99.024016677141461, 19.250481469398867 ], [ -99.024016391432781, 19.250481992921859 ], [ -99.023902388087876, 19.250412759960302 ], [ -99.023892114859038, 19.250406530154027 ], [ -99.023868249875349, 19.250394158238336 ], [ -99.023736512533347, 19.2503259045763 ], [ -99.023655004458902, 19.250284067251055 ], [ -99.023663071802758, 19.250268352152251 ], [ -99.023457280232122, 19.250159494882126 ], [ -99.023368058201669, 19.250131720283996 ], [ -99.023361212925096, 19.250185281555474 ], [ -99.02334835939979, 19.250248482263149 ], [ -99.02332768017294, 19.25030105739074 ], [ -99.02327038735325, 19.250458533651734 ], [ -99.023268737612042, 19.25046400460376 ], [ -99.023150592317606, 19.250499670785508 ], [ -99.023095161564797, 19.250517308056686 ], [ -99.023035103385084, 19.250553019956161 ], [ -99.023028632434247, 19.250558956668872 ], [ -99.022894648735715, 19.25049364444477 ], [ -99.02282971645235, 19.250459910823448 ], [ -99.022800416256032, 19.250454334152703 ], [ -99.022686002916885, 19.250430377115059 ], [ -99.022543352152894, 19.250403381597316 ], [ -99.022446873856126, 19.25038795400561 ], [ -99.02242299766715, 19.250377640758302 ], [ -99.022425323298492, 19.250360476346902 ], [ -99.022359804592227, 19.250323382889235 ], [ -99.022286506826362, 19.250276810646081 ], [ -99.022274389725496, 19.250302229849108 ], [ -99.022248841542378, 19.250290244681178 ], [ -99.022211370547382, 19.250396273689912 ], [ -99.022161296087432, 19.250377975057937 ], [ -99.022125518103536, 19.250364509844601 ], [ -99.022046860325119, 19.250627982339815 ], [ -99.021652972644318, 19.250530179914037 ], [ -99.021192227127884, 19.250415780055228 ], [ -99.021054799200556, 19.250381659481505 ], [ -99.021077520788026, 19.250336503270997 ], [ -99.021085264797634, 19.250321122142072 ], [ -99.021120917743119, 19.250250264219797 ], [ -99.021039251180113, 19.250259274189837 ], [ -99.021028496382172, 19.250249386638842 ], [ -99.02100372803757, 19.250226628989299 ], [ -99.02099347678282, 19.250217202375076 ], [ -99.020961392909584, 19.250187720459014 ], [ -99.020944627331687, 19.250168752824504 ], [ -99.020932937956545, 19.250129832690696 ], [ -99.020919731757417, 19.250085818355373 ], [ -99.020910554714945, 19.250055253090096 ], [ -99.020934099362862, 19.25001041934005 ], [ -99.020973226110087, 19.249935925087655 ], [ -99.021013508330412, 19.24985580598716 ], [ -99.021014060795935, 19.249854704754757 ], [ -99.021037025778512, 19.249798691240674 ], [ -99.021068033268378, 19.249723034617585 ], [ -99.021081549256621, 19.249690056302889 ], [ -99.021098714491117, 19.249648173994657 ], [ -99.020926188806953, 19.249688471236386 ], [ -99.020627209466753, 19.24990923479405 ], [ -99.02057697215092, 19.250031615804374 ], [ -99.020541428885892, 19.250139289500556 ], [ -99.020499877740633, 19.250234587104607 ], [ -99.020437958374345, 19.250373790834985 ], [ -99.020386242368673, 19.250469306000753 ], [ -99.020378462529209, 19.25048213154766 ], [ -99.020340451673917, 19.250531017152412 ], [ -99.02030938816668, 19.250562290573978 ], [ -99.020254552185136, 19.250616336892971 ], [ -99.020235204462253, 19.250635401972929 ], [ -99.020071183463685, 19.250784348202529 ], [ -99.019856552091781, 19.250961156546126 ], [ -99.019590992567316, 19.25115937003331 ], [ -99.0195378028574, 19.251200865601156 ], [ -99.019381971802645, 19.251334403411882 ], [ -99.01933579674575, 19.251368111603135 ], [ -99.019287423076605, 19.251351213226545 ], [ -99.019240872537026, 19.251347707976969 ], [ -99.019183414440022, 19.251356231027067 ], [ -99.019106140563125, 19.251385949746396 ], [ -99.019059877309758, 19.251464808381677 ], [ -99.018970114071152, 19.251658223909381 ], [ -99.018940463786834, 19.251724625396218 ], [ -99.018863470163041, 19.251897002025171 ], [ -99.018853356106874, 19.251914756054621 ], [ -99.018843236848141, 19.251927724117444 ], [ -99.018822992069147, 19.251950048189446 ], [ -99.018731315351332, 19.252039814359843 ], [ -99.018556685213014, 19.252151383968705 ], [ -99.01879385982059, 19.252211879856048 ], [ -99.019541412355608, 19.252457409272161 ], [ -99.02038308450831, 19.252712113608769 ], [ -99.020425647344311, 19.252559963249944 ], [ -99.020441322636614, 19.252522148681948 ], [ -99.020494670598936, 19.252506054698465 ], [ -99.020690422858152, 19.252453584220909 ], [ -99.020784084470492, 19.252429792688165 ], [ -99.020849003978114, 19.25240335935813 ], [ -99.020884240950707, 19.252383972823427 ], [ -99.020889550522824, 19.25237970582938 ], [ -99.021023438676792, 19.252414208685394 ], [ -99.021061606878561, 19.252424054947568 ], [ -99.021101942558673, 19.252434444741489 ], [ -99.021099462966291, 19.252442750466241 ], [ -99.021122543949744, 19.252449342841718 ], [ -99.020977346974632, 19.252889896391871 ], [ -99.0209342620673, 19.253030794933061 ], [ -99.021306871631467, 19.253143183601747 ], [ -99.021314182442765, 19.253144670376951 ], [ -99.021323224604714, 19.253145273582479 ], [ -99.021332666855656, 19.253145055366364 ], [ -99.021341417023692, 19.253142524887732 ], [ -99.021349245103906, 19.253139713739305 ], [ -99.021356950930226, 19.253135367373137 ], [ -99.02136402066202, 19.253129909794843 ], [ -99.021370635921514, 19.253122257535509 ], [ -99.021381291642768, 19.253104648282115 ], [ -99.021398442960376, 19.253074916764799 ], [ -99.021424870460805, 19.253028450810589 ], [ -99.021438318427954, 19.253003791260504 ], [ -99.021455928443828, 19.25298220526799 ], [ -99.021481901744579, 19.252965466084635 ], [ -99.02151528184838, 19.25294917527782 ], [ -99.021601055204073, 19.252910405104927 ], [ -99.021628876817076, 19.252900277417844 ], [ -99.021670148262572, 19.25288485975943 ], [ -99.021693791320587, 19.252879568877116 ], [ -99.021717903797281, 19.252870314144548 ], [ -99.021736452563701, 19.252862391437549 ], [ -99.021754072211294, 19.252851379689524 ], [ -99.021771228269913, 19.252837721746932 ], [ -99.021782348687594, 19.252821431236459 ], [ -99.021797646309295, 19.252791039007533 ], [ -99.021809240416431, 19.25276593547899 ], [ -99.021822911860355, 19.252735767706984 ], [ -99.021830559314978, 19.252711320235825 ], [ -99.021832644610896, 19.252697234913473 ], [ -99.021832879045505, 19.252679391590558 ], [ -99.021831860274389, 19.252659361982623 ], [ -99.021827221075284, 19.252636674640694 ], [ -99.021817009833256, 19.252614000926222 ], [ -99.021791972005531, 19.252583612725921 ], [ -99.021773882809299, 19.252566441111597 ], [ -99.021755333529413, 19.252542659084099 ], [ -99.021739098329263, 19.25251492370576 ], [ -99.021727038187294, 19.252486297667804 ], [ -99.021722866673059, 19.25246163309971 ], [ -99.021724250945852, 19.252390729728482 ], [ -99.021784088942951, 19.252056012874871 ], [ -99.022033637209987, 19.252081874860124 ], [ -99.022043982544076, 19.252081846956955 ], [ -99.022066562910183, 19.252073837116878 ], [ -99.022093925238877, 19.252055979213747 ], [ -99.02217677897994, 19.252103534363304 ], [ -99.022185494356947, 19.2521080473072 ], [ -99.022194209075025, 19.25211330974987 ], [ -99.022198691931948, 19.252119200942662 ], [ -99.022202396009391, 19.252124044023926 ], [ -99.022214608829003, 19.252152119315227 ], [ -99.022221074218876, 19.252174230169434 ], [ -99.02222477539253, 19.252193187319946 ], [ -99.022225538367181, 19.252212205350315 ], [ -99.02218975851531, 19.252384137469551 ], [ -99.022186677713222, 19.252405780213767 ], [ -99.022187298318073, 19.25242450013722 ], [ -99.022198079486586, 19.252437078613408 ], [ -99.022227131428679, 19.252455017412235 ], [ -99.02229910039604, 19.252489127056606 ], [ -99.022382741060497, 19.252528781382882 ], [ -99.022420363019037, 19.252543593491112 ], [ -99.022431104093982, 19.252547719732856 ], [ -99.022441855962853, 19.252550383103696 ], [ -99.022463333578457, 19.2525529736976 ], [ -99.022653577348109, 19.25256834904053 ], [ -99.022700091966314, 19.25256992094371 ], [ -99.023134921715751, 19.252578319092692 ], [ -99.023224129789114, 19.252580005782313 ], [ -99.023388410643719, 19.252622423160155 ], [ -99.023411485284868, 19.25263641993546 ], [ -99.02349908669639, 19.252801414874217 ], [ -99.023648711300268, 19.252826347217525 ], [ -99.023690735351096, 19.252557860690796 ] ] ], [ [ [ -99.024135717804725, 19.269224577473011 ], [ -99.023572204882612, 19.269168537513906 ], [ -99.02117182663433, 19.268913244366878 ], [ -99.01977705431888, 19.268558324625879 ], [ -99.018674935123173, 19.268383978086447 ], [ -99.018643801812559, 19.268483604680409 ], [ -99.017659989197185, 19.268259444843995 ], [ -99.01726148282134, 19.268116231615167 ], [ -99.01615313696351, 19.267493565402908 ], [ -99.015194230996627, 19.26709505902706 ], [ -99.014079658476675, 19.26678995258305 ], [ -99.013058485888564, 19.26675259261031 ], [ -99.01302735257795, 19.267026565743709 ], [ -99.012766611101497, 19.26698453577438 ], [ -99.012734699458164, 19.266891914175307 ], [ -99.012660757845453, 19.266839765880029 ], [ -99.01256969291191, 19.266802405907296 ], [ -99.012551012925542, 19.26680162757453 ], [ -99.012164959873928, 19.266768937598385 ], [ -99.011568756975706, 19.266705892644392 ], [ -99.010857360828169, 19.266638177693803 ], [ -99.010432391138295, 19.266597704390001 ], [ -99.00990001152681, 19.266546334427492 ], [ -99.009333385273649, 19.266480954475206 ], [ -99.008678029085189, 19.266403121198675 ], [ -99.008198576101762, 19.266333071249793 ], [ -99.007501189944009, 19.266239671317944 ], [ -99.007563456565251, 19.266009284819404 ], [ -99.006839607093511, 19.265923668215219 ], [ -99.007686433142212, 19.264494649258076 ], [ -99.008156546132483, 19.263734996479112 ], [ -99.008340232665077, 19.263380076738123 ], [ -99.00877921234472, 19.262299750859832 ], [ -99.009196398706919, 19.26129103159597 ], [ -99.009573111765363, 19.260479230521725 ], [ -99.010107048042386, 19.260655912059452 ], [ -99.010461967783357, 19.260776553638085 ], [ -99.010894720800891, 19.260915096870313 ], [ -99.010689240950839, 19.261645173004194 ], [ -99.010721930926962, 19.261654512997382 ], [ -99.011093973988793, 19.261749469594751 ], [ -99.011455120391915, 19.261811736215979 ], [ -99.012379779717094, 19.262098162673624 ], [ -99.012535446270149, 19.262175995950155 ], [ -99.01258214623607, 19.262443742421429 ], [ -99.013095845861187, 19.262608748967679 ], [ -99.013428972284771, 19.262935648729123 ], [ -99.013723182070038, 19.262017216066031 ], [ -99.013863281967787, 19.261579793051915 ], [ -99.014218201708758, 19.260488570514916 ], [ -99.014127915107991, 19.26046210720089 ], [ -99.014260231678094, 19.26006048749398 ], [ -99.014489061511114, 19.259802081015888 ], [ -99.014685201367968, 19.259772504370808 ], [ -99.014739684661535, 19.259750711053375 ], [ -99.01486110457293, 19.259725804404887 ], [ -99.015335109227024, 19.259742149392967 ], [ -99.015767862244559, 19.259733587732548 ], [ -99.016079195350684, 19.25973825772914 ], [ -99.016237975234844, 19.259778731032931 ], [ -99.0163936417879, 19.259865904302643 ], [ -99.017084801283517, 19.260146104098165 ], [ -99.017900494021575, 19.26043875721793 ], [ -99.019790285975816, 19.261164163355215 ], [ -99.019798588192018, 19.261107085619116 ], [ -99.020126006841949, 19.261027695677051 ], [ -99.020316438925207, 19.261009534579195 ], [ -99.020554089862898, 19.26100071347452 ], [ -99.020637630913058, 19.26100797791366 ], [ -99.020691595318112, 19.261018355683863 ], [ -99.020970238448115, 19.261070244534888 ], [ -99.021262632123623, 19.261121095608889 ], [ -99.02154724247147, 19.261184400007135 ], [ -99.021715881237284, 19.261222538312637 ], [ -99.021852738081861, 19.261251855513461 ], [ -99.021899113742492, 19.261261195506652 ], [ -99.021919642269154, 19.2612653141842 ], [ -99.021928625526485, 19.261267324877174 ], [ -99.021954051063489, 19.261272692130213 ], [ -99.021968604264714, 19.261275902752875 ], [ -99.0219722, 19.261276574166224 ], [ -99.021972355058494, 19.261276608623664 ], [ -99.021973250951902, 19.261276800166485 ], [ -99.021973564109217, 19.261276875162089 ], [ -99.021975110640255, 19.261277254193935 ], [ -99.021976355161925, 19.261277537961089 ], [ -99.021978730698365, 19.261278137925924 ], [ -99.021982168334702, 19.261278997335019 ], [ -99.021988054476211, 19.261280456708946 ], [ -99.021995578359608, 19.261282337679777 ], [ -99.022007901961658, 19.261285191566571 ], [ -99.022016204177802, 19.261287461703798 ], [ -99.02204636457229, 19.261294207254391 ], [ -99.022124846459064, 19.261313665573425 ], [ -99.022236926376692, 19.261340388331558 ], [ -99.022456935103861, 19.261394352736342 ], [ -99.022731427124342, 19.261462846019338 ], [ -99.022962851398702, 19.261523037086214 ], [ -99.023344753340254, 19.26161436146354 ], [ -99.023761939700321, 19.261720214719077 ], [ -99.024040063940333, 19.261781443562963 ], [ -99.024853681120149, 19.26201183006031 ], [ -99.025847871500574, 19.262303445401535 ], [ -99.026075144666862, 19.262042963370753 ], [ -99.026122882409567, 19.262022207830451 ], [ -99.026275435630765, 19.262030510046579 ], [ -99.026371948893157, 19.261974470087761 ], [ -99.026720641970229, 19.261917392351933 ], [ -99.02669365976783, 19.26204296337076 ], [ -99.026887724069653, 19.262094852221509 ], [ -99.027636480186004, 19.262252594327794 ], [ -99.027823798937234, 19.262365712022437 ], [ -99.027932246635316, 19.262392175336327 ], [ -99.028426228494496, 19.262410855322596 ], [ -99.028608877249127, 19.262458593065286 ], [ -99.029416267766877, 19.262632939603819 ], [ -99.029862511883337, 19.262657846252178 ], [ -99.030278660466394, 19.262984746011927 ], [ -99.030428100356559, 19.263166356989558 ], [ -99.030443667011781, 19.263342779082127 ], [ -99.030465460329083, 19.263657225517694 ], [ -99.030505933632668, 19.26414394293775 ], [ -99.0305765024697, 19.264248758416272 ], [ -99.030675091286156, 19.264398198306445 ], [ -99.030873306696037, 19.264701229194845 ], [ -99.031046615457541, 19.264936804577264 ], [ -99.031145204273983, 19.265050960048921 ], [ -99.03132370192057, 19.265249175458798 ], [ -99.03153437065464, 19.265477486402116 ], [ -99.031770983814084, 19.265722401777673 ], [ -99.03216533907981, 19.266162419232053 ], [ -99.032673849817201, 19.26674357436049 ], [ -99.032983107367642, 19.26703207637069 ], [ -99.033788422331341, 19.267721160308692 ], [ -99.034340519703363, 19.268426848678942 ], [ -99.0335642624961, 19.270809584705539 ], [ -99.030770226296411, 19.270703409727137 ], [ -99.029387907305178, 19.270329809999776 ], [ -99.027572835296425, 19.269788090395103 ], [ -99.026315049547634, 19.269579497214 ], [ -99.024135717804725, 19.269224577473011 ] ] ] ] } }
]
}
