{
"type": "FeatureCollection",
"name": "tulyehualco_oficial_cdmx",
"crs": { "type": "name", "properties": { "name": "urn:ogc:def:crs:OGC:1.3:CRS84" } },
"features": [
{ "type": "Feature", "properties": { "index": 0, "cve_ent": "09", "entidad": "Ciudad de México", "cve_alc": "011", "alc": "Tláhuac", "cve_col": "011-067", "colonia": "Pueblo Tulyehualco", "clasif": "Pueblos y Barrios Originarios" }, "geometry": { "type": "Polygon", "coordinates": [ [ [ -99.0335642624961, 19.270809584705539 ], [ -99.030770226296411, 19.270703409727137 ], [ -99.029387907305178, 19.270329809999776 ], [ -99.027572835296425, 19.269788090395103 ], [ -99.026315049547634, 19.269579497214 ], [ -99.024135717804725, 19.269224577473011 ], [ -99.023572204882612, 19.269168537513906 ], [ -99.02117182663433, 19.268913244366878 ], [ -99.01977705431888, 19.268558324625879 ], [ -99.018674935123173, 19.268383978086447 ], [ -99.018643801812559, 19.268483604680409 ], [ -99.017659989197185, 19.268259444843995 ], [ -99.01726148282134, 19.268116231615167 ], [ -99.01615313696351, 19.267493565402908 ], [ -99.015194230996627, 19.26709505902706 ], [ -99.014079658476675, 19.26678995258305 ], [ -99.013058485888564, 19.26675259261031 ], [ -99.01302735257795, 19.267026565743709 ], [ -99.012766611101497, 19.26698453577438 ], [ -99.012734699458164, 19.266891914175307 ], [ -99.012660757845453, 19.266839765880029 ], [ -99.01256969291191, 19.266802405907296 ], [ -99.012551012925542, 19.26680162757453 ], [ -99.012164959873928, 19.266768937598385 ], [ -99.011568756975706, 19.266705892644392 ], [ -99.010857360828169, 19.266638177693803 ], [ -99.010432391138295, 19.266597704390001 ], [ -99.00990001152681, 19.266546334427492 ], [ -99.009333385273649, 19.266480954475206 ], [ -99.008678029085189, 19.266403121198675 ], [ -99.008198576101762, 19.266333071249793 ], [ -99.007501189944009, 19.266239671317944 ], [ -99.007563456565251, 19.266009284819404 ], [ -99.006839607093511, 19.265923668215219 ], [ -99.007686433142212, 19.264494649258076 ], [ -99.008156546132483, 19.263734996479112 ], [ -99.008340232665077, 19.263380076738123 ], [ -99.00877921234472, 19.262299750859832 ], [ -99.009196398706919, 19.26129103159597 ], [ -99.009573111765363, 19.260479230521725 ], [ -99.010107048042386, 19.260655912059452 ], [ -99.010461967783357, 19.260776553638085 ], [ -99.010894720800891, 19.260915096870313 ], [ -99.010689240950839, 19.261645173004194 ], [ -99.010721930926962, 19.261654512997382 ], [ -99.011093973988793, 19.261749469594751 ], [ -99.011455120391915, 19.261811736215979 ], [ -99.012379779717094, 19.262098162673624 ], [ -99.012535446270149, 19.262175995950155 ], [ -99.01258214623607, 19.262443742421429 ], [ -99.013095845861187, 19.262608748967679 ], [ -99.013428972284771, 19.262935648729123 ], [ -99.013723182070038, 19.262017216066031 ], [ -99.013863281967787, 19.261579793051915 ], [ -99.014218201708758, 19.260488570514916 ], [ -99.014127915107991, 19.26046210720089 ], [ -99.014260231678094, 19.26006048749398 ], [ -99.014489061511114, 19.259802081015888 ], [ -99.014685201367968, 19.259772504370808 ], [ -99.014739684661535, 19.259750711053375 ], [ -99.01486110457293, 19.259725804404887 ], [ -99.015335109227024, 19.259742149392967 ], [ -99.015767862244559, 19.259733587732548 ], [ -99.016079195350684, 19.25973825772914 ], [ -99.016237975234844, 19.259778731032931 ], [ -99.0163936417879, 19.259865904302643 ], [ -99.017084801283517, 19.260146104098165 ], [ -99.017900494021575, 19.26043875721793 ], [ -99.019790285975816, 19.261164163355215 ], [ -99.019798588192018, 19.261107085619116 ], [ -99.020126006841949, 19.261027695677051 ], [ -99.020316438925207, 19.261009534579195 ], [ -99.020554089862898, 19.26100071347452 ], [ -99.020637630913058, 19.26100797791366 ], [ -99.020691595318112, 19.261018355683863 ], [ -99.020970238448115, 19.261070244534888 ], [ -99.021262632123623, 19.261121095608889 ], [ -99.02154724247147, 19.261184400007135 ], [ -99.021715881237284, 19.261222538312637 ], [ -99.021852738081861, 19.261251855513461 ], [ -99.021899113742492, 19.261261195506652 ], [ -99.021919642269154, 19.2612653141842 ], [ -99.021928625526485, 19.261267324877174 ], [ -99.021954051063489, 19.261272692130213 ], [ -99.021968604264714, 19.261275902752875 ], [ -99.0219722, 19.261276574166224 ], [ -99.021972355058494, 19.261276608623664 ], [ -99.021973250951902, 19.261276800166485 ], [ -99.021973564109217, 19.261276875162089 ], [ -99.021975110640255, 19.261277254193935 ], [ -99.021976355161925, 19.261277537961089 ], [ -99.021978730698365, 19.261278137925924 ], [ -99.021982168334702, 19.261278997335019 ], [ -99.021988054476211, 19.261280456708946 ], [ -99.021995578359608, 19.261282337679777 ], [ -99.022007901961658, 19.261285191566571 ], [ -99.022016204177802, 19.261287461703798 ], [ -99.02204636457229, 19.261294207254391 ], [ -99.022124846459064, 19.261313665573425 ], [ -99.022236926376692, 19.261340388331558 ], [ -99.022456935103861, 19.261394352736342 ], [ -99.022731427124342, 19.261462846019338 ], [ -99.022962851398702, 19.261523037086214 ], [ -99.023344753340254, 19.26161436146354 ], [ -99.023761939700321, 19.261720214719077 ], [ -99.024040063940333, 19.261781443562963 ], [ -99.024853681120149, 19.26201183006031 ], [ -99.025847871500574, 19.262303445401535 ], [ -99.026075144666862, 19.262042963370753 ], [ -99.026122882409567, 19.262022207830451 ], [ -99.026275435630765, 19.262030510046579 ], [ -99.026371948893157, 19.261974470087761 ], [ -99.026720641970229, 19.261917392351933 ], [ -99.02669365976783, 19.26204296337076 ], [ -99.026887724069653, 19.262094852221509 ], [ -99.027636480186004, 19.262252594327794 ], [ -99.027823798937234, 19.262365712022437 ], [ -99.027932246635316, 19.262392175336327 ], [ -99.028426228494496, 19.262410855322596 ], [ -99.028608877249127, 19.262458593065286 ], [ -99.029416267766877, 19.262632939603819 ], [ -99.029862511883337, 19.262657846252178 ], [ -99.030278660466394, 19.262984746011927 ], [ -99.030428100356559, 19.263166356989558 ], [ -99.030443667011781, 19.263342779082127 ], [ -99.030465460329083, 19.263657225517694 ], [ -99.030505933632668, 19.26414394293775 ], [ -99.0305765024697, 19.264248758416272 ], [ -99.030675091286156, 19.264398198306445 ], [ -99.030873306696037, 19.264701229194845 ], [ -99.031046615457541, 19.264936804577264 ], [ -99.031145204273983, 19.265050960048921 ], [ -99.03132370192057, 19.265249175458798 ], [ -99.03153437065464, 19.265477486402116 ], [ -99.031770983814084, 19.265722401777673 ], [ -99.03216533907981, 19.266162419232053 ], [ -99.032673849817201, 19.26674357436049 ], [ -99.032983107367642, 19.26703207637069 ], [ -99.033788422331341, 19.267721160308692 ], [ -99.034340519703363, 19.268426848678942 ], [ -99.0335642624961, 19.270809584705539 ] ] ] } }
]
}
