{
"type": "FeatureCollection",
"name": "tulyehualco_piezas_seleccionadas",
"crs": { "type": "name", "properties": { "name": "urn:ogc:def:crs:OGC:1.3:CRS84" } },
"features": [
{ "type": "Feature", "properties": { "ID": "0901100011431", "Ambito": "Urbano" }, "geometry": { "type": "Polygon", "coordinates": [ [ [ -99.012949401653358, 19.264477056490563 ], [ -99.013449567549046, 19.262916926035786 ], [ -99.013542864445228, 19.262588987096148 ], [ -99.013508261834218, 19.262489358769777 ], [ -99.013523490365927, 19.262439445963341 ], [ -99.013573151792613, 19.262276678652686 ], [ -99.013746711353747, 19.261707831208039 ], [ -99.013817029004059, 19.261473656087652 ], [ -99.013872776301596, 19.261241930875332 ], [ -99.013942513555918, 19.261031768609151 ], [ -99.014008894945718, 19.260807743003038 ], [ -99.01410629850082, 19.260464421705478 ], [ -99.014063468087542, 19.260452710552173 ], [ -99.013771584832142, 19.260380841681766 ], [ -99.013771509855033, 19.260380823890408 ], [ -99.01366993195586, 19.260356462325344 ], [ -99.013534817884263, 19.260320254292346 ], [ -99.013631377573091, 19.259993614877086 ], [ -99.013254431023753, 19.259890989998766 ], [ -99.013294665568012, 19.259696018709164 ], [ -99.01251568457964, 19.259536263549528 ], [ -99.012035732432722, 19.259418612405845 ], [ -99.011913824448129, 19.259396825470215 ], [ -99.012098399490284, 19.258617342959372 ], [ -99.012318340206349, 19.257872900938615 ], [ -99.011901387797508, 19.257724538716012 ], [ -99.011815509849626, 19.257690758637683 ], [ -99.011708269355111, 19.257648575453391 ], [ -99.011625119698721, 19.257609327945723 ], [ -99.011441389518382, 19.257537161571332 ], [ -99.011352876283112, 19.257491583362185 ], [ -99.011114160163416, 19.257347252363246 ], [ -99.010986754048702, 19.2572687564729 ], [ -99.01079196758235, 19.257187996969026 ], [ -99.010945281394029, 19.256730584901629 ], [ -99.011048741252552, 19.256429849642984 ], [ -99.011279992455741, 19.255726197560477 ], [ -99.011316601969611, 19.255644887239484 ], [ -99.011690661435281, 19.256008226699741 ], [ -99.011821341543168, 19.256241736677755 ], [ -99.011764062192469, 19.256657217388749 ], [ -99.011842821839934, 19.256772256537928 ], [ -99.011977762206328, 19.256958647001813 ], [ -99.012177371526235, 19.257224906558069 ], [ -99.012517561614473, 19.257629106493727 ], [ -99.012669880441081, 19.257784287096893 ], [ -99.012826390988209, 19.257944187533742 ], [ -99.012840726396121, 19.257956032930963 ], [ -99.01295709168005, 19.258052186564964 ], [ -99.013005309382123, 19.258086735865795 ], [ -99.013209510577411, 19.258233047630206 ], [ -99.013435721379224, 19.258370816666694 ], [ -99.013714721197459, 19.258493846460016 ], [ -99.013909091781585, 19.258576286478217 ], [ -99.014181881566401, 19.258706596654442 ], [ -99.014435311436685, 19.258807656646759 ], [ -99.01485340126203, 19.258990966271988 ], [ -99.015198645639359, 19.259161108986607 ], [ -99.015347764352995, 19.259234597163402 ], [ -99.015552690070749, 19.259335587151988 ], [ -99.01563449575201, 19.259379928644233 ], [ -99.015947759761389, 19.259549726616818 ], [ -99.016056532943622, 19.259658105163499 ], [ -99.016074801254959, 19.259676306756781 ], [ -99.016146400724466, 19.259747627095425 ], [ -99.016381160272189, 19.259891397417203 ], [ -99.016451870388622, 19.259925638104793 ], [ -99.016507459584474, 19.259952556463883 ], [ -99.016560910565062, 19.259977136681844 ], [ -99.016617180980376, 19.259996433370379 ], [ -99.016851777267235, 19.260076882044757 ], [ -99.016895185110116, 19.260091765842589 ], [ -99.01726463002683, 19.260218456044925 ], [ -99.017278438778916, 19.260222926446474 ], [ -99.017414390258338, 19.260266935860397 ], [ -99.017563570505274, 19.260319077107187 ], [ -99.017936970078495, 19.260455787437486 ], [ -99.018666430025235, 19.260740766386007 ], [ -99.01882460367824, 19.260800932885424 ], [ -99.018900118885043, 19.260829657187429 ], [ -99.018984109840133, 19.260861596662149 ], [ -99.019021467869422, 19.260875473413197 ], [ -99.019021867218598, 19.260875621731511 ], [ -99.019066619823235, 19.2608922456626 ], [ -99.019296690503552, 19.260973076884468 ], [ -99.019734920081362, 19.261147847295071 ], [ -99.019817689536595, 19.261026275637629 ], [ -99.020050119355602, 19.260961216563125 ], [ -99.020318374342978, 19.260916646313508 ], [ -99.020318678818455, 19.260916596148224 ], [ -99.020510560060345, 19.260931706078058 ], [ -99.020744738781445, 19.260954226282252 ], [ -99.021024628695159, 19.261014416377623 ], [ -99.021087369869221, 19.261027626432632 ], [ -99.02129253840998, 19.261066487177715 ], [ -99.021503988217233, 19.261112855672238 ], [ -99.0217468793564, 19.261170935619017 ], [ -99.021755771103969, 19.261173191240665 ], [ -99.022003939823691, 19.261236126078813 ], [ -99.022527859530641, 19.261369505782337 ], [ -99.022893289109376, 19.261457995520693 ], [ -99.023320552262078, 19.261567651372236 ], [ -99.023622522946098, 19.261645149429398 ], [ -99.024008969352778, 19.261744326007125 ], [ -99.024049588699143, 19.261754285610191 ], [ -99.024342938389594, 19.261818086224373 ], [ -99.024812678006782, 19.261929046968199 ], [ -99.025074418646994, 19.262006955357766 ], [ -99.025380937911308, 19.262081885759279 ], [ -99.025834567518032, 19.262202286599351 ], [ -99.026032108709046, 19.261940756493292 ], [ -99.02646481745505, 19.261765925514293 ], [ -99.026851847819103, 19.261757876089131 ], [ -99.027111626825032, 19.261935556652908 ], [ -99.027192888059986, 19.261834106759139 ], [ -99.02788822686631, 19.262219385999103 ], [ -99.029293086628698, 19.262371735683601 ], [ -99.029558187825529, 19.262481525720752 ], [ -99.029812657143893, 19.262592655471842 ], [ -99.030273277541312, 19.262938275950841 ], [ -99.030422787645591, 19.263141106196763 ], [ -99.030460416341015, 19.263248136069187 ], [ -99.030528217320139, 19.26416556650047 ], [ -99.030838276285664, 19.264634394930788 ], [ -99.031058256802538, 19.264929644889136 ], [ -99.032663246844038, 19.266689305117779 ], [ -99.033014225610444, 19.267114015038072 ], [ -99.033726185693979, 19.26770092509495 ], [ -99.034090297926227, 19.268117548136594 ], [ -99.034348694760183, 19.268413211760041 ], [ -99.033564250796701, 19.270856929525884 ], [ -99.030760657309898, 19.270717124160385 ], [ -99.029185610977422, 19.270279503428483 ], [ -99.027610563683396, 19.269801373709729 ], [ -99.026211955032139, 19.269604690558293 ], [ -99.025767680051899, 19.269498133954905 ], [ -99.024106003763251, 19.269243809952879 ], [ -99.024099205585088, 19.269243521951136 ], [ -99.023565141645093, 19.269220853193481 ], [ -99.023564901440267, 19.269220843022548 ], [ -99.023005198705462, 19.269197085234509 ], [ -99.021430079312097, 19.269017924910955 ], [ -99.021152265990168, 19.268965412368949 ], [ -99.019742688999443, 19.268698965245971 ], [ -99.019081044362792, 19.268571028928921 ], [ -99.018577310585428, 19.268473624270957 ], [ -99.017613309808993, 19.268273014482929 ], [ -99.017212229847217, 19.268123794258297 ], [ -99.016533571143881, 19.267697044470115 ], [ -99.016107370542571, 19.26747576455028 ], [ -99.015235250666493, 19.267131424254387 ], [ -99.015186924322904, 19.267114501041455 ], [ -99.014643116021674, 19.266924065828032 ], [ -99.014152332019108, 19.266809780194588 ], [ -99.014037129664132, 19.26678295587174 ], [ -99.012906001788565, 19.266741785673375 ], [ -99.013038511744668, 19.265762726067951 ], [ -99.012877020837138, 19.265072645825875 ], [ -99.012949401653358, 19.264477056490563 ] ] ] } },
{ "type": "Feature", "properties": { "ID": "090130001057A", "Ambito": "Urbano" }, "geometry": { "type": "Polygon", "coordinates": [ [ [ -99.007611062664779, 19.252166398109729 ], [ -99.007037113277917, 19.251602987729662 ], [ -99.007275893192073, 19.251174538525568 ], [ -99.007412866751224, 19.250928794990823 ], [ -99.00747827923314, 19.250811437460133 ], [ -99.00749789291514, 19.250776248663492 ], [ -99.007681883317176, 19.251021028454719 ], [ -99.007939262698258, 19.250543139720445 ], [ -99.008257321930529, 19.250725108423069 ], [ -99.008431021464034, 19.250690939511014 ], [ -99.008644892602732, 19.250764788131843 ], [ -99.008814312212564, 19.250675737995831 ], [ -99.008875251827348, 19.250672199541921 ], [ -99.009057602386363, 19.250294088403706 ], [ -99.009076162845005, 19.250359658559521 ], [ -99.009120222434134, 19.250514708429261 ], [ -99.009259772271818, 19.250995138259903 ], [ -99.008661173205724, 19.252261677717904 ], [ -99.010004602008536, 19.254142677637869 ], [ -99.009850312733633, 19.254530187457679 ], [ -99.009804652838596, 19.254485337510058 ], [ -99.009233142273047, 19.253923878013939 ], [ -99.008573512481746, 19.253192567653869 ], [ -99.008337192331098, 19.252941937874319 ], [ -99.00812283275576, 19.252714997770642 ], [ -99.007758893153323, 19.25231253794113 ], [ -99.007611062664779, 19.252166398109729 ] ] ] } },
{ "type": "Feature", "properties": { "ID": "0901300010565", "Ambito": "Urbano" }, "geometry": { "type": "Polygon", "coordinates": [ [ [ -99.011690661435281, 19.256008226699741 ], [ -99.011316601969611, 19.255644887239484 ], [ -99.011279992455741, 19.255726197560477 ], [ -99.011022142267436, 19.255601617025022 ], [ -99.010817622215896, 19.255463597300533 ], [ -99.010685722509322, 19.255338787036106 ], [ -99.009850312733633, 19.254530187457679 ], [ -99.010004602008536, 19.254142677637869 ], [ -99.008661173205724, 19.252261677717904 ], [ -99.009259772271818, 19.250995138259903 ], [ -99.009120222434134, 19.250514708429261 ], [ -99.009076162845005, 19.250359658559521 ], [ -99.009057602386363, 19.250294088403706 ], [ -99.009201232128248, 19.249992138361741 ], [ -99.009344511930792, 19.249691629186685 ], [ -99.009494402702018, 19.249377789338368 ], [ -99.009497432727898, 19.2493687384484 ], [ -99.009500691097671, 19.249359019816758 ], [ -99.009592822197931, 19.24906798832102 ], [ -99.009707061037062, 19.248726829971805 ], [ -99.009760328758944, 19.248491033355119 ], [ -99.009762791779067, 19.248480129310156 ], [ -99.00979659265559, 19.248261658906568 ], [ -99.010129792576507, 19.247663109124602 ], [ -99.010528601861452, 19.247876059059426 ], [ -99.010879562141369, 19.247318079425668 ], [ -99.011116972026244, 19.247541418869794 ], [ -99.01113983284317, 19.24792350934171 ], [ -99.011134419365007, 19.248203052827041 ], [ -99.012120971671692, 19.248526168894227 ], [ -99.012280461838003, 19.248191538953137 ], [ -99.012895032066865, 19.248494058873906 ], [ -99.012879792050029, 19.248603358958398 ], [ -99.012848621695724, 19.24887208895337 ], [ -99.012839721530028, 19.24894867868575 ], [ -99.012889572056309, 19.249474708582881 ], [ -99.013053230785275, 19.249711028186152 ], [ -99.013079051325903, 19.249830939320226 ], [ -99.013074512023536, 19.249929958705216 ], [ -99.013175481209643, 19.250010078361825 ], [ -99.01320432144125, 19.250081648910331 ], [ -99.01316843121927, 19.250252858397356 ], [ -99.01305999046312, 19.250630068099753 ], [ -99.012888881671671, 19.251160968100898 ], [ -99.012572261803072, 19.252005217967316 ], [ -99.012288162281209, 19.25277815819657 ], [ -99.01198814158198, 19.253524707392895 ], [ -99.012988971796446, 19.253770427467298 ], [ -99.012883881819391, 19.25409405761388 ], [ -99.012751451554436, 19.254505927075154 ], [ -99.012610392168099, 19.254947047166443 ], [ -99.012402122165312, 19.255599857086395 ], [ -99.012372991762476, 19.255693596785612 ], [ -99.012235661777268, 19.256195906808866 ], [ -99.012064991456484, 19.256799107181845 ], [ -99.012037161492273, 19.256907167039969 ], [ -99.011977762206328, 19.256958647001813 ], [ -99.011842821839934, 19.256772256537928 ], [ -99.011764062192469, 19.256657217388749 ], [ -99.011821341543168, 19.256241736677755 ], [ -99.011690661435281, 19.256008226699741 ] ] ] } },
{ "type": "Feature", "properties": { "ID": "0901300011205", "Ambito": "Urbano" }, "geometry": { "type": "Polygon", "coordinates": [ [ [ -99.011134419365007, 19.248203052827041 ], [ -99.01113983284317, 19.24792350934171 ], [ -99.011116972026244, 19.247541418869794 ], [ -99.010879562141369, 19.247318079425668 ], [ -99.010528601861452, 19.247876059059426 ], [ -99.010129792576507, 19.247663109124602 ], [ -99.010344321968802, 19.247317939091882 ], [ -99.010451721129755, 19.247140078697942 ], [ -99.010503141824529, 19.247069568841251 ], [ -99.010618400857922, 19.247000188872025 ], [ -99.010813722555667, 19.247002649000624 ], [ -99.011064761393257, 19.2467191595067 ], [ -99.011115111974391, 19.246525430379837 ], [ -99.011137760999077, 19.246201279518218 ], [ -99.011124292088326, 19.246128539077151 ], [ -99.011183722321164, 19.246049889473035 ], [ -99.012288372158778, 19.24651098915048 ], [ -99.012377420887887, 19.246353939827824 ], [ -99.01238928150228, 19.246119999134514 ], [ -99.012460391978067, 19.245928789730577 ], [ -99.012701762168476, 19.245139629798246 ], [ -99.012467662061937, 19.245011399567005 ], [ -99.012557621663504, 19.244731140022093 ], [ -99.012819791436073, 19.244804289998278 ], [ -99.013909261109276, 19.245108259842315 ], [ -99.01390383110234, 19.245130509191966 ], [ -99.013865681002514, 19.245306649833381 ], [ -99.013740891091089, 19.245850539626783 ], [ -99.013660831787178, 19.246175618979677 ], [ -99.013698425854727, 19.24646766296522 ], [ -99.013581250734717, 19.247133389827518 ], [ -99.013530190315777, 19.247277159065451 ], [ -99.013431591160412, 19.247447759107676 ], [ -99.013339430723988, 19.24758791031784 ], [ -99.013215421478222, 19.24769242939843 ], [ -99.013193961922454, 19.247710569114936 ], [ -99.013052791412917, 19.247841659036993 ], [ -99.013008621292173, 19.247927059545503 ], [ -99.012895032066865, 19.248494058873906 ], [ -99.012280461838003, 19.248191538953137 ], [ -99.012120971671692, 19.248526168894227 ], [ -99.011134419365007, 19.248203052827041 ] ] ] } },
{ "type": "Feature", "properties": { "ID": "0901300011328", "Ambito": "Urbano" }, "geometry": { "type": "Polygon", "coordinates": [ [ [ -99.020207449718185, 19.253137457593034 ], [ -99.018248320256504, 19.252563828014917 ], [ -99.018451790743498, 19.25208892819429 ], [ -99.018676310652268, 19.252060059123185 ], [ -99.0188577197124, 19.25185701813238 ], [ -99.018970680098064, 19.251636458582364 ], [ -99.019138220003782, 19.251311708186062 ], [ -99.019308086425639, 19.251346224178462 ], [ -99.019395336199835, 19.251326851788509 ], [ -99.019570373303935, 19.251202423620864 ], [ -99.020087278370212, 19.250779582760337 ], [ -99.020263826223328, 19.250613205238714 ], [ -99.020420219299154, 19.250455564271931 ], [ -99.020516075599517, 19.250223012376289 ], [ -99.020593530520813, 19.25002689340214 ], [ -99.020641646082908, 19.249895519234659 ], [ -99.020762943224028, 19.249624022355729 ], [ -99.02079456007796, 19.249557628248528 ], [ -99.020910690435898, 19.249345078057431 ], [ -99.021081767055421, 19.249043297647628 ], [ -99.02123222583198, 19.248580256580716 ], [ -99.02126629825554, 19.248297583705842 ], [ -99.021467012221407, 19.24798319914072 ], [ -99.021574361655126, 19.247864020646531 ], [ -99.021829731063974, 19.247693345827347 ], [ -99.022103301096635, 19.247463579738771 ], [ -99.022144057806457, 19.247432021715237 ], [ -99.022335042328791, 19.247349538700519 ], [ -99.022569757564327, 19.247303827670393 ], [ -99.02307635899929, 19.247212057471852 ], [ -99.023376178221213, 19.247195794971685 ], [ -99.023440099284983, 19.247177781559323 ], [ -99.023803302130929, 19.247206156730105 ], [ -99.023868042992021, 19.247188734615438 ], [ -99.02446278484706, 19.246860419576951 ], [ -99.024638789185715, 19.246833324739129 ], [ -99.024818734399119, 19.246654686250391 ], [ -99.02491933213777, 19.246445837800788 ], [ -99.025007919223654, 19.246263828831612 ], [ -99.025105883335115, 19.246094602703387 ], [ -99.025215599671455, 19.245991181565046 ], [ -99.02527335494409, 19.245929441431322 ], [ -99.025365543233534, 19.245868632463072 ], [ -99.025518346121103, 19.245782827570693 ], [ -99.025549284149818, 19.24579925965331 ], [ -99.026212947532144, 19.246020533328007 ], [ -99.026029968545558, 19.246566536513217 ], [ -99.026387696800441, 19.246681891629386 ], [ -99.026260891600273, 19.246940924419373 ], [ -99.027410427059976, 19.247350049730674 ], [ -99.027328537272894, 19.247423620152709 ], [ -99.029330535699913, 19.248062735343872 ], [ -99.030201447818399, 19.248338278743066 ], [ -99.029939841162033, 19.248525686850599 ], [ -99.029903988457491, 19.248578318572843 ], [ -99.02989415294779, 19.248624271067577 ], [ -99.029895727342293, 19.248812479216426 ], [ -99.030384498074653, 19.24885265773187 ], [ -99.030555930297936, 19.248919553670838 ], [ -99.030901910174407, 19.248968308001231 ], [ -99.030799456732211, 19.249295959008069 ], [ -99.030787174823487, 19.249350172539032 ], [ -99.03068906280437, 19.249715512226203 ], [ -99.030600022871255, 19.250234048193871 ], [ -99.030511114447123, 19.250773210655797 ], [ -99.030623890256678, 19.250786935013998 ], [ -99.030676115515007, 19.25079946849646 ], [ -99.030801594374623, 19.251091122761093 ], [ -99.030902878768217, 19.251174617901061 ], [ -99.030645027765416, 19.251372588026975 ], [ -99.030395339883739, 19.251502877632866 ], [ -99.030017159432617, 19.251657248191766 ], [ -99.029789973742368, 19.251762055634583 ], [ -99.029631886155428, 19.251812242989061 ], [ -99.029404370605064, 19.251973172047006 ], [ -99.029257675865779, 19.25210272920577 ], [ -99.028855413498164, 19.2523484951708 ], [ -99.028094847537659, 19.252716224986134 ], [ -99.028033362994435, 19.252746297752353 ], [ -99.02791145114854, 19.252711655585284 ], [ -99.026960217445364, 19.252604682919692 ], [ -99.026915536095743, 19.252813076971922 ], [ -99.026380400917134, 19.252734099000062 ], [ -99.026044514625568, 19.252671745277919 ], [ -99.025954557689417, 19.252902729488191 ], [ -99.025825668580453, 19.25306048527068 ], [ -99.025795984524351, 19.253185968512657 ], [ -99.025784900624203, 19.253203956624471 ], [ -99.025747718933957, 19.253207538662004 ], [ -99.025447609410037, 19.253149847645968 ], [ -99.024903927719393, 19.253040271940236 ], [ -99.023659259329648, 19.252823008732815 ], [ -99.02351645962888, 19.25279718085174 ], [ -99.023491627631486, 19.252778473103191 ], [ -99.02340691763564, 19.25261235624864 ], [ -99.023379693538203, 19.252599174245599 ], [ -99.023205486337687, 19.252576034761688 ], [ -99.022854914152958, 19.252576542017156 ], [ -99.022477461518577, 19.252557358795649 ], [ -99.0224233434068, 19.252539031904547 ], [ -99.022210612080372, 19.252436599675008 ], [ -99.022201386602688, 19.252419877456788 ], [ -99.022253126109504, 19.252234112233086 ], [ -99.022258838456381, 19.252171019254074 ], [ -99.022237428489575, 19.252115142359592 ], [ -99.02215710331339, 19.252025620055807 ], [ -99.022036935795526, 19.252063252503561 ], [ -99.021824976818166, 19.252050052403774 ], [ -99.021785052303798, 19.252349293728653 ], [ -99.02172283476844, 19.252626319256546 ], [ -99.021680350191559, 19.252811801267018 ], [ -99.02157638752864, 19.253142360061847 ], [ -99.021426128556286, 19.25310559507869 ], [ -99.021310573531267, 19.253118134299644 ], [ -99.020985494227517, 19.253025062752911 ], [ -99.020933084600316, 19.253074991365967 ], [ -99.02084017071509, 19.253284048598534 ], [ -99.020787156739459, 19.25329600847321 ], [ -99.020207449718185, 19.253137457593034 ] ] ] } },
{ "type": "Feature", "properties": { "ID": "0901300010870", "Ambito": "Urbano" }, "geometry": { "type": "Polygon", "coordinates": [ [ [ -99.018168058172819, 19.240952563982972 ], [ -99.018360063030542, 19.240708704567314 ], [ -99.018572391059735, 19.240449914893105 ], [ -99.018778092687072, 19.240313060339137 ], [ -99.019041510783111, 19.240124519566976 ], [ -99.01910700034351, 19.239984941431118 ], [ -99.019181109047054, 19.239882232122003 ], [ -99.019192060485253, 19.239854161043159 ], [ -99.019195019482311, 19.239734601392716 ], [ -99.019206310441376, 19.239677111783845 ], [ -99.019274058780724, 19.239632621811872 ], [ -99.019369939064774, 19.239600401857231 ], [ -99.019436590047562, 19.239577110603978 ], [ -99.01944492007928, 19.239556061853719 ], [ -99.019442479119149, 19.239534311219558 ], [ -99.019418960080145, 19.239514280819041 ], [ -99.019287939264643, 19.239477200697678 ], [ -99.019210053353618, 19.239406577372929 ], [ -99.019365938192792, 19.239263568088091 ], [ -99.019405537305701, 19.239216828113253 ], [ -99.019445056833803, 19.239148529086012 ], [ -99.019742257921763, 19.239246908297666 ], [ -99.019803677607484, 19.239278287048723 ], [ -99.019899247432335, 19.239366787591237 ], [ -99.019986433078117, 19.239370264365867 ], [ -99.020148620946514, 19.239332688159617 ], [ -99.020339258467018, 19.239317536976412 ], [ -99.020547590522867, 19.239258153889612 ], [ -99.02116413813124, 19.239321018261052 ], [ -99.021306937442517, 19.239378257604685 ], [ -99.021724817630172, 19.239644337943638 ], [ -99.02211113685388, 19.239790568026287 ], [ -99.02347001929391, 19.240214351008383 ], [ -99.023437359797228, 19.240478369399824 ], [ -99.023385194380282, 19.240605727350928 ], [ -99.023306317500328, 19.240782970631539 ], [ -99.023141665033776, 19.241097288376878 ], [ -99.02287705543128, 19.241504606282181 ], [ -99.022651016374311, 19.241827405762781 ], [ -99.022628636676416, 19.242125511916345 ], [ -99.022584136831895, 19.24219947780454 ], [ -99.022481655985771, 19.242279807398809 ], [ -99.022340333294039, 19.242525648668085 ], [ -99.022307449880742, 19.242597770673608 ], [ -99.022169913907732, 19.242856856307373 ], [ -99.022036218091856, 19.243105980888007 ], [ -99.022014543690887, 19.243273074357237 ], [ -99.022002464192596, 19.243322257056231 ], [ -99.021866466909898, 19.243752770001151 ], [ -99.021554327125656, 19.244144111527472 ], [ -99.021411294410981, 19.244267859340781 ], [ -99.021187239142861, 19.244363505892338 ], [ -99.021088620901651, 19.244524091082685 ], [ -99.021052451205151, 19.24465133506212 ], [ -99.021004925928011, 19.244947369441483 ], [ -99.020970557845843, 19.24510370840451 ], [ -99.020931985459555, 19.245305986165086 ], [ -99.020895077550222, 19.245565480613653 ], [ -99.020454469270732, 19.245706788885965 ], [ -99.0203143704734, 19.245777016844041 ], [ -99.020288449761722, 19.245802395469624 ], [ -99.020240473485359, 19.245866890742651 ], [ -99.020213331257438, 19.245942344980897 ], [ -99.020149098871698, 19.246224900897001 ], [ -99.020037685963445, 19.246549811325501 ], [ -99.019864839873776, 19.246543271256076 ], [ -99.019834313266074, 19.246541322371701 ], [ -99.019805714067473, 19.245959014721176 ], [ -99.019660371332321, 19.245958781337325 ], [ -99.019535023945593, 19.245640360741959 ], [ -99.019440650080682, 19.245328065597178 ], [ -99.019387342110718, 19.245235381965525 ], [ -99.019242128377499, 19.245210677538712 ], [ -99.018185831676632, 19.245005162848088 ], [ -99.018102650454026, 19.24511289095884 ], [ -99.018029660384087, 19.245154929750356 ], [ -99.017945489457787, 19.245169479453352 ], [ -99.017860420363107, 19.245167889805579 ], [ -99.017817290762054, 19.245156020812995 ], [ -99.017607939583201, 19.244649940952932 ], [ -99.017568879858686, 19.244594930141933 ], [ -99.017456168667024, 19.244517990357743 ], [ -99.017524394132209, 19.244281740491527 ], [ -99.017668062288891, 19.243784245293881 ], [ -99.017460521593208, 19.243635048984665 ], [ -99.017305415064413, 19.243496005466195 ], [ -99.017134391607641, 19.243344572949518 ], [ -99.017220133241523, 19.243027706828379 ], [ -99.017299258377733, 19.242821953448054 ], [ -99.017354915157185, 19.242597840971673 ], [ -99.017254332246097, 19.242321813501491 ], [ -99.017627706675242, 19.241917527550015 ], [ -99.017822994519435, 19.241594715904341 ], [ -99.017876638035261, 19.241355406318807 ], [ -99.017973197954689, 19.241185735754165 ], [ -99.018168058172819, 19.240952563982972 ] ] ] } },
{ "type": "Feature", "properties": { "ID": "0901300010866", "Ambito": "Urbano" }, "geometry": { "type": "Polygon", "coordinates": [ [ [ -99.030384498074653, 19.24885265773187 ], [ -99.029895727342293, 19.248812479216426 ], [ -99.02989415294779, 19.248624271067577 ], [ -99.029903988457491, 19.248578318572843 ], [ -99.029939841162033, 19.248525686850599 ], [ -99.030201447818399, 19.248338278743066 ], [ -99.030503876923262, 19.247723594895742 ], [ -99.030503915808453, 19.247723517743498 ], [ -99.030659639225334, 19.247415049945161 ], [ -99.030905173526477, 19.24702934951689 ], [ -99.031096226221734, 19.246636389519949 ], [ -99.031167054115556, 19.246184875612045 ], [ -99.031999593638517, 19.246529208098284 ], [ -99.032245721405758, 19.246573762172272 ], [ -99.032297064721732, 19.246583055950559 ], [ -99.032407313068276, 19.246719718463329 ], [ -99.032851473685398, 19.246810728209923 ], [ -99.033160312239005, 19.246808319749782 ], [ -99.033376826101531, 19.246892130074926 ], [ -99.033703246559824, 19.246106938511474 ], [ -99.033867510483901, 19.245941713043621 ], [ -99.033879280481614, 19.245911460662708 ], [ -99.03390647382993, 19.245679869744741 ], [ -99.033936649323252, 19.245422858675212 ], [ -99.033925521960825, 19.245280720961951 ], [ -99.033959117281469, 19.245246613754052 ], [ -99.034316293215838, 19.245297044269623 ], [ -99.034796852105288, 19.245428509794529 ], [ -99.034813564517648, 19.245211450178068 ], [ -99.035119506428188, 19.245174935798474 ], [ -99.035393366039273, 19.244970679334994 ], [ -99.03620662254697, 19.244864799648401 ], [ -99.036691195171031, 19.244801710027307 ], [ -99.037057444525686, 19.244769959586776 ], [ -99.038337064694943, 19.244727084938479 ], [ -99.038258805958293, 19.245043388344705 ], [ -99.038288415981967, 19.245225486189018 ], [ -99.038362153251185, 19.245365059098969 ], [ -99.038351785521243, 19.245503098176808 ], [ -99.038421162395025, 19.246089226397743 ], [ -99.038586024468017, 19.246107769913024 ], [ -99.038615711300437, 19.246934660460127 ], [ -99.038476445768239, 19.247020653520732 ], [ -99.03834940228009, 19.247068321870803 ], [ -99.038291804864926, 19.247081516062913 ], [ -99.03826215467889, 19.247088161680672 ], [ -99.037470163343301, 19.247441936223307 ], [ -99.037289045159767, 19.247547572927534 ], [ -99.037191898533834, 19.247627649750555 ], [ -99.036943997301364, 19.247885273601987 ], [ -99.036631218709658, 19.248033196828011 ], [ -99.036297758993186, 19.248093368499031 ], [ -99.035855220300448, 19.248369013076395 ], [ -99.035301417174921, 19.248867584207801 ], [ -99.03509330824879, 19.248966576573071 ], [ -99.034938518874597, 19.24898916253256 ], [ -99.034807586970416, 19.248986351108776 ], [ -99.034735228020736, 19.24900590513462 ], [ -99.034581230041965, 19.249094571849028 ], [ -99.034449088245722, 19.249153104255441 ], [ -99.034305972947266, 19.249188168173806 ], [ -99.034240439399852, 19.249224667116465 ], [ -99.034112316739893, 19.249342007797591 ], [ -99.034005758011929, 19.249454160153295 ], [ -99.033952569740848, 19.249534522438999 ], [ -99.03352045416311, 19.249813214092349 ], [ -99.033404398141968, 19.249857438632617 ], [ -99.033253710312124, 19.249869340053451 ], [ -99.03296227401367, 19.250021382962959 ], [ -99.032371570803477, 19.250382102313708 ], [ -99.032245525049362, 19.25044340555343 ], [ -99.032122557904742, 19.250504736593424 ], [ -99.032003678070666, 19.250568441916503 ], [ -99.031725397004323, 19.25065586146393 ], [ -99.031577219482429, 19.250737808431943 ], [ -99.031535827367392, 19.25077222867678 ], [ -99.030902878768217, 19.251174617901061 ], [ -99.030801594374623, 19.251091122761093 ], [ -99.030676115515007, 19.25079946849646 ], [ -99.030623890256678, 19.250786935013998 ], [ -99.030511114447123, 19.250773210655797 ], [ -99.030600022871255, 19.250234048193871 ], [ -99.03068906280437, 19.249715512226203 ], [ -99.030787174823487, 19.249350172539032 ], [ -99.030799456732211, 19.249295959008069 ], [ -99.030901910174407, 19.248968308001231 ], [ -99.030555930297936, 19.248919553670838 ], [ -99.030384498074653, 19.24885265773187 ] ] ] } },
{ "type": "Feature", "properties": { "ID": "0901300011192", "Ambito": "Urbano" }, "geometry": { "type": "Polygon", "coordinates": [ [ [ -99.017509868386782, 19.252826321787591 ], [ -99.017265117123159, 19.252709840904711 ], [ -99.016858199701431, 19.252862248735344 ], [ -99.016665520995119, 19.253007887879523 ], [ -99.016496601782265, 19.253237507781201 ], [ -99.016345878577738, 19.253325622497275 ], [ -99.015949957193655, 19.253194343011948 ], [ -99.015847252112067, 19.253187519409071 ], [ -99.015400545059876, 19.253330892256987 ], [ -99.015518291164099, 19.25284876812346 ], [ -99.014816561627924, 19.252615938022217 ], [ -99.014527481490305, 19.252530658389304 ], [ -99.014057921187771, 19.25241804784034 ], [ -99.014088479792463, 19.252353762153522 ], [ -99.014354063785973, 19.252320133188913 ], [ -99.014539726680241, 19.25194846245294 ], [ -99.014782546236191, 19.251774441708466 ], [ -99.014991088135076, 19.251580727437986 ], [ -99.015303565019408, 19.251114797781163 ], [ -99.015456451704281, 19.250825490643191 ], [ -99.014294384560955, 19.25043679335511 ], [ -99.014112028762639, 19.250372155144429 ], [ -99.013669430179419, 19.250221552862797 ], [ -99.013627821963382, 19.25023042880148 ], [ -99.01320432144125, 19.250081648910331 ], [ -99.013175481209643, 19.250010078361825 ], [ -99.013074512023536, 19.249929958705216 ], [ -99.013079051325903, 19.249830939320226 ], [ -99.013053230785275, 19.249711028186152 ], [ -99.012889572056309, 19.249474708582881 ], [ -99.012839721530028, 19.24894867868575 ], [ -99.012848621695724, 19.24887208895337 ], [ -99.012879792050029, 19.248603358958398 ], [ -99.012895032066865, 19.248494058873906 ], [ -99.013008621292173, 19.247927059545503 ], [ -99.013052791412917, 19.247841659036993 ], [ -99.013193961922454, 19.247710569114936 ], [ -99.013215421478222, 19.24769242939843 ], [ -99.013339430723988, 19.24758791031784 ], [ -99.013431591160412, 19.247447759107676 ], [ -99.013530190315777, 19.247277159065451 ], [ -99.013581250734717, 19.247133389827518 ], [ -99.013698425854727, 19.24646766296522 ], [ -99.013660831787178, 19.246175618979677 ], [ -99.013740891091089, 19.245850539626783 ], [ -99.013865681002514, 19.245306649833381 ], [ -99.01390383110234, 19.245130509191966 ], [ -99.013909261109276, 19.245108259842315 ], [ -99.01394989042285, 19.244915449636594 ], [ -99.013964170594946, 19.244847740437812 ], [ -99.013987821088008, 19.244677429586861 ], [ -99.014014540879614, 19.244553340733731 ], [ -99.014048707369454, 19.244417608343614 ], [ -99.014055047933581, 19.244392417078998 ], [ -99.014065741416843, 19.244349940050675 ], [ -99.014105189986836, 19.244232419676671 ], [ -99.014140398921072, 19.24409968961751 ], [ -99.014145098809948, 19.244082066434682 ], [ -99.014166761505223, 19.244000760014877 ], [ -99.014295491156901, 19.243633769560464 ], [ -99.014320413689532, 19.243580723567064 ], [ -99.014361125441468, 19.243494068798068 ], [ -99.014388415253492, 19.243435985995465 ], [ -99.014441574082156, 19.243322840109577 ], [ -99.014523609421232, 19.243148234384595 ], [ -99.014631511410229, 19.242918570958171 ], [ -99.014841921590374, 19.242603450143498 ], [ -99.014927190667848, 19.242456740891409 ], [ -99.014946970022152, 19.242251940940253 ], [ -99.014975000633925, 19.242095400533032 ], [ -99.015055891010675, 19.241854280226647 ], [ -99.015274509654688, 19.241370570377143 ], [ -99.015398054942366, 19.241012821385052 ], [ -99.015407120638471, 19.240986571468088 ], [ -99.01548217123171, 19.240854091086291 ], [ -99.015550490026058, 19.240789571280406 ], [ -99.015609710389214, 19.24073673122756 ], [ -99.015687329776796, 19.240617992234228 ], [ -99.015734919892211, 19.240545190334288 ], [ -99.01606065084404, 19.240566990792669 ], [ -99.016320727500286, 19.240501747698293 ], [ -99.016668332912204, 19.240618257269606 ], [ -99.016890955941392, 19.240642314735648 ], [ -99.016979701587999, 19.240645503334502 ], [ -99.017007620973132, 19.240644310907417 ], [ -99.018168058172819, 19.240952563982972 ], [ -99.017973197954689, 19.241185735754165 ], [ -99.017876638035261, 19.241355406318807 ], [ -99.017822994519435, 19.241594715904341 ], [ -99.017627706675242, 19.241917527550015 ], [ -99.017254332246097, 19.242321813501491 ], [ -99.017354915157185, 19.242597840971673 ], [ -99.017299258377733, 19.242821953448054 ], [ -99.017220133241523, 19.243027706828379 ], [ -99.017134391607641, 19.243344572949518 ], [ -99.017305415064413, 19.243496005466195 ], [ -99.017460521593208, 19.243635048984665 ], [ -99.017668062288891, 19.243784245293881 ], [ -99.017524394132209, 19.244281740491527 ], [ -99.017456168667024, 19.244517990357743 ], [ -99.017568879858686, 19.244594930141933 ], [ -99.017607939583201, 19.244649940952932 ], [ -99.017817290762054, 19.245156020812995 ], [ -99.017860420363107, 19.245167889805579 ], [ -99.017945489457787, 19.245169479453352 ], [ -99.018029660384087, 19.245154929750356 ], [ -99.018102650454026, 19.24511289095884 ], [ -99.018185831676632, 19.245005162848088 ], [ -99.019242128377499, 19.245210677538712 ], [ -99.019387342110718, 19.245235381965525 ], [ -99.019440650080682, 19.245328065597178 ], [ -99.019535023945593, 19.245640360741959 ], [ -99.019660371332321, 19.245958781337325 ], [ -99.019805714067473, 19.245959014721176 ], [ -99.019834313266074, 19.246541322371701 ], [ -99.019864839873776, 19.246543271256076 ], [ -99.020037685963445, 19.246549811325501 ], [ -99.020149098871698, 19.246224900897001 ], [ -99.020213331257438, 19.245942344980897 ], [ -99.020240473485359, 19.245866890742651 ], [ -99.020288449761722, 19.245802395469624 ], [ -99.0203143704734, 19.245777016844041 ], [ -99.020454469270732, 19.245706788885965 ], [ -99.020895077550222, 19.245565480613653 ], [ -99.020943470741884, 19.245551683811115 ], [ -99.021349513057729, 19.245340369694308 ], [ -99.02139121078946, 19.245323512434034 ], [ -99.021429776120499, 19.245320078432663 ], [ -99.02159753803457, 19.245352452809342 ], [ -99.021892688129583, 19.245414266445529 ], [ -99.022224347445217, 19.245434938245875 ], [ -99.02233727731975, 19.245360574973386 ], [ -99.02242199339301, 19.245329884840416 ], [ -99.022431899132229, 19.245275065411008 ], [ -99.022624229113177, 19.245011019863448 ], [ -99.022696659483998, 19.244832969360512 ], [ -99.022804017473476, 19.244753471197303 ], [ -99.023189075852116, 19.244652679563732 ], [ -99.023248491698226, 19.244596681804016 ], [ -99.023295353181155, 19.244502318859592 ], [ -99.023304294776054, 19.244439569148263 ], [ -99.023444535027878, 19.24429922438302 ], [ -99.023517900997859, 19.244302827075796 ], [ -99.023630948812155, 19.2443263559976 ], [ -99.023758055448724, 19.244360178817335 ], [ -99.023858000327209, 19.244360231869845 ], [ -99.023910102844283, 19.244332012928581 ], [ -99.0240040258535, 19.24418122707344 ], [ -99.024475241453715, 19.24378205307784 ], [ -99.024971210518729, 19.24362923278029 ], [ -99.02504364269231, 19.243817591384005 ], [ -99.024982701545881, 19.243892199949457 ], [ -99.02521931535918, 19.244081254964406 ], [ -99.025844870404711, 19.244298844560216 ], [ -99.025672156837928, 19.244651183158581 ], [ -99.025345377020955, 19.245324626004418 ], [ -99.025309167681939, 19.245463903900173 ], [ -99.025381607365048, 19.245621848086738 ], [ -99.025518346121103, 19.245782827570693 ], [ -99.025365543233534, 19.245868632463072 ], [ -99.02527335494409, 19.245929441431322 ], [ -99.025215599671455, 19.245991181565046 ], [ -99.025105883335115, 19.246094602703387 ], [ -99.025007919223654, 19.246263828831612 ], [ -99.02491933213777, 19.246445837800788 ], [ -99.024818734399119, 19.246654686250391 ], [ -99.024638789185715, 19.246833324739129 ], [ -99.02446278484706, 19.246860419576951 ], [ -99.023868042992021, 19.247188734615438 ], [ -99.023803302130929, 19.247206156730105 ], [ -99.023440099284983, 19.247177781559323 ], [ -99.023376178221213, 19.247195794971685 ], [ -99.02307635899929, 19.247212057471852 ], [ -99.022569757564327, 19.247303827670393 ], [ -99.022335042328791, 19.247349538700519 ], [ -99.022144057806457, 19.247432021715237 ], [ -99.022103301096635, 19.247463579738771 ], [ -99.021829731063974, 19.247693345827347 ], [ -99.021574361655126, 19.247864020646531 ], [ -99.021467012221407, 19.24798319914072 ], [ -99.02126629825554, 19.248297583705842 ], [ -99.02123222583198, 19.248580256580716 ], [ -99.021081767055421, 19.249043297647628 ], [ -99.020910690435898, 19.249345078057431 ], [ -99.02079456007796, 19.249557628248528 ], [ -99.020762943224028, 19.249624022355729 ], [ -99.020641646082908, 19.249895519234659 ], [ -99.020593530520813, 19.25002689340214 ], [ -99.020516075599517, 19.250223012376289 ], [ -99.020420219299154, 19.250455564271931 ], [ -99.020263826223328, 19.250613205238714 ], [ -99.020087278370212, 19.250779582760337 ], [ -99.019570373303935, 19.251202423620864 ], [ -99.019395336199835, 19.251326851788509 ], [ -99.019308086425639, 19.251346224178462 ], [ -99.019138220003782, 19.251311708186062 ], [ -99.018970680098064, 19.251636458582364 ], [ -99.0188577197124, 19.25185701813238 ], [ -99.018676310652268, 19.252060059123185 ], [ -99.018451790743498, 19.25208892819429 ], [ -99.018248320256504, 19.252563828014917 ], [ -99.018088914015607, 19.252958855453716 ], [ -99.017615688086849, 19.253854872847281 ], [ -99.017055410852706, 19.253654193917288 ], [ -99.017289000338067, 19.253253458789441 ], [ -99.017509868386782, 19.252826321787591 ] ] ] } },
{ "type": "Feature", "properties": { "ID": "0901300010550", "Ambito": "Urbano" }, "geometry": { "type": "Polygon", "coordinates": [ [ [ -99.011977762206328, 19.256958647001813 ], [ -99.012037161492273, 19.256907167039969 ], [ -99.012064991456484, 19.256799107181845 ], [ -99.012235661777268, 19.256195906808866 ], [ -99.012372991762476, 19.255693596785612 ], [ -99.012402122165312, 19.255599857086395 ], [ -99.012610392168099, 19.254947047166443 ], [ -99.012751451554436, 19.254505927075154 ], [ -99.012883881819391, 19.25409405761388 ], [ -99.012988971796446, 19.253770427467298 ], [ -99.01198814158198, 19.253524707392895 ], [ -99.012288162281209, 19.25277815819657 ], [ -99.012572261803072, 19.252005217967316 ], [ -99.012888881671671, 19.251160968100898 ], [ -99.01305999046312, 19.250630068099753 ], [ -99.01316843121927, 19.250252858397356 ], [ -99.01320432144125, 19.250081648910331 ], [ -99.013627821963382, 19.25023042880148 ], [ -99.013669430179419, 19.250221552862797 ], [ -99.014112028762639, 19.250372155144429 ], [ -99.014294384560955, 19.25043679335511 ], [ -99.015456451704281, 19.250825490643191 ], [ -99.015303565019408, 19.251114797781163 ], [ -99.014991088135076, 19.251580727437986 ], [ -99.014782546236191, 19.251774441708466 ], [ -99.014539726680241, 19.25194846245294 ], [ -99.014354063785973, 19.252320133188913 ], [ -99.014088479792463, 19.252353762153522 ], [ -99.014057921187771, 19.25241804784034 ], [ -99.014527481490305, 19.252530658389304 ], [ -99.014816561627924, 19.252615938022217 ], [ -99.015518291164099, 19.25284876812346 ], [ -99.015400545059876, 19.253330892256987 ], [ -99.015847252112067, 19.253187519409071 ], [ -99.015949957193655, 19.253194343011948 ], [ -99.016345878577738, 19.253325622497275 ], [ -99.016496601782265, 19.253237507781201 ], [ -99.016665520995119, 19.253007887879523 ], [ -99.016858199701431, 19.252862248735344 ], [ -99.017265117123159, 19.252709840904711 ], [ -99.017509868386782, 19.252826321787591 ], [ -99.017289000338067, 19.253253458789441 ], [ -99.017055410852706, 19.253654193917288 ], [ -99.017615688086849, 19.253854872847281 ], [ -99.018088914015607, 19.252958855453716 ], [ -99.018248320256504, 19.252563828014917 ], [ -99.020207449718185, 19.253137457593034 ], [ -99.020196254643011, 19.253210634194822 ], [ -99.020173876045845, 19.253252862437019 ], [ -99.020069023702845, 19.25335454319773 ], [ -99.020040064928367, 19.253367588227288 ], [ -99.020008187810873, 19.253366383761247 ], [ -99.019613191412347, 19.253238799769459 ], [ -99.019498519775553, 19.253236677531085 ], [ -99.019434714959402, 19.253251577774744 ], [ -99.019353678808017, 19.253288657854178 ], [ -99.019303115260556, 19.253336716108663 ], [ -99.019262790024797, 19.253398617504335 ], [ -99.019198531590362, 19.25359450610965 ], [ -99.019229290425443, 19.253884617594853 ], [ -99.01903269042576, 19.254308877169471 ], [ -99.018309096406185, 19.254077948188939 ], [ -99.018332636082178, 19.254779902535148 ], [ -99.018287632513193, 19.254863857289472 ], [ -99.018083910591372, 19.255433507161467 ], [ -99.016797490283807, 19.255104937378544 ], [ -99.015964585301958, 19.254892765379623 ], [ -99.015881460867334, 19.254870937288818 ], [ -99.015737601451661, 19.255282426954579 ], [ -99.015411690600942, 19.25518878768122 ], [ -99.015314000742677, 19.255501876987328 ], [ -99.015187109783994, 19.255940857223727 ], [ -99.015388141304228, 19.256223706874309 ], [ -99.015393629738369, 19.256313417449469 ], [ -99.015375661529134, 19.256411616787471 ], [ -99.015052975492765, 19.256334911472162 ], [ -99.014951722068275, 19.256529253214925 ], [ -99.014769014256345, 19.256829987120902 ], [ -99.014666737710414, 19.256998331951547 ], [ -99.014458541162199, 19.257329423633877 ], [ -99.014374750983066, 19.257545652191965 ], [ -99.014303298547119, 19.257723153873172 ], [ -99.014255834032681, 19.257833216067535 ], [ -99.01417914974094, 19.258021935993124 ], [ -99.013909091781585, 19.258576286478217 ], [ -99.013714721197459, 19.258493846460016 ], [ -99.013435721379224, 19.258370816666694 ], [ -99.013209510577411, 19.258233047630206 ], [ -99.013005309382123, 19.258086735865795 ], [ -99.01295709168005, 19.258052186564964 ], [ -99.012840726396121, 19.257956032930963 ], [ -99.012826390988209, 19.257944187533742 ], [ -99.012669880441081, 19.257784287096893 ], [ -99.012517561614473, 19.257629106493727 ], [ -99.012177371526235, 19.257224906558069 ], [ -99.011977762206328, 19.256958647001813 ] ] ] } },
{ "type": "Feature", "properties": { "ID": "0901300011563", "Ambito": "Urbano" }, "geometry": { "type": "Polygon", "coordinates": [ [ [ -99.015734919892211, 19.240545190334288 ], [ -99.016024404841261, 19.240250617249043 ], [ -99.016460740681737, 19.239806608215716 ], [ -99.016441235989134, 19.239667172646534 ], [ -99.016477106330257, 19.239637167015793 ], [ -99.016712029720821, 19.23944064984801 ], [ -99.016772119195608, 19.239491536134832 ], [ -99.016999706392781, 19.239264325831751 ], [ -99.016999767828977, 19.239264264531318 ], [ -99.017221294450977, 19.239043104115741 ], [ -99.017304298366938, 19.238781779765176 ], [ -99.01733018460142, 19.238756154762441 ], [ -99.017370822371504, 19.238655823954598 ], [ -99.017391078789416, 19.238574185446545 ], [ -99.017487873017956, 19.238318915706877 ], [ -99.017748332824112, 19.238388506783647 ], [ -99.01774532803978, 19.238493241296609 ], [ -99.017841050467183, 19.238589673648644 ], [ -99.018311559783186, 19.238815228198302 ], [ -99.019210053353618, 19.239406577372929 ], [ -99.019287939264643, 19.239477200697678 ], [ -99.019418960080145, 19.239514280819041 ], [ -99.019442479119149, 19.239534311219558 ], [ -99.01944492007928, 19.239556061853719 ], [ -99.019436590047562, 19.239577110603978 ], [ -99.019369939064774, 19.239600401857231 ], [ -99.019274058780724, 19.239632621811872 ], [ -99.019206310441376, 19.239677111783845 ], [ -99.019195019482311, 19.239734601392716 ], [ -99.019192060485253, 19.239854161043159 ], [ -99.019181109047054, 19.239882232122003 ], [ -99.01910700034351, 19.239984941431118 ], [ -99.019041510783111, 19.240124519566976 ], [ -99.018778092687072, 19.240313060339137 ], [ -99.018572391059735, 19.240449914893105 ], [ -99.018360063030542, 19.240708704567314 ], [ -99.018168058172819, 19.240952563982972 ], [ -99.017007620973132, 19.240644310907417 ], [ -99.016979701587999, 19.240645503334502 ], [ -99.016890955941392, 19.240642314735648 ], [ -99.016668332912204, 19.240618257269606 ], [ -99.016320727500286, 19.240501747698293 ], [ -99.01606065084404, 19.240566990792669 ], [ -99.015734919892211, 19.240545190334288 ] ] ] } },
{ "type": "Feature", "properties": { "ID": "0901300010692", "Ambito": "Urbano" }, "geometry": { "type": "Polygon", "coordinates": [ [ [ -99.022919048769069, 19.258226487020938 ], [ -99.023441898513539, 19.257098515657589 ], [ -99.023789274977361, 19.256389637873287 ], [ -99.023904857176248, 19.256426435547677 ], [ -99.02413982754608, 19.256456356538511 ], [ -99.024303320157429, 19.256424820064776 ], [ -99.024363711040863, 19.256375668906326 ], [ -99.024715836251673, 19.255609551175436 ], [ -99.024824085335695, 19.255345356529975 ], [ -99.024892372949125, 19.254980891603307 ], [ -99.025001487157795, 19.254752169387341 ], [ -99.025298307178716, 19.25448219225613 ], [ -99.025632962371589, 19.254154994645223 ], [ -99.026223177348882, 19.253840988723301 ], [ -99.026919520613887, 19.253449963227038 ], [ -99.027850034299831, 19.252910898585363 ], [ -99.028033362994435, 19.252746297752353 ], [ -99.028094847537659, 19.252716224986134 ], [ -99.028855413498164, 19.2523484951708 ], [ -99.029257675865779, 19.25210272920577 ], [ -99.029404370605064, 19.251973172047006 ], [ -99.029631886155428, 19.251812242989061 ], [ -99.029789973742368, 19.251762055634583 ], [ -99.030017159432617, 19.251657248191766 ], [ -99.030395339883739, 19.251502877632866 ], [ -99.030645027765416, 19.251372588026975 ], [ -99.030902878768217, 19.251174617901061 ], [ -99.031535827367392, 19.25077222867678 ], [ -99.031577219482429, 19.250737808431943 ], [ -99.031725397004323, 19.25065586146393 ], [ -99.032003678070666, 19.250568441916503 ], [ -99.032122557904742, 19.250504736593424 ], [ -99.032245525049362, 19.25044340555343 ], [ -99.032371570803477, 19.250382102313708 ], [ -99.03296227401367, 19.250021382962959 ], [ -99.033253710312124, 19.249869340053451 ], [ -99.033404398141968, 19.249857438632617 ], [ -99.03352045416311, 19.249813214092349 ], [ -99.033952569740848, 19.249534522438999 ], [ -99.034005758011929, 19.249454160153295 ], [ -99.034112316739893, 19.249342007797591 ], [ -99.034240439399852, 19.249224667116465 ], [ -99.034305972947266, 19.249188168173806 ], [ -99.034449088245722, 19.249153104255441 ], [ -99.034581230041965, 19.249094571849028 ], [ -99.034735228020736, 19.24900590513462 ], [ -99.034807586970416, 19.248986351108776 ], [ -99.034938518874597, 19.24898916253256 ], [ -99.03509330824879, 19.248966576573071 ], [ -99.035301417174921, 19.248867584207801 ], [ -99.035855220300448, 19.248369013076395 ], [ -99.036297758993186, 19.248093368499031 ], [ -99.036631218709658, 19.248033196828011 ], [ -99.036943997301364, 19.247885273601987 ], [ -99.037191898533834, 19.247627649750555 ], [ -99.037289045159767, 19.247547572927534 ], [ -99.037470163343301, 19.247441936223307 ], [ -99.03826215467889, 19.247088161680672 ], [ -99.038291804864926, 19.247081516062913 ], [ -99.03834940228009, 19.247068321870803 ], [ -99.038476445768239, 19.247020653520732 ], [ -99.038615711300437, 19.246934660460127 ], [ -99.039034103546541, 19.246608251358346 ], [ -99.041049713992251, 19.245476818878473 ], [ -99.041654271138142, 19.24506965701417 ], [ -99.04189382250344, 19.244979567722442 ], [ -99.042184711775263, 19.244808256375002 ], [ -99.042242271869412, 19.244724108760632 ], [ -99.042288930424235, 19.244690137897564 ], [ -99.042362501403133, 19.24468001848458 ], [ -99.042490489192716, 19.244697724839902 ], [ -99.042586443647551, 19.244688607316959 ], [ -99.042748162489076, 19.244632545665116 ], [ -99.042841967601674, 19.244531743240486 ], [ -99.04293556252712, 19.244389298379232 ], [ -99.042988641662419, 19.24435509972847 ], [ -99.04322215546533, 19.244276481651347 ], [ -99.043373896377403, 19.244130134267795 ], [ -99.043507521130536, 19.244071736857688 ], [ -99.043616620106562, 19.244034126689471 ], [ -99.043513212879247, 19.244339497233884 ], [ -99.043418393606274, 19.24478322387435 ], [ -99.043423694676662, 19.24485347803282 ], [ -99.043435431866371, 19.244884836484285 ], [ -99.04345645597661, 19.244919108408521 ], [ -99.043623840923573, 19.245090158791445 ], [ -99.043610549591023, 19.245228219656013 ], [ -99.043626474374321, 19.245444597185966 ], [ -99.043657731967912, 19.245621791154679 ], [ -99.043683539804206, 19.245676951447617 ], [ -99.043719271629172, 19.245722598175533 ], [ -99.043772925549206, 19.245777824417079 ], [ -99.043868635372291, 19.245897397965418 ], [ -99.043876197062673, 19.246037420169092 ], [ -99.043852371961705, 19.246105991556291 ], [ -99.043813347507523, 19.246177141924573 ], [ -99.043736523126654, 19.246260736403595 ], [ -99.043702009505679, 19.246359359206604 ], [ -99.043702916339939, 19.246538504044814 ], [ -99.043776620474944, 19.246945206152645 ], [ -99.043783493155118, 19.247035533992857 ], [ -99.043757783795115, 19.247266496215538 ], [ -99.043613394250357, 19.24754614577477 ], [ -99.043571423358756, 19.247660415353696 ], [ -99.043568570549837, 19.247704607235175 ], [ -99.04359728531017, 19.247777084094505 ], [ -99.043578872008865, 19.248238104151387 ], [ -99.043544249966757, 19.248693605658357 ], [ -99.043552526600962, 19.248777745040641 ], [ -99.043591883786036, 19.249263832784553 ], [ -99.043579087548679, 19.249616108934298 ], [ -99.04355225313023, 19.249825033696432 ], [ -99.043490998760063, 19.250313876807141 ], [ -99.043452844168144, 19.250578366038805 ], [ -99.043426844190449, 19.250714998398294 ], [ -99.043307024265005, 19.251372181438505 ], [ -99.043260533301378, 19.251766301592365 ], [ -99.043222132051753, 19.252006345736849 ], [ -99.043053020864079, 19.252448236335312 ], [ -99.0430341165724, 19.252528410909015 ], [ -99.043016312957377, 19.252886585438169 ], [ -99.043003607938687, 19.253255535562975 ], [ -99.043157068957541, 19.253378782903848 ], [ -99.043220713184084, 19.253469974966102 ], [ -99.043247969564192, 19.253574785818042 ], [ -99.043251244084601, 19.25364484790056 ], [ -99.043095348395596, 19.25448643965376 ], [ -99.043012638712469, 19.254564977097118 ], [ -99.042941224359311, 19.255215987768494 ], [ -99.042880554559005, 19.255320107029004 ], [ -99.040880307462032, 19.255881276569589 ], [ -99.039355854476227, 19.256296756663698 ], [ -99.03728385824212, 19.25697783715297 ], [ -99.036958822901013, 19.257093595249433 ], [ -99.035618955509392, 19.257570955241007 ], [ -99.033937044886812, 19.258175524333151 ], [ -99.033586477788234, 19.258304542737076 ], [ -99.03308671581074, 19.258469827041846 ], [ -99.032954656435479, 19.258464926271081 ], [ -99.032565338991105, 19.258456114969682 ], [ -99.031809397534559, 19.258395745319156 ], [ -99.030928765995711, 19.258259986077498 ], [ -99.030893283810201, 19.258291454007281 ], [ -99.030730987252468, 19.258858856385064 ], [ -99.030407257096428, 19.259788826494724 ], [ -99.029825628986856, 19.259815605378314 ], [ -99.029217049279382, 19.259769592619566 ], [ -99.028916352236408, 19.259726520055153 ], [ -99.027640310875213, 19.259424345484103 ], [ -99.026160639587999, 19.259073200933209 ], [ -99.024935250928593, 19.25876029979311 ], [ -99.022919048769069, 19.258226487020938 ] ] ] } },
{ "type": "Feature", "properties": { "ID": "0901300011313", "Ambito": "Urbano" }, "geometry": { "type": "Polygon", "coordinates": [ [ [ -99.019066619823235, 19.2608922456626 ], [ -99.019021867218598, 19.260875621731511 ], [ -99.019021467869422, 19.260875473413197 ], [ -99.018984109840133, 19.260861596662149 ], [ -99.018900118885043, 19.260829657187429 ], [ -99.01882460367824, 19.260800932885424 ], [ -99.018666430025235, 19.260740766386007 ], [ -99.017936970078495, 19.260455787437486 ], [ -99.017563570505274, 19.260319077107187 ], [ -99.017414390258338, 19.260266935860397 ], [ -99.017278438778916, 19.260222926446474 ], [ -99.01726463002683, 19.260218456044925 ], [ -99.016895185110116, 19.260091765842589 ], [ -99.016851777267235, 19.260076882044757 ], [ -99.016617180980376, 19.259996433370379 ], [ -99.016560910565062, 19.259977136681844 ], [ -99.016507459584474, 19.259952556463883 ], [ -99.016451870388622, 19.259925638104793 ], [ -99.016381160272189, 19.259891397417203 ], [ -99.016146400724466, 19.259747627095425 ], [ -99.016074801254959, 19.259676306756781 ], [ -99.016056532943622, 19.259658105163499 ], [ -99.015947759761389, 19.259549726616818 ], [ -99.01563449575201, 19.259379928644233 ], [ -99.015552690070749, 19.259335587151988 ], [ -99.015347764352995, 19.259234597163402 ], [ -99.015198645639359, 19.259161108986607 ], [ -99.01485340126203, 19.258990966271988 ], [ -99.014435311436685, 19.258807656646759 ], [ -99.014181881566401, 19.258706596654442 ], [ -99.013909091781585, 19.258576286478217 ], [ -99.01417914974094, 19.258021935993124 ], [ -99.014255834032681, 19.257833216067535 ], [ -99.014303298547119, 19.257723153873172 ], [ -99.014374750983066, 19.257545652191965 ], [ -99.014458541162199, 19.257329423633877 ], [ -99.014666737710414, 19.256998331951547 ], [ -99.014769014256345, 19.256829987120902 ], [ -99.014951722068275, 19.256529253214925 ], [ -99.015052975492765, 19.256334911472162 ], [ -99.015375661529134, 19.256411616787471 ], [ -99.015393629738369, 19.256313417449469 ], [ -99.015388141304228, 19.256223706874309 ], [ -99.015187109783994, 19.255940857223727 ], [ -99.015314000742677, 19.255501876987328 ], [ -99.015411690600942, 19.25518878768122 ], [ -99.015737601451661, 19.255282426954579 ], [ -99.015881460867334, 19.254870937288818 ], [ -99.015964585301958, 19.254892765379623 ], [ -99.016797490283807, 19.255104937378544 ], [ -99.018083910591372, 19.255433507161467 ], [ -99.018287632513193, 19.254863857289472 ], [ -99.018332636082178, 19.254779902535148 ], [ -99.018309096406185, 19.254077948188939 ], [ -99.01903269042576, 19.254308877169471 ], [ -99.019229290425443, 19.253884617594853 ], [ -99.019198531590362, 19.25359450610965 ], [ -99.019262790024797, 19.253398617504335 ], [ -99.019303115260556, 19.253336716108663 ], [ -99.019353678808017, 19.253288657854178 ], [ -99.019434714959402, 19.253251577774744 ], [ -99.019498519775553, 19.253236677531085 ], [ -99.019613191412347, 19.253238799769459 ], [ -99.020008187810873, 19.253366383761247 ], [ -99.020040064928367, 19.253367588227288 ], [ -99.020069023702845, 19.25335454319773 ], [ -99.020173876045845, 19.253252862437019 ], [ -99.020196254643011, 19.253210634194822 ], [ -99.020207449718185, 19.253137457593034 ], [ -99.020787156739459, 19.25329600847321 ], [ -99.02084017071509, 19.253284048598534 ], [ -99.020933084600316, 19.253074991365967 ], [ -99.020985494227517, 19.253025062752911 ], [ -99.021310573531267, 19.253118134299644 ], [ -99.021426128556286, 19.25310559507869 ], [ -99.02157638752864, 19.253142360061847 ], [ -99.021680350191559, 19.252811801267018 ], [ -99.02172283476844, 19.252626319256546 ], [ -99.021785052303798, 19.252349293728653 ], [ -99.021824976818166, 19.252050052403774 ], [ -99.022036935795526, 19.252063252503561 ], [ -99.02215710331339, 19.252025620055807 ], [ -99.022237428489575, 19.252115142359592 ], [ -99.022258838456381, 19.252171019254074 ], [ -99.022253126109504, 19.252234112233086 ], [ -99.022201386602688, 19.252419877456788 ], [ -99.022210612080372, 19.252436599675008 ], [ -99.0224233434068, 19.252539031904547 ], [ -99.022477461518577, 19.252557358795649 ], [ -99.022854914152958, 19.252576542017156 ], [ -99.023205486337687, 19.252576034761688 ], [ -99.023379693538203, 19.252599174245599 ], [ -99.02340691763564, 19.25261235624864 ], [ -99.023491627631486, 19.252778473103191 ], [ -99.02351645962888, 19.25279718085174 ], [ -99.023659259329648, 19.252823008732815 ], [ -99.024903927719393, 19.253040271940236 ], [ -99.025447609410037, 19.253149847645968 ], [ -99.025747718933957, 19.253207538662004 ], [ -99.025784900624203, 19.253203956624471 ], [ -99.025795984524351, 19.253185968512657 ], [ -99.025825668580453, 19.25306048527068 ], [ -99.025954557689417, 19.252902729488191 ], [ -99.026044514625568, 19.252671745277919 ], [ -99.026380400917134, 19.252734099000062 ], [ -99.026915536095743, 19.252813076971922 ], [ -99.026960217445364, 19.252604682919692 ], [ -99.02791145114854, 19.252711655585284 ], [ -99.028033362994435, 19.252746297752353 ], [ -99.027850034299831, 19.252910898585363 ], [ -99.026919520613887, 19.253449963227038 ], [ -99.026223177348882, 19.253840988723301 ], [ -99.025632962371589, 19.254154994645223 ], [ -99.025298307178716, 19.25448219225613 ], [ -99.025001487157795, 19.254752169387341 ], [ -99.024892372949125, 19.254980891603307 ], [ -99.024824085335695, 19.255345356529975 ], [ -99.024715836251673, 19.255609551175436 ], [ -99.024363711040863, 19.256375668906326 ], [ -99.024303320157429, 19.256424820064776 ], [ -99.02413982754608, 19.256456356538511 ], [ -99.023904857176248, 19.256426435547677 ], [ -99.023789274977361, 19.256389637873287 ], [ -99.023441898513539, 19.257098515657589 ], [ -99.022919048769069, 19.258226487020938 ], [ -99.022255289589381, 19.258052216635427 ], [ -99.022239879534752, 19.25833259640228 ], [ -99.022356599278993, 19.258559106725642 ], [ -99.022447798981176, 19.258684816790101 ], [ -99.021503988217233, 19.261112855672238 ], [ -99.02129253840998, 19.261066487177715 ], [ -99.021087369869221, 19.261027626432632 ], [ -99.021024628695159, 19.261014416377623 ], [ -99.020744738781445, 19.260954226282252 ], [ -99.020510560060345, 19.260931706078058 ], [ -99.020318678818455, 19.260916596148224 ], [ -99.020318374342978, 19.260916646313508 ], [ -99.020050119355602, 19.260961216563125 ], [ -99.019817689536595, 19.261026275637629 ], [ -99.019734920081362, 19.261147847295071 ], [ -99.019296690503552, 19.260973076884468 ], [ -99.019066619823235, 19.2608922456626 ] ] ] } },
{ "type": "Feature", "properties": { "ID": "0901300010527", "Ambito": "Urbano" }, "geometry": { "type": "Polygon", "coordinates": [ [ [ -99.021503988217233, 19.261112855672238 ], [ -99.022447798981176, 19.258684816790101 ], [ -99.022356599278993, 19.258559106725642 ], [ -99.022239879534752, 19.25833259640228 ], [ -99.022255289589381, 19.258052216635427 ], [ -99.022919048769069, 19.258226487020938 ], [ -99.024935250928593, 19.25876029979311 ], [ -99.026160639587999, 19.259073200933209 ], [ -99.027640310875213, 19.259424345484103 ], [ -99.028916352236408, 19.259726520055153 ], [ -99.029217049279382, 19.259769592619566 ], [ -99.029825628986856, 19.259815605378314 ], [ -99.030407257096428, 19.259788826494724 ], [ -99.030730987252468, 19.258858856385064 ], [ -99.030893283810201, 19.258291454007281 ], [ -99.030928765995711, 19.258259986077498 ], [ -99.031809397534559, 19.258395745319156 ], [ -99.032565338991105, 19.258456114969682 ], [ -99.032954656435479, 19.258464926271081 ], [ -99.03308671581074, 19.258469827041846 ], [ -99.033586477788234, 19.258304542737076 ], [ -99.033937044886812, 19.258175524333151 ], [ -99.035618955509392, 19.257570955241007 ], [ -99.036958822901013, 19.257093595249433 ], [ -99.03728385824212, 19.25697783715297 ], [ -99.039355854476227, 19.256296756663698 ], [ -99.040880307462032, 19.255881276569589 ], [ -99.042880554559005, 19.255320107029004 ], [ -99.042820244774035, 19.25616832702184 ], [ -99.042751222855216, 19.256764479978916 ], [ -99.0426310452997, 19.257692238996945 ], [ -99.042515164196473, 19.258586816693533 ], [ -99.042213477209202, 19.261069509541446 ], [ -99.041673253303131, 19.261231506007658 ], [ -99.041510852067759, 19.261328064826664 ], [ -99.040969277666463, 19.261346772557818 ], [ -99.040543114211843, 19.26147639008099 ], [ -99.039278984952674, 19.261860789596053 ], [ -99.037810025739105, 19.262771475544415 ], [ -99.037131225763247, 19.263437685683261 ], [ -99.036711643424127, 19.263712905741038 ], [ -99.035011016406628, 19.265161656417295 ], [ -99.034985207550733, 19.265218708833029 ], [ -99.034855416690888, 19.265375595279128 ], [ -99.034116514173419, 19.265488886643976 ], [ -99.033814935955903, 19.265535124836642 ], [ -99.033266856480125, 19.265377567872655 ], [ -99.032663246844038, 19.266689305117779 ], [ -99.031058256802538, 19.264929644889136 ], [ -99.030838276285664, 19.264634394930788 ], [ -99.030528217320139, 19.26416556650047 ], [ -99.030460416341015, 19.263248136069187 ], [ -99.030422787645591, 19.263141106196763 ], [ -99.030273277541312, 19.262938275950841 ], [ -99.029812657143893, 19.262592655471842 ], [ -99.029558187825529, 19.262481525720752 ], [ -99.029293086628698, 19.262371735683601 ], [ -99.02788822686631, 19.262219385999103 ], [ -99.027192888059986, 19.261834106759139 ], [ -99.027111626825032, 19.261935556652908 ], [ -99.026851847819103, 19.261757876089131 ], [ -99.02646481745505, 19.261765925514293 ], [ -99.026032108709046, 19.261940756493292 ], [ -99.025834567518032, 19.262202286599351 ], [ -99.025380937911308, 19.262081885759279 ], [ -99.025074418646994, 19.262006955357766 ], [ -99.024812678006782, 19.261929046968199 ], [ -99.024342938389594, 19.261818086224373 ], [ -99.024049588699143, 19.261754285610191 ], [ -99.024008969352778, 19.261744326007125 ], [ -99.023622522946098, 19.261645149429398 ], [ -99.023320552262078, 19.261567651372236 ], [ -99.022893289109376, 19.261457995520693 ], [ -99.022527859530641, 19.261369505782337 ], [ -99.022003939823691, 19.261236126078813 ], [ -99.021755771103969, 19.261173191240665 ], [ -99.0217468793564, 19.261170935619017 ], [ -99.021503988217233, 19.261112855672238 ] ] ] } },
{ "type": "Feature", "properties": { "ID": "0901300011493", "Ambito": "Urbano" }, "geometry": { "type": "Polygon", "coordinates": [ [ [ -99.027410427059976, 19.247350049730674 ], [ -99.027582988471437, 19.247294159447261 ], [ -99.027702637042765, 19.247231039256071 ], [ -99.02776341217033, 19.247152409680421 ], [ -99.02780033727025, 19.247040473087893 ], [ -99.027891772836568, 19.246675271250691 ], [ -99.027937486604543, 19.245835690029455 ], [ -99.028105446645611, 19.245503179844405 ], [ -99.027902162147754, 19.245449442834779 ], [ -99.027620836918445, 19.245400150650259 ], [ -99.027046929237926, 19.24529299053227 ], [ -99.026621717353592, 19.245234251081705 ], [ -99.026138772152777, 19.245092170064542 ], [ -99.026399512589251, 19.244809287825884 ], [ -99.026480408369338, 19.244690623693476 ], [ -99.026579995952488, 19.24446035486265 ], [ -99.026709046008932, 19.244143189269213 ], [ -99.02744448090975, 19.243533177076518 ], [ -99.027641391040007, 19.243309719181035 ], [ -99.027856870163333, 19.242946938391992 ], [ -99.028134972907466, 19.243062025260127 ], [ -99.028187859375407, 19.243019846083268 ], [ -99.028333469589299, 19.242826318733464 ], [ -99.028671427967936, 19.242997253008333 ], [ -99.029157396855609, 19.243160935464417 ], [ -99.029068933176902, 19.243450329443167 ], [ -99.028983667367214, 19.243772397266405 ], [ -99.02920031779324, 19.243831901568118 ], [ -99.029218362329871, 19.243836859149724 ], [ -99.029399080155827, 19.24385443999369 ], [ -99.03011495088181, 19.244001115966388 ], [ -99.030283857618983, 19.244031044246604 ], [ -99.030347045212892, 19.244129244512614 ], [ -99.030816532234297, 19.244262586912726 ], [ -99.030997143020997, 19.244539439867118 ], [ -99.031264142968652, 19.244529775441766 ], [ -99.03127673872018, 19.244619908250396 ], [ -99.031551516942926, 19.244646569567475 ], [ -99.031587754183178, 19.244811907484433 ], [ -99.031548277152268, 19.245204618395963 ], [ -99.031572885222118, 19.245273458822933 ], [ -99.031562515465964, 19.245414338761314 ], [ -99.031378506076948, 19.245781197345849 ], [ -99.031494592564698, 19.245794357377136 ], [ -99.031412686931233, 19.246012876654479 ], [ -99.031195847031896, 19.245966853169659 ], [ -99.031167054115556, 19.246184875612045 ], [ -99.031096226221734, 19.246636389519949 ], [ -99.030905173526477, 19.24702934951689 ], [ -99.030659639225334, 19.247415049945161 ], [ -99.030503915808453, 19.247723517743498 ], [ -99.030503876923262, 19.247723594895742 ], [ -99.030201447818399, 19.248338278743066 ], [ -99.029330535699913, 19.248062735343872 ], [ -99.027328537272894, 19.247423620152709 ], [ -99.027410427059976, 19.247350049730674 ] ] ] } },
{ "type": "Feature", "properties": { "ID": "0901300011559", "Ambito": "Urbano" }, "geometry": { "type": "Polygon", "coordinates": [ [ [ -99.025518346121103, 19.245782827570693 ], [ -99.025381607365048, 19.245621848086738 ], [ -99.025309167681939, 19.245463903900173 ], [ -99.025345377020955, 19.245324626004418 ], [ -99.025672156837928, 19.244651183158581 ], [ -99.025844870404711, 19.244298844560216 ], [ -99.02521931535918, 19.244081254964406 ], [ -99.024982701545881, 19.243892199949457 ], [ -99.02504364269231, 19.243817591384005 ], [ -99.024971210518729, 19.24362923278029 ], [ -99.024475241453715, 19.24378205307784 ], [ -99.0240040258535, 19.24418122707344 ], [ -99.023910102844283, 19.244332012928581 ], [ -99.023858000327209, 19.244360231869845 ], [ -99.023758055448724, 19.244360178817335 ], [ -99.023630948812155, 19.2443263559976 ], [ -99.023517900997859, 19.244302827075796 ], [ -99.023444535027878, 19.24429922438302 ], [ -99.023304294776054, 19.244439569148263 ], [ -99.023295353181155, 19.244502318859592 ], [ -99.023248491698226, 19.244596681804016 ], [ -99.023189075852116, 19.244652679563732 ], [ -99.022804017473476, 19.244753471197303 ], [ -99.022696659483998, 19.244832969360512 ], [ -99.022624229113177, 19.245011019863448 ], [ -99.022431899132229, 19.245275065411008 ], [ -99.02242199339301, 19.245329884840416 ], [ -99.02233727731975, 19.245360574973386 ], [ -99.022224347445217, 19.245434938245875 ], [ -99.021892688129583, 19.245414266445529 ], [ -99.02159753803457, 19.245352452809342 ], [ -99.021429776120499, 19.245320078432663 ], [ -99.02139121078946, 19.245323512434034 ], [ -99.021349513057729, 19.245340369694308 ], [ -99.020943470741884, 19.245551683811115 ], [ -99.020895077550222, 19.245565480613653 ], [ -99.020931985459555, 19.245305986165086 ], [ -99.020970557845843, 19.24510370840451 ], [ -99.021004925928011, 19.244947369441483 ], [ -99.021052451205151, 19.24465133506212 ], [ -99.021088620901651, 19.244524091082685 ], [ -99.021187239142861, 19.244363505892338 ], [ -99.021411294410981, 19.244267859340781 ], [ -99.021554327125656, 19.244144111527472 ], [ -99.021866466909898, 19.243752770001151 ], [ -99.022002464192596, 19.243322257056231 ], [ -99.022014543690887, 19.243273074357237 ], [ -99.022036218091856, 19.243105980888007 ], [ -99.022169913907732, 19.242856856307373 ], [ -99.022307449880742, 19.242597770673608 ], [ -99.022340333294039, 19.242525648668085 ], [ -99.022481655985771, 19.242279807398809 ], [ -99.022584136831895, 19.24219947780454 ], [ -99.022628636676416, 19.242125511916345 ], [ -99.022651016374311, 19.241827405762781 ], [ -99.02287705543128, 19.241504606282181 ], [ -99.023141665033776, 19.241097288376878 ], [ -99.023306317500328, 19.240782970631539 ], [ -99.023385194380282, 19.240605727350928 ], [ -99.023437359797228, 19.240478369399824 ], [ -99.02347001929391, 19.240214351008383 ], [ -99.023503657238152, 19.240102147688567 ], [ -99.023586022796891, 19.239878806853415 ], [ -99.023653079529439, 19.239798680814076 ], [ -99.02372519358633, 19.239791803459678 ], [ -99.023861915767966, 19.239806987061186 ], [ -99.024704846201274, 19.240152247182277 ], [ -99.024835718519427, 19.240228707327422 ], [ -99.02499941081453, 19.240319277325508 ], [ -99.025163084969222, 19.240093969950077 ], [ -99.025232837880992, 19.24006557846872 ], [ -99.025290396298914, 19.24007239684213 ], [ -99.025501857073166, 19.240163387416114 ], [ -99.025571167358549, 19.240212657044367 ], [ -99.025676114800461, 19.240325157564985 ], [ -99.025712767039693, 19.240357017216002 ], [ -99.025774535949296, 19.240395026943517 ], [ -99.025840366642328, 19.240426127738594 ], [ -99.025917047115172, 19.240453017307146 ], [ -99.026062286263596, 19.240487077504731 ], [ -99.026135715794979, 19.240513277781684 ], [ -99.026261227443428, 19.240537182466316 ], [ -99.026333185780416, 19.240536486991509 ], [ -99.026404766083559, 19.240516843092728 ], [ -99.026458155719126, 19.240520018311841 ], [ -99.026504225880458, 19.240536537958775 ], [ -99.026561356179883, 19.240565337972058 ], [ -99.026605015267137, 19.240606138154913 ], [ -99.02665038645597, 19.240625227919093 ], [ -99.026746957870856, 19.240645891339081 ], [ -99.026948078513385, 19.240584197408893 ], [ -99.027032757883745, 19.240539357854022 ], [ -99.027073115759947, 19.240491137687741 ], [ -99.027289443995613, 19.240217766640392 ], [ -99.027286486362982, 19.240177849633813 ], [ -99.027273785730699, 19.240145369347736 ], [ -99.027154909535952, 19.240010018082646 ], [ -99.027514164604284, 19.239685858352704 ], [ -99.027580498867749, 19.239710233041855 ], [ -99.027631816377465, 19.239722588362515 ], [ -99.027679677768148, 19.239730977993688 ], [ -99.027718676353885, 19.239731649735504 ], [ -99.027764815549517, 19.239727428284876 ], [ -99.027793217929712, 19.239721397162995 ], [ -99.027843373176879, 19.239674237677026 ], [ -99.027900486371834, 19.239662027451001 ], [ -99.027913477940331, 19.239656787382032 ], [ -99.027919356056458, 19.239643568530699 ], [ -99.027928227099025, 19.239597228919376 ], [ -99.027940414610043, 19.239574019645652 ], [ -99.028000476756148, 19.239559028020246 ], [ -99.028013816307791, 19.239549817436529 ], [ -99.028024736314237, 19.23953022715413 ], [ -99.028032015273183, 19.239507189426494 ], [ -99.02803927474433, 19.239451908451425 ], [ -99.028045886671279, 19.239327419605488 ], [ -99.028058857411466, 19.239296990403247 ], [ -99.028167935607328, 19.239199859509029 ], [ -99.028215854807954, 19.239167557864683 ], [ -99.028271535393372, 19.239118258334226 ], [ -99.028310305823183, 19.239070707934722 ], [ -99.028360025071123, 19.238992360542301 ], [ -99.028421984330961, 19.238937618068586 ], [ -99.028478766250103, 19.238930257298179 ], [ -99.028564277630551, 19.238964561883073 ], [ -99.028613254711431, 19.238904048075394 ], [ -99.028695786217284, 19.238810589174644 ], [ -99.028786093585111, 19.238739688725158 ], [ -99.028859477978074, 19.238705057706493 ], [ -99.028893379548265, 19.238700274364383 ], [ -99.028938127353271, 19.238704286120367 ], [ -99.028962330701049, 19.238710667749029 ], [ -99.028988671988373, 19.238721188391324 ], [ -99.02905933547278, 19.238765904015008 ], [ -99.029083520518242, 19.238793154136342 ], [ -99.029098092218874, 19.238813334894981 ], [ -99.029107764692668, 19.238840346544151 ], [ -99.029117819253216, 19.238857800132187 ], [ -99.029126621124462, 19.238870236992636 ], [ -99.029168275495437, 19.238888029721974 ], [ -99.029297899707402, 19.238898877549126 ], [ -99.029335476964121, 19.238899716606607 ], [ -99.02935157253107, 19.238893240100889 ], [ -99.029362101754415, 19.238886657691928 ], [ -99.029373302618026, 19.238876658370298 ], [ -99.029391164673228, 19.238867822958692 ], [ -99.029409365122291, 19.238866039282733 ], [ -99.029474877940928, 19.23887935277774 ], [ -99.029503613751928, 19.238881726553455 ], [ -99.029546649701672, 19.238869762418048 ], [ -99.02955786555961, 19.238864148432658 ], [ -99.029592042099495, 19.238842908268769 ], [ -99.029611389185121, 19.238836046332008 ], [ -99.029630135817641, 19.238832223997008 ], [ -99.029652397168206, 19.238833618718772 ], [ -99.029671463447414, 19.238844969156766 ], [ -99.029709794473916, 19.238864693180702 ], [ -99.029764624745638, 19.238861790931065 ], [ -99.029786639661168, 19.238859002299073 ], [ -99.029815558817546, 19.238843257751711 ], [ -99.029892573229901, 19.238839778980939 ], [ -99.029923981204718, 19.238832817243672 ], [ -99.029970251997824, 19.238797871538381 ], [ -99.030018995426374, 19.238789861002633 ], [ -99.030114444890359, 19.238792209783377 ], [ -99.030157831893135, 19.238808675503147 ], [ -99.030221675740009, 19.238846738644042 ], [ -99.030248444794381, 19.23886993158871 ], [ -99.030342884335667, 19.238943628020767 ], [ -99.030455938183593, 19.23901003842553 ], [ -99.030489527882168, 19.239023673066139 ], [ -99.030515628536705, 19.23902047544756 ], [ -99.030543722979019, 19.239011580228414 ], [ -99.030564324000196, 19.238997603528116 ], [ -99.030588877830269, 19.238973738537688 ], [ -99.03060532833446, 19.238950103747964 ], [ -99.030622812852798, 19.238946506522783 ], [ -99.030666595193793, 19.238945542940229 ], [ -99.03070689725169, 19.238971471731805 ], [ -99.030735067567903, 19.238979047291746 ], [ -99.030768561480798, 19.238981237168261 ], [ -99.030808787613623, 19.238977308018523 ], [ -99.030875213694955, 19.238930357055239 ], [ -99.030966637090742, 19.238920143209736 ], [ -99.031039041575482, 19.238956087604635 ], [ -99.031126299079062, 19.238963701603236 ], [ -99.031212692285536, 19.239001691328756 ], [ -99.031268351151454, 19.239088124032506 ], [ -99.031517366258825, 19.239126580564424 ], [ -99.03149497357073, 19.239298483808771 ], [ -99.03151162344804, 19.23933169547411 ], [ -99.031552473830928, 19.239359700514999 ], [ -99.031522247628715, 19.239453540745135 ], [ -99.031883355244943, 19.239558398188368 ], [ -99.03209938526372, 19.239661616921321 ], [ -99.032524585446268, 19.23980591175728 ], [ -99.032277784531971, 19.240153363802115 ], [ -99.032129487442845, 19.240278327513451 ], [ -99.031226035657113, 19.240668214291912 ], [ -99.030984719301529, 19.241127386917093 ], [ -99.030907581515265, 19.241175412130719 ], [ -99.030815874698916, 19.241202232936747 ], [ -99.030565525876867, 19.241245698988461 ], [ -99.030539157420591, 19.241262648151228 ], [ -99.030525127711741, 19.241274201016342 ], [ -99.03044445934546, 19.241482836653638 ], [ -99.030428739248009, 19.241569206833077 ], [ -99.030480392294052, 19.241649867946215 ], [ -99.03050289565239, 19.241719812077715 ], [ -99.030501276897866, 19.241858549550503 ], [ -99.030404866761586, 19.242207466142776 ], [ -99.030498059974676, 19.242374226754816 ], [ -99.030506312665537, 19.242443720324182 ], [ -99.030394292067385, 19.242725551970953 ], [ -99.030328166960444, 19.243143074914716 ], [ -99.03035587299955, 19.243336481701359 ], [ -99.030335177446446, 19.243471223804232 ], [ -99.030241390513154, 19.243751910372019 ], [ -99.03011495088181, 19.244001115966388 ], [ -99.029399080155827, 19.24385443999369 ], [ -99.029218362329871, 19.243836859149724 ], [ -99.02920031779324, 19.243831901568118 ], [ -99.028983667367214, 19.243772397266405 ], [ -99.029068933176902, 19.243450329443167 ], [ -99.029157396855609, 19.243160935464417 ], [ -99.028671427967936, 19.242997253008333 ], [ -99.028333469589299, 19.242826318733464 ], [ -99.028187859375407, 19.243019846083268 ], [ -99.028134972907466, 19.243062025260127 ], [ -99.027856870163333, 19.242946938391992 ], [ -99.027641391040007, 19.243309719181035 ], [ -99.02744448090975, 19.243533177076518 ], [ -99.026709046008932, 19.244143189269213 ], [ -99.026579995952488, 19.24446035486265 ], [ -99.026480408369338, 19.244690623693476 ], [ -99.026399512589251, 19.244809287825884 ], [ -99.026138772152777, 19.245092170064542 ], [ -99.026621717353592, 19.245234251081705 ], [ -99.027046929237926, 19.24529299053227 ], [ -99.027620836918445, 19.245400150650259 ], [ -99.027902162147754, 19.245449442834779 ], [ -99.028105446645611, 19.245503179844405 ], [ -99.027937486604543, 19.245835690029455 ], [ -99.027891772836568, 19.246675271250691 ], [ -99.02780033727025, 19.247040473087893 ], [ -99.02776341217033, 19.247152409680421 ], [ -99.027702637042765, 19.247231039256071 ], [ -99.027582988471437, 19.247294159447261 ], [ -99.027410427059976, 19.247350049730674 ], [ -99.026260891600273, 19.246940924419373 ], [ -99.026387696800441, 19.246681891629386 ], [ -99.026029968545558, 19.246566536513217 ], [ -99.026212947532144, 19.246020533328007 ], [ -99.025549284149818, 19.24579925965331 ], [ -99.025518346121103, 19.245782827570693 ] ] ] } },
{ "type": "Feature", "properties": { "ID": "090130635_RUR-054", "Ambito": "Rural" }, "geometry": { "type": "Polygon", "coordinates": [ [ [ -99.0465, 19.2235 ], [ -99.042, 19.2235 ], [ -99.042, 19.221184066706957 ], [ -99.042168818955403, 19.221149023569698 ], [ -99.042468058904404, 19.22108690339083 ], [ -99.042785349394308, 19.221021073809251 ], [ -99.043022599170286, 19.220971853374483 ], [ -99.045438219053494, 19.220470703665924 ], [ -99.0465, 19.22025041009363 ], [ -99.0465, 19.2235 ] ] ] } },
{ "type": "Feature", "properties": { "ID": "090130635_RUR-055", "Ambito": "Rural" }, "geometry": { "type": "Polygon", "coordinates": [ [ [ -99.0465, 19.2235 ], [ -99.0465, 19.228 ], [ -99.042, 19.228 ], [ -99.042, 19.2235 ], [ -99.0465, 19.2235 ] ] ] } },
{ "type": "Feature", "properties": { "ID": "090130635_RUR-056", "Ambito": "Rural" }, "geometry": { "type": "Polygon", "coordinates": [ [ [ -99.0465, 19.228 ], [ -99.0465, 19.2325 ], [ -99.042, 19.2325 ], [ -99.042, 19.228 ], [ -99.0465, 19.228 ] ] ] } },
{ "type": "Feature", "properties": { "ID": "090130635_RUR-057", "Ambito": "Rural" }, "geometry": { "type": "Polygon", "coordinates": [ [ [ -99.0465, 19.2325 ], [ -99.0465, 19.237 ], [ -99.042, 19.237 ], [ -99.042, 19.2325 ], [ -99.0465, 19.2325 ] ] ] } },
{ "type": "Feature", "properties": { "ID": "090130635_RUR-058", "Ambito": "Rural" }, "geometry": { "type": "Polygon", "coordinates": [ [ [ -99.0465, 19.237 ], [ -99.0465, 19.2415 ], [ -99.042, 19.2415 ], [ -99.042, 19.237 ], [ -99.0465, 19.237 ] ] ] } },
{ "type": "Feature", "properties": { "ID": "090130635_RUR-059", "Ambito": "Rural" }, "geometry": { "type": "Polygon", "coordinates": [ [ [ -99.042, 19.2415 ], [ -99.0465, 19.2415 ], [ -99.0465, 19.242342934633207 ], [ -99.046313857451295, 19.242446769124367 ], [ -99.046219149261134, 19.242531427031086 ], [ -99.045801376038327, 19.242651909333095 ], [ -99.045616304198603, 19.242829155535226 ], [ -99.045491158101058, 19.242904514328146 ], [ -99.044735208238663, 19.243373698373489 ], [ -99.044509958508598, 19.243461504262022 ], [ -99.044275999527656, 19.243592118453719 ], [ -99.043994655953497, 19.243681258978167 ], [ -99.04362428595681, 19.24403701676308 ], [ -99.043515186954068, 19.244074626940058 ], [ -99.043381562168193, 19.244133024363727 ], [ -99.043229821219072, 19.244279371781012 ], [ -99.042996307358933, 19.244357989876448 ], [ -99.04294322821066, 19.244392188535112 ], [ -99.042849633262421, 19.244534633429133 ], [ -99.042755828126943, 19.244635435876987 ], [ -99.042594109245783, 19.244691497541886 ], [ -99.042498154767387, 19.244700615067039 ], [ -99.042370166946355, 19.24468290870783 ], [ -99.042296595949409, 19.244693028123233 ], [ -99.042249937383161, 19.244726998994143 ], [ -99.042192377275001, 19.244811146627878 ], [ -99.042, 19.244924442004997 ], [ -99.042, 19.2415 ] ] ] } },
{ "type": "Feature", "properties": { "ID": "090130635_RUR-071", "Ambito": "Rural" }, "geometry": { "type": "Polygon", "coordinates": [ [ [ -99.042, 19.2235 ], [ -99.0375, 19.2235 ], [ -99.0375, 19.222118099893923 ], [ -99.037596599525315, 19.222098050406743 ], [ -99.038040139932292, 19.222006000178023 ], [ -99.040105310442542, 19.221577350429087 ], [ -99.041124739110884, 19.221365743381288 ], [ -99.041786458794462, 19.221228393209039 ], [ -99.042, 19.221184066706957 ], [ -99.042, 19.2235 ] ] ] } },
{ "type": "Feature", "properties": { "ID": "090130635_RUR-072", "Ambito": "Rural" }, "geometry": { "type": "Polygon", "coordinates": [ [ [ -99.042, 19.2235 ], [ -99.042, 19.228 ], [ -99.0375, 19.228 ], [ -99.0375, 19.2235 ], [ -99.042, 19.2235 ] ] ] } },
{ "type": "Feature", "properties": { "ID": "090130635_RUR-073", "Ambito": "Rural" }, "geometry": { "type": "Polygon", "coordinates": [ [ [ -99.042, 19.228 ], [ -99.042, 19.2325 ], [ -99.0375, 19.2325 ], [ -99.0375, 19.228 ], [ -99.042, 19.228 ] ] ] } },
{ "type": "Feature", "properties": { "ID": "090130635_RUR-074", "Ambito": "Rural" }, "geometry": { "type": "Polygon", "coordinates": [ [ [ -99.042, 19.2325 ], [ -99.042, 19.237 ], [ -99.0375, 19.237 ], [ -99.0375, 19.2325 ], [ -99.042, 19.2325 ] ] ] } },
{ "type": "Feature", "properties": { "ID": "090130635_RUR-075", "Ambito": "Rural" }, "geometry": { "type": "Polygon", "coordinates": [ [ [ -99.042, 19.237 ], [ -99.042, 19.2415 ], [ -99.0375, 19.2415 ], [ -99.0375, 19.237 ], [ -99.042, 19.237 ] ] ] } },
{ "type": "Feature", "properties": { "ID": "090130635_RUR-076", "Ambito": "Rural" }, "geometry": { "type": "Polygon", "coordinates": [ [ [ -99.0375, 19.2415 ], [ -99.042, 19.2415 ], [ -99.042, 19.244924442004997 ], [ -99.041901487931995, 19.244982458014945 ], [ -99.041661936507992, 19.245072547327631 ], [ -99.041057379214237, 19.245479709286023 ], [ -99.04013049808745, 19.246 ], [ -99.038417923579715, 19.246 ], [ -99.038359450080691, 19.24550598859393 ], [ -99.038369817812963, 19.245367949484436 ], [ -99.038296080525456, 19.245228376542606 ], [ -99.038266470494221, 19.245046278656606 ], [ -99.038344729249658, 19.244729975177798 ], [ -99.0375, 19.244758278475267 ], [ -99.0375, 19.2415 ] ] ] } },
{ "type": "Feature", "properties": { "ID": "090130635_RUR-077", "Ambito": "Rural" }, "geometry": { "type": "Polygon", "coordinates": [ [ [ -99.04013049808745, 19.246 ], [ -99.039041768275169, 19.246611142027806 ], [ -99.03862337592679, 19.24693755120493 ], [ -99.038593689085886, 19.246110660468396 ], [ -99.038428826972364, 19.246092116949086 ], [ -99.038417923579715, 19.246 ], [ -99.04013049808745, 19.246 ] ] ] } },
{ "type": "Feature", "properties": { "ID": "090130635_RUR-088", "Ambito": "Rural" }, "geometry": { "type": "Polygon", "coordinates": [ [ [ -99.0375, 19.2235 ], [ -99.033, 19.2235 ], [ -99.033, 19.223051075590956 ], [ -99.034061049561032, 19.222831150003937 ], [ -99.035208770393012, 19.222593249853009 ], [ -99.035786400373311, 19.222473509893515 ], [ -99.036283650352914, 19.222370429902611 ], [ -99.03641891012046, 19.222342399643818 ], [ -99.036731629887612, 19.22227757005647 ], [ -99.036939659581932, 19.222234400030985 ], [ -99.0375, 19.222118099893923 ], [ -99.0375, 19.2235 ] ] ] } },
{ "type": "Feature", "properties": { "ID": "090130635_RUR-089", "Ambito": "Rural" }, "geometry": { "type": "Polygon", "coordinates": [ [ [ -99.0375, 19.2235 ], [ -99.0375, 19.228 ], [ -99.033, 19.228 ], [ -99.033, 19.2235 ], [ -99.0375, 19.2235 ] ] ] } },
{ "type": "Feature", "properties": { "ID": "090130635_RUR-090", "Ambito": "Rural" }, "geometry": { "type": "Polygon", "coordinates": [ [ [ -99.0375, 19.228 ], [ -99.0375, 19.2325 ], [ -99.033, 19.2325 ], [ -99.033, 19.228 ], [ -99.0375, 19.228 ] ] ] } },
{ "type": "Feature", "properties": { "ID": "090130635_RUR-091", "Ambito": "Rural" }, "geometry": { "type": "Polygon", "coordinates": [ [ [ -99.0375, 19.2325 ], [ -99.0375, 19.237 ], [ -99.033, 19.237 ], [ -99.033, 19.2325 ], [ -99.0375, 19.2325 ] ] ] } },
{ "type": "Feature", "properties": { "ID": "090130635_RUR-092", "Ambito": "Rural" }, "geometry": { "type": "Polygon", "coordinates": [ [ [ -99.0375, 19.237 ], [ -99.0375, 19.2415 ], [ -99.033, 19.2415 ], [ -99.033, 19.237 ], [ -99.0375, 19.237 ] ] ] } },
{ "type": "Feature", "properties": { "ID": "090130635_RUR-093", "Ambito": "Rural" }, "geometry": { "type": "Polygon", "coordinates": [ [ [ -99.033, 19.246 ], [ -99.033, 19.2415 ], [ -99.0375, 19.2415 ], [ -99.0375, 19.244758278475267 ], [ -99.037065108766186, 19.244772849837588 ], [ -99.036698859321618, 19.244804600285885 ], [ -99.035401029871366, 19.244973569633995 ], [ -99.035127170193334, 19.245177826144648 ], [ -99.034821228207704, 19.245214340533003 ], [ -99.034804515791549, 19.24543140019923 ], [ -99.034323956783879, 19.24529993464483 ], [ -99.033966780761702, 19.245249504118174 ], [ -99.033933185432872, 19.245283611333932 ], [ -99.033944312798241, 19.245425749079747 ], [ -99.03391413729787, 19.245682760208222 ], [ -99.033886943943216, 19.245914351179294 ], [ -99.033875173942661, 19.245944603567157 ], [ -99.033820099893347, 19.246 ], [ -99.033, 19.246 ] ] ] } },
{ "type": "Feature", "properties": { "ID": "090130635_RUR-094", "Ambito": "Rural" }, "geometry": { "type": "Polygon", "coordinates": [ [ [ -99.033, 19.246 ], [ -99.033820099893347, 19.246 ], [ -99.033710909978481, 19.246109829073088 ], [ -99.033384489441161, 19.246895020816901 ], [ -99.033167975525345, 19.246811210472838 ], [ -99.033, 19.246812520420757 ], [ -99.033, 19.246 ] ] ] } },
{ "type": "Feature", "properties": { "ID": "090130635_RUR-106", "Ambito": "Rural" }, "geometry": { "type": "Polygon", "coordinates": [ [ [ -99.033, 19.2235 ], [ -99.033, 19.228 ], [ -99.0285, 19.228 ], [ -99.0285, 19.225627942823898 ], [ -99.030193029963641, 19.223632850212503 ], [ -99.030834012712972, 19.2235 ], [ -99.033, 19.2235 ] ] ] } },
{ "type": "Feature", "properties": { "ID": "090130635_RUR-107", "Ambito": "Rural" }, "geometry": { "type": "Polygon", "coordinates": [ [ [ -99.033, 19.228 ], [ -99.033, 19.2325 ], [ -99.0285, 19.2325 ], [ -99.0285, 19.228 ], [ -99.033, 19.228 ] ] ] } },
{ "type": "Feature", "properties": { "ID": "090130635_RUR-108", "Ambito": "Rural" }, "geometry": { "type": "Polygon", "coordinates": [ [ [ -99.033, 19.2325 ], [ -99.033, 19.237 ], [ -99.0285, 19.237 ], [ -99.0285, 19.2325 ], [ -99.033, 19.2325 ] ] ] } },
{ "type": "Feature", "properties": { "ID": "090130635_RUR-109", "Ambito": "Rural" }, "geometry": { "type": "Polygon", "coordinates": [ [ [ -99.0285, 19.237 ], [ -99.033, 19.237 ], [ -99.033, 19.2415 ], [ -99.030449523998257, 19.2415 ], [ -99.030452121956984, 19.241485726159802 ], [ -99.030532790342775, 19.24127709047459 ], [ -99.030546820055065, 19.241265537606804 ], [ -99.030573188517792, 19.241248588440115 ], [ -99.030823537401261, 19.241205122378116 ], [ -99.030915244240106, 19.241178301565821 ], [ -99.030992382045241, 19.241130276341089 ], [ -99.031233698459431, 19.24067110361036 ], [ -99.032137150466511, 19.240281216741362 ], [ -99.032285447591875, 19.240156253001189 ], [ -99.032532248566284, 19.239808800876407 ], [ -99.032107048279101, 19.239664506007934 ], [ -99.031891018207119, 19.239561287251604 ], [ -99.03152991050203, 19.239456429784806 ], [ -99.031560136711548, 19.239362589533119 ], [ -99.031519286318584, 19.239334584485864 ], [ -99.031502636437125, 19.239301372812939 ], [ -99.031525029130478, 19.239129469529168 ], [ -99.031276013961886, 19.239091012988755 ], [ -99.031220355082169, 19.239004580265263 ], [ -99.031133961854437, 19.238966590531156 ], [ -99.031046704329412, 19.238958976530917 ], [ -99.030974299826823, 19.238923032127879 ], [ -99.030882876408597, 19.238933245975833 ], [ -99.030816450311022, 19.238980196949971 ], [ -99.030776224168335, 19.238984126100657 ], [ -99.030742730247198, 19.238981936223688 ], [ -99.030714559924064, 19.238974360662052 ], [ -99.030674257856234, 19.238948431864586 ], [ -99.030630475504466, 19.238949395447413 ], [ -99.030612990981851, 19.238952992673443 ], [ -99.030596540473638, 19.238976627468602 ], [ -99.030571986637582, 19.23900049246453 ], [ -99.030551385611361, 19.239014469168062 ], [ -99.030523291162169, 19.239023364389276 ], [ -99.030497190501222, 19.239026562008632 ], [ -99.030463600794391, 19.239012927364939 ], [ -99.030350546918584, 19.238946516945106 ], [ -99.030256107354006, 19.238872820496276 ], [ -99.030229338293026, 19.238849627546333 ], [ -99.030165494430406, 19.238811564396791 ], [ -99.030122107416943, 19.2387950986733 ], [ -99.030026657929511, 19.238792749892141 ], [ -99.02997791448901, 19.23880076042979 ], [ -99.029931643684591, 19.238835706143156 ], [ -99.029900235702058, 19.238842667882057 ], [ -99.029823221270789, 19.238846146653724 ], [ -99.029794302107334, 19.238861891204731 ], [ -99.029772287186404, 19.238864679837395 ], [ -99.029717456901224, 19.238867582087764 ], [ -99.029679125865286, 19.238847858059362 ], [ -99.029660059581374, 19.238836507618792 ], [ -99.029637798225338, 19.238835112896719 ], [ -99.029619051588227, 19.238838935232636 ], [ -99.029599704497841, 19.238845797170999 ], [ -99.0295655279496, 19.238867037339791 ], [ -99.029554312088919, 19.238872651326481 ], [ -99.029511276128616, 19.238884615464688 ], [ -99.029482540310553, 19.238882241688469 ], [ -99.029417027475802, 19.238868928190499 ], [ -99.029398827022277, 19.238870711866884 ], [ -99.029380964962698, 19.238879547280536 ], [ -99.029369764096344, 19.238889546604472 ], [ -99.029359234870427, 19.238896129014961 ], [ -99.029343139299542, 19.238902605522181 ], [ -99.029305562033585, 19.238901766464561 ], [ -99.029175937789773, 19.238890918635089 ], [ -99.029134283408524, 19.238873125901719 ], [ -99.029125481535118, 19.238860689038436 ], [ -99.029115426972069, 19.23884323544641 ], [ -99.029105754495859, 19.238816223791066 ], [ -99.029091182791618, 19.238796043027818 ], [ -99.029066997740159, 19.238768792900267 ], [ -99.028996334238343, 19.238724077266433 ], [ -99.028969992944553, 19.238713556621757 ], [ -99.028945789590807, 19.238707174991667 ], [ -99.028901041774802, 19.238703163234824 ], [ -99.028867140196283, 19.238707946578064 ], [ -99.028793755785344, 19.238742577604771 ], [ -99.028703448395447, 19.238813478070618 ], [ -99.028620916869457, 19.238906936992905 ], [ -99.028571939776626, 19.238967450814513 ], [ -99.0285, 19.238938590748049 ], [ -99.0285, 19.237 ] ] ] } },
{ "type": "Feature", "properties": { "ID": "090130635_RUR-110", "Ambito": "Rural" }, "geometry": { "type": "MultiPolygon", "coordinates": [ [ [ [ -99.031199513975636, 19.246 ], [ -99.031203509834498, 19.245969743702481 ], [ -99.031346062548323, 19.246 ], [ -99.031199513975636, 19.246 ] ] ], [ [ [ -99.033, 19.2415 ], [ -99.033, 19.246 ], [ -99.031426259665395, 19.246 ], [ -99.031502255440429, 19.24579724787003 ], [ -99.031386168924158, 19.245784087835883 ], [ -99.031570178357825, 19.245417229167032 ], [ -99.031580548116324, 19.245276349196352 ], [ -99.03155594004032, 19.245207508753634 ], [ -99.031595417080354, 19.244814797752049 ], [ -99.031559179830964, 19.244649459797255 ], [ -99.031284401540688, 19.244622798474424 ], [ -99.031271805785934, 19.244532665645153 ], [ -99.03100480577271, 19.244542330073074 ], [ -99.030824194941246, 19.244265477055471 ], [ -99.030354707804335, 19.244132134625413 ], [ -99.030291520194766, 19.244033934336983 ], [ -99.030122613416054, 19.24400400605013 ], [ -99.030249053078109, 19.243754800398481 ], [ -99.030342840034024, 19.243474113766247 ], [ -99.030363535592016, 19.243339371632462 ], [ -99.03033582954582, 19.243145964801535 ], [ -99.030401954668406, 19.242728441761994 ], [ -99.030513975293644, 19.242446610050486 ], [ -99.030505722600665, 19.242377116465207 ], [ -99.030412529364426, 19.242210355815065 ], [ -99.030508939523884, 19.241861439142699 ], [ -99.030510558278621, 19.24172270163811 ], [ -99.030488054914656, 19.241652757490616 ], [ -99.030436401855795, 19.241572096359057 ], [ -99.030449523998257, 19.2415 ], [ -99.033, 19.2415 ] ] ] ] } },
{ "type": "Feature", "properties": { "ID": "090130635_RUR-111", "Ambito": "Rural" }, "geometry": { "type": "Polygon", "coordinates": [ [ [ -99.033, 19.246 ], [ -99.033, 19.246812520420757 ], [ -99.032859136895894, 19.246813618933945 ], [ -99.032414976169548, 19.246722609167076 ], [ -99.032304727795719, 19.246585946623139 ], [ -99.032253384467111, 19.246576652842784 ], [ -99.032007256639375, 19.246532098758916 ], [ -99.031174715898672, 19.246187768892998 ], [ -99.031199513975636, 19.246 ], [ -99.031346062548323, 19.246 ], [ -99.031420349787169, 19.246015767197555 ], [ -99.031426259665395, 19.246 ], [ -99.033, 19.246 ] ] ] } },
{ "type": "Feature", "properties": { "ID": "090130635_RUR-123", "Ambito": "Rural" }, "geometry": { "type": "Polygon", "coordinates": [ [ [ -99.0285, 19.228 ], [ -99.026476515180818, 19.228 ], [ -99.027904824290289, 19.226329307056407 ], [ -99.0285, 19.225627942823898 ], [ -99.0285, 19.228 ] ] ] } },
{ "type": "Feature", "properties": { "ID": "090130635_RUR-124", "Ambito": "Rural" }, "geometry": { "type": "Polygon", "coordinates": [ [ [ -99.0285, 19.228 ], [ -99.0285, 19.2325 ], [ -99.024, 19.2325 ], [ -99.024, 19.230896779422462 ], [ -99.026476515180818, 19.228 ], [ -99.0285, 19.228 ] ] ] } },
{ "type": "Feature", "properties": { "ID": "090130635_RUR-125", "Ambito": "Rural" }, "geometry": { "type": "Polygon", "coordinates": [ [ [ -99.0285, 19.2325 ], [ -99.0285, 19.237 ], [ -99.024, 19.237 ], [ -99.024, 19.2325 ], [ -99.0285, 19.2325 ] ] ] } },
{ "type": "Feature", "properties": { "ID": "090130635_RUR-126", "Ambito": "Rural" }, "geometry": { "type": "Polygon", "coordinates": [ [ [ -99.024, 19.237 ], [ -99.0285, 19.237 ], [ -99.0285, 19.238938590748049 ], [ -99.028486428375132, 19.238933146221864 ], [ -99.028429646442063, 19.238940506994034 ], [ -99.028367687167076, 19.238995249480379 ], [ -99.028317967907029, 19.239073596890822 ], [ -99.028279197467782, 19.239121147301269 ], [ -99.028223516868735, 19.239170446843101 ], [ -99.0281755976564, 19.239202748494911 ], [ -99.028066519433878, 19.23929987941154 ], [ -99.028053548690565, 19.239330308620765 ], [ -99.028046936762166, 19.239454797495249 ], [ -99.0280396772893, 19.239510078482986 ], [ -99.028032398328605, 19.239533116215917 ], [ -99.028021478319488, 19.239552706502824 ], [ -99.028008138764591, 19.239561917088668 ], [ -99.027948076603764, 19.239576908717588 ], [ -99.02793588908979, 19.239600117996645 ], [ -99.027927018045105, 19.239646457618601 ], [ -99.027921139927543, 19.239659676472979 ], [ -99.027908148355877, 19.239664916543166 ], [ -99.027851035146909, 19.239677126772058 ], [ -99.027800879887494, 19.239724286268903 ], [ -99.027772477500335, 19.239730317392205 ], [ -99.027726338293363, 19.239734538843866 ], [ -99.027687339698062, 19.239733867101936 ], [ -99.027639478295598, 19.239725477468905 ], [ -99.027588160773263, 19.239713122145474 ], [ -99.027521826493455, 19.239688747450824 ], [ -99.027162571337357, 19.240012907255544 ], [ -99.027281447561492, 19.240148258551493 ], [ -99.027294148196944, 19.240180738844998 ], [ -99.027297105830371, 19.240220655860728 ], [ -99.027080777541954, 19.240494026971007 ], [ -99.027040419655918, 19.240542247148401 ], [ -99.026955740264825, 19.24058708671366 ], [ -99.026754619572969, 19.240648780658244 ], [ -99.026658048134337, 19.240628117233648 ], [ -99.026612676934349, 19.240609027465155 ], [ -99.026569017836309, 19.240568227273002 ], [ -99.026511887522787, 19.240539427253186 ], [ -99.026465817350129, 19.240522907602525 ], [ -99.02641242770143, 19.240519732382765 ], [ -99.026340847380737, 19.240539376286144 ], [ -99.026268889026085, 19.240540071761199 ], [ -99.02614337734677, 19.240516167071249 ], [ -99.026069947797311, 19.240489966788388 ], [ -99.025924708613161, 19.24045590658319 ], [ -99.025848028121459, 19.240429017008566 ], [ -99.025782197412198, 19.240397916206447 ], [ -99.025720428487361, 19.240359906470307 ], [ -99.025683776239092, 19.240328046812039 ], [ -99.025578828771231, 19.240215546265773 ], [ -99.025509518468752, 19.240166276626312 ], [ -99.025298057642431, 19.24007528603175 ], [ -99.025240499210355, 19.240068467656851 ], [ -99.025170746281489, 19.240096859144799 ], [ -99.025007072086922, 19.240322166572088 ], [ -99.024843379751488, 19.240231596553453 ], [ -99.024712507401063, 19.240155136390957 ], [ -99.024, 19.239863296902357 ], [ -99.024, 19.237 ] ] ] } },
{ "type": "Feature", "properties": { "ID": "090130635_RUR-141", "Ambito": "Rural" }, "geometry": { "type": "Polygon", "coordinates": [ [ [ -99.024, 19.2325 ], [ -99.022629374377814, 19.2325 ], [ -99.024, 19.230896779422462 ], [ -99.024, 19.2325 ] ] ] } },
{ "type": "Feature", "properties": { "ID": "090130635_RUR-142", "Ambito": "Rural" }, "geometry": { "type": "Polygon", "coordinates": [ [ [ -99.024, 19.2325 ], [ -99.024, 19.237 ], [ -99.0195, 19.237 ], [ -99.0195, 19.236160428723824 ], [ -99.022629374377814, 19.2325 ], [ -99.024, 19.2325 ] ] ] } },
{ "type": "Feature", "properties": { "ID": "090130635_RUR-143", "Ambito": "Rural" }, "geometry": { "type": "Polygon", "coordinates": [ [ [ -99.0195, 19.237 ], [ -99.024, 19.237 ], [ -99.024, 19.239863296902357 ], [ -99.02386957676022, 19.239809876191831 ], [ -99.02373285454496, 19.239794692587019 ], [ -99.023660740470362, 19.239801569943083 ], [ -99.023593683721472, 19.239881696000882 ], [ -99.023511318142809, 19.240105036887332 ], [ -99.023477680190467, 19.240217240232909 ], [ -99.022118797416027, 19.239793457155447 ], [ -99.021732478097206, 19.239647227039779 ], [ -99.021314597806509, 19.239381146640383 ], [ -99.021171798460088, 19.239323907283818 ], [ -99.020555250700156, 19.239261042898772 ], [ -99.020346918593219, 19.239320425999455 ], [ -99.020156281025891, 19.239335577186377 ], [ -99.019994093117717, 19.239373153401459 ], [ -99.019906907450519, 19.239369676626147 ], [ -99.01981133760205, 19.239281176063464 ], [ -99.019749917901194, 19.239249797305298 ], [ -99.0195, 19.239167069729337 ], [ -99.0195, 19.237 ] ] ] } },
{ "type": "Feature", "properties": { "ID": "090130635_RUR-160", "Ambito": "Rural" }, "geometry": { "type": "Polygon", "coordinates": [ [ [ -99.0195, 19.237 ], [ -99.0195, 19.239167069729337 ], [ -99.019452716740091, 19.239151418071479 ], [ -99.019413197202383, 19.239219717114423 ], [ -99.01937359807981, 19.239266457100022 ], [ -99.019217713202551, 19.23940946641785 ], [ -99.018319219410529, 19.238818117108835 ], [ -99.017848709978622, 19.238592562508089 ], [ -99.017752987527558, 19.23849613013407 ], [ -99.017861059003167, 19.238228597262019 ], [ -99.018204019343116, 19.237676337097053 ], [ -99.018782233574811, 19.237 ], [ -99.0195, 19.237 ] ] ] } }
]
}
