{
"type": "FeatureCollection",
"name": "tulyehualco_zona_estudio",
"crs": { "type": "name", "properties": { "name": "urn:ogc:def:crs:OGC:1.3:CRS84" } },
"features": [
{ "type": "Feature", "properties": { "ID": "0901100011431", "Ambito": "Urbano" }, "geometry": { "type": "Polygon", "coordinates": [ [ [ -99.035786400373311, 19.222473509893515 ], [ -99.036283650352914, 19.222370429902611 ], [ -99.03641891012046, 19.222342399643818 ], [ -99.036731629887612, 19.22227757005647 ], [ -99.036939659581932, 19.222234400030985 ], [ -99.0375, 19.222118099893923 ], [ -99.037596599525315, 19.222098050406743 ], [ -99.038040139932292, 19.222006000178023 ], [ -99.040105310442542, 19.221577350429087 ], [ -99.041124739110884, 19.221365743381288 ], [ -99.041786458794462, 19.221228393209039 ], [ -99.042, 19.221184066706957 ], [ -99.042168818955403, 19.221149023569698 ], [ -99.042468058904404, 19.22108690339083 ], [ -99.042785349394308, 19.221021073809251 ], [ -99.043022599170286, 19.220971853374483 ], [ -99.045438219053494, 19.220470703665924 ], [ -99.0465, 19.22025041009363 ], [ -99.0465, 19.2235 ], [ -99.0465, 19.228 ], [ -99.0465, 19.2325 ], [ -99.0465, 19.237 ], [ -99.0465, 19.2415 ], [ -99.0465, 19.242342934633207 ], [ -99.046313857451295, 19.242446769124367 ], [ -99.046219149261134, 19.242531427031086 ], [ -99.045801376038327, 19.242651909333095 ], [ -99.045616304198603, 19.242829155535226 ], [ -99.045491158101058, 19.242904514328146 ], [ -99.044735208238663, 19.243373698373489 ], [ -99.044509958508598, 19.243461504262022 ], [ -99.044275999527656, 19.243592118453719 ], [ -99.043994655953497, 19.243681258978167 ], [ -99.04362428595681, 19.24403701676308 ], [ -99.043614498937984, 19.24404039068494 ], [ -99.043513212879247, 19.244339497233884 ], [ -99.043418393606274, 19.24478322387435 ], [ -99.043423694676662, 19.24485347803282 ], [ -99.043435431866371, 19.244884836484285 ], [ -99.04345645597661, 19.244919108408521 ], [ -99.043623840923573, 19.245090158791445 ], [ -99.043610549591023, 19.245228219656013 ], [ -99.043626474374321, 19.245444597185966 ], [ -99.043657731967912, 19.245621791154679 ], [ -99.043683539804206, 19.245676951447617 ], [ -99.043719271629172, 19.245722598175533 ], [ -99.043772925549206, 19.245777824417079 ], [ -99.043868635372291, 19.245897397965418 ], [ -99.043876197062673, 19.246037420169092 ], [ -99.043852371961705, 19.246105991556291 ], [ -99.043813347507523, 19.246177141924573 ], [ -99.043736523126654, 19.246260736403595 ], [ -99.043702009505679, 19.246359359206604 ], [ -99.043702916339939, 19.246538504044814 ], [ -99.043776620474944, 19.246945206152645 ], [ -99.043783493155118, 19.247035533992857 ], [ -99.043757783795115, 19.247266496215538 ], [ -99.043613394250357, 19.24754614577477 ], [ -99.043571423358756, 19.247660415353696 ], [ -99.043568570549837, 19.247704607235175 ], [ -99.04359728531017, 19.247777084094505 ], [ -99.043578872008865, 19.248238104151387 ], [ -99.043544249966757, 19.248693605658357 ], [ -99.043552526600962, 19.248777745040641 ], [ -99.043591883786036, 19.249263832784553 ], [ -99.043579087548679, 19.249616108934298 ], [ -99.04355225313023, 19.249825033696432 ], [ -99.043490998760063, 19.250313876807141 ], [ -99.043452844168144, 19.250578366038805 ], [ -99.043426844190449, 19.250714998398294 ], [ -99.043307024265005, 19.251372181438505 ], [ -99.043260533301378, 19.251766301592365 ], [ -99.043222132051753, 19.252006345736849 ], [ -99.043053020864079, 19.252448236335312 ], [ -99.0430341165724, 19.252528410909015 ], [ -99.043016312957377, 19.252886585438169 ], [ -99.043003607938687, 19.253255535562975 ], [ -99.043157068957541, 19.253378782903848 ], [ -99.043220713184084, 19.253469974966102 ], [ -99.043247969564192, 19.253574785818042 ], [ -99.043251244084601, 19.25364484790056 ], [ -99.043095348395596, 19.25448643965376 ], [ -99.043012638712469, 19.254564977097118 ], [ -99.042941224359311, 19.255215987768494 ], [ -99.042880554559005, 19.255320107029004 ], [ -99.042820244774035, 19.25616832702184 ], [ -99.042751222855216, 19.256764479978916 ], [ -99.0426310452997, 19.257692238996945 ], [ -99.042515164196473, 19.258586816693533 ], [ -99.042213477209202, 19.261069509541446 ], [ -99.041673253303131, 19.261231506007658 ], [ -99.041510852067759, 19.261328064826664 ], [ -99.040969277666463, 19.261346772557818 ], [ -99.040543114211843, 19.26147639008099 ], [ -99.039278984952674, 19.261860789596053 ], [ -99.037810025739105, 19.262771475544415 ], [ -99.037131225763247, 19.263437685683261 ], [ -99.036711643424127, 19.263712905741038 ], [ -99.035011016406628, 19.265161656417295 ], [ -99.034985207550733, 19.265218708833029 ], [ -99.034855416690888, 19.265375595279128 ], [ -99.034116514173419, 19.265488886643976 ], [ -99.033814935955903, 19.265535124836642 ], [ -99.033266856480125, 19.265377567872655 ], [ -99.032663246844038, 19.266689305117779 ], [ -99.033014225610444, 19.267114015038072 ], [ -99.033726185693979, 19.26770092509495 ], [ -99.034090297926227, 19.268117548136594 ], [ -99.034348694760183, 19.268413211760041 ], [ -99.033564250796701, 19.270856929525884 ], [ -99.030760657309898, 19.270717124160385 ], [ -99.029185610977422, 19.270279503428483 ], [ -99.027610563683396, 19.269801373709729 ], [ -99.026211955032139, 19.269604690558293 ], [ -99.025767680051899, 19.269498133954905 ], [ -99.024106003763251, 19.269243809952879 ], [ -99.024099205585088, 19.269243521951136 ], [ -99.023565141645093, 19.269220853193481 ], [ -99.023564901440267, 19.269220843022548 ], [ -99.023005198705462, 19.269197085234509 ], [ -99.021430079312097, 19.269017924910955 ], [ -99.021152265990168, 19.268965412368949 ], [ -99.019742688999443, 19.268698965245971 ], [ -99.019081044362792, 19.268571028928921 ], [ -99.018577310585428, 19.268473624270957 ], [ -99.017613309808993, 19.268273014482929 ], [ -99.017212229847217, 19.268123794258297 ], [ -99.016533571143881, 19.267697044470115 ], [ -99.016107370542571, 19.26747576455028 ], [ -99.015235250666493, 19.267131424254387 ], [ -99.015186924322904, 19.267114501041455 ], [ -99.014643116021674, 19.266924065828032 ], [ -99.014152332019108, 19.266809780194588 ], [ -99.014037129664132, 19.26678295587174 ], [ -99.012906001788565, 19.266741785673375 ], [ -99.013038511744668, 19.265762726067951 ], [ -99.012877020837138, 19.265072645825875 ], [ -99.012949401653358, 19.264477056490563 ], [ -99.013449567549046, 19.262916926035786 ], [ -99.013542864445228, 19.262588987096148 ], [ -99.013508261834218, 19.262489358769777 ], [ -99.013523490365927, 19.262439445963341 ], [ -99.013573151792613, 19.262276678652686 ], [ -99.013746711353747, 19.261707831208039 ], [ -99.013817029004059, 19.261473656087652 ], [ -99.013872776301596, 19.261241930875332 ], [ -99.013942513555918, 19.261031768609151 ], [ -99.014008894945718, 19.260807743003038 ], [ -99.01410629850082, 19.260464421705478 ], [ -99.014063468087542, 19.260452710552173 ], [ -99.013771584832142, 19.260380841681766 ], [ -99.013771509855033, 19.260380823890408 ], [ -99.01366993195586, 19.260356462325344 ], [ -99.013534817884263, 19.260320254292346 ], [ -99.013631377573091, 19.259993614877086 ], [ -99.013254431023753, 19.259890989998766 ], [ -99.013294665568012, 19.259696018709164 ], [ -99.01251568457964, 19.259536263549528 ], [ -99.012035732432722, 19.259418612405845 ], [ -99.011913824448129, 19.259396825470215 ], [ -99.012098399490284, 19.258617342959372 ], [ -99.012318340206349, 19.257872900938615 ], [ -99.011901387797508, 19.257724538716012 ], [ -99.011815509849626, 19.257690758637683 ], [ -99.011708269355111, 19.257648575453391 ], [ -99.011625119698721, 19.257609327945723 ], [ -99.011441389518382, 19.257537161571332 ], [ -99.011352876283112, 19.257491583362185 ], [ -99.011114160163416, 19.257347252363246 ], [ -99.010986754048702, 19.2572687564729 ], [ -99.01079196758235, 19.257187996969026 ], [ -99.010945281394029, 19.256730584901629 ], [ -99.011048741252552, 19.256429849642984 ], [ -99.011279992455741, 19.255726197560477 ], [ -99.011022142267436, 19.255601617025022 ], [ -99.010817622215896, 19.255463597300533 ], [ -99.010685722509322, 19.255338787036106 ], [ -99.009850312733633, 19.254530187457679 ], [ -99.009804652838596, 19.254485337510058 ], [ -99.009233142273047, 19.253923878013939 ], [ -99.008573512481746, 19.253192567653869 ], [ -99.008337192331098, 19.252941937874319 ], [ -99.00812283275576, 19.252714997770642 ], [ -99.007758893153323, 19.25231253794113 ], [ -99.007611062664779, 19.252166398109729 ], [ -99.007037113277917, 19.251602987729662 ], [ -99.007275893192073, 19.251174538525568 ], [ -99.007412866751224, 19.250928794990823 ], [ -99.00747827923314, 19.250811437460133 ], [ -99.00749789291514, 19.250776248663492 ], [ -99.007681883317176, 19.251021028454719 ], [ -99.007939262698258, 19.250543139720445 ], [ -99.008257321930529, 19.250725108423069 ], [ -99.008431021464034, 19.250690939511014 ], [ -99.008644892602732, 19.250764788131843 ], [ -99.008814312212564, 19.250675737995831 ], [ -99.008875251827348, 19.250672199541921 ], [ -99.009057602386363, 19.250294088403706 ], [ -99.009201232128248, 19.249992138361741 ], [ -99.009344511930792, 19.249691629186685 ], [ -99.009494402702018, 19.249377789338368 ], [ -99.009497432727898, 19.2493687384484 ], [ -99.009500691097671, 19.249359019816758 ], [ -99.009592822197931, 19.24906798832102 ], [ -99.009707061037062, 19.248726829971805 ], [ -99.009760328758944, 19.248491033355119 ], [ -99.009762791779067, 19.248480129310156 ], [ -99.00979659265559, 19.248261658906568 ], [ -99.010129792576507, 19.247663109124602 ], [ -99.010344321968802, 19.247317939091882 ], [ -99.010451721129755, 19.247140078697942 ], [ -99.010503141824529, 19.247069568841251 ], [ -99.010618400857922, 19.247000188872025 ], [ -99.010813722555667, 19.247002649000624 ], [ -99.011064761393257, 19.2467191595067 ], [ -99.011115111974391, 19.246525430379837 ], [ -99.011137760999077, 19.246201279518218 ], [ -99.011124292088326, 19.246128539077151 ], [ -99.011183722321164, 19.246049889473035 ], [ -99.012288372158778, 19.24651098915048 ], [ -99.012377420887887, 19.246353939827824 ], [ -99.01238928150228, 19.246119999134514 ], [ -99.012460391978067, 19.245928789730577 ], [ -99.012701762168476, 19.245139629798246 ], [ -99.012467662061937, 19.245011399567005 ], [ -99.012557621663504, 19.244731140022093 ], [ -99.012819791436073, 19.244804289998278 ], [ -99.013909261109276, 19.245108259842315 ], [ -99.01394989042285, 19.244915449636594 ], [ -99.013964170594946, 19.244847740437812 ], [ -99.013987821088008, 19.244677429586861 ], [ -99.014014540879614, 19.244553340733731 ], [ -99.014048707369454, 19.244417608343614 ], [ -99.014055047933581, 19.244392417078998 ], [ -99.014065741416843, 19.244349940050675 ], [ -99.014105189986836, 19.244232419676671 ], [ -99.014140398921072, 19.24409968961751 ], [ -99.014145098809948, 19.244082066434682 ], [ -99.014166761505223, 19.244000760014877 ], [ -99.014295491156901, 19.243633769560464 ], [ -99.014320413689532, 19.243580723567064 ], [ -99.014361125441468, 19.243494068798068 ], [ -99.014388415253492, 19.243435985995465 ], [ -99.014441574082156, 19.243322840109577 ], [ -99.014523609421232, 19.243148234384595 ], [ -99.014631511410229, 19.242918570958171 ], [ -99.014841921590374, 19.242603450143498 ], [ -99.014927190667848, 19.242456740891409 ], [ -99.014946970022152, 19.242251940940253 ], [ -99.014975000633925, 19.242095400533032 ], [ -99.015055891010675, 19.241854280226647 ], [ -99.015274509654688, 19.241370570377143 ], [ -99.015398054942366, 19.241012821385052 ], [ -99.015407120638471, 19.240986571468088 ], [ -99.01548217123171, 19.240854091086291 ], [ -99.015550490026058, 19.240789571280406 ], [ -99.015609710389214, 19.24073673122756 ], [ -99.015687329776796, 19.240617992234228 ], [ -99.015734919892211, 19.240545190334288 ], [ -99.016024404841261, 19.240250617249043 ], [ -99.016460740681737, 19.239806608215716 ], [ -99.016441235989134, 19.239667172646534 ], [ -99.016477106330257, 19.239637167015793 ], [ -99.016712029720821, 19.23944064984801 ], [ -99.016772119195608, 19.239491536134832 ], [ -99.016999706392781, 19.239264325831751 ], [ -99.016999767828977, 19.239264264531318 ], [ -99.017221294450977, 19.239043104115741 ], [ -99.017304298366938, 19.238781779765176 ], [ -99.01733018460142, 19.238756154762441 ], [ -99.017370822371504, 19.238655823954598 ], [ -99.017391078789416, 19.238574185446545 ], [ -99.017487873017956, 19.238318915706877 ], [ -99.017748332824112, 19.238388506783647 ], [ -99.01774532803978, 19.238493241296609 ], [ -99.017841050467183, 19.238589673648644 ], [ -99.018311559783186, 19.238815228198302 ], [ -99.019210053353618, 19.239406577372929 ], [ -99.019211419428544, 19.23940532413112 ], [ -99.018319219410529, 19.238818117108835 ], [ -99.017848709978622, 19.238592562508089 ], [ -99.017752987527558, 19.23849613013407 ], [ -99.017861059003167, 19.238228597262019 ], [ -99.018204019343116, 19.237676337097053 ], [ -99.018782233574811, 19.237 ], [ -99.0195, 19.237 ], [ -99.0195, 19.236160428723824 ], [ -99.022629374377814, 19.2325 ], [ -99.024, 19.230896779422462 ], [ -99.026476515180818, 19.228 ], [ -99.027904824290289, 19.226329307056407 ], [ -99.0285, 19.225627942823898 ], [ -99.030193029963641, 19.223632850212503 ], [ -99.030834012712972, 19.2235 ], [ -99.033, 19.2235 ], [ -99.033, 19.223051075590956 ], [ -99.034061049561032, 19.222831150003937 ], [ -99.035208770393012, 19.222593249853009 ], [ -99.035786400373311, 19.222473509893515 ] ], [ [ -99.038593689085886, 19.246110660468396 ], [ -99.038586097588123, 19.246109806584613 ], [ -99.038615711300437, 19.246934660460127 ], [ -99.038623066143614, 19.246928922572355 ], [ -99.038593689085886, 19.246110660468396 ] ], [ [ -99.038417923579715, 19.246 ], [ -99.038359450080691, 19.24550598859393 ], [ -99.038369817812963, 19.245367949484436 ], [ -99.038296080525456, 19.245228376542606 ], [ -99.038266470494221, 19.245046278656606 ], [ -99.038344729249658, 19.244729975177798 ], [ -99.038336279554557, 19.244730258291273 ], [ -99.038258805958293, 19.245043388344705 ], [ -99.038288415981967, 19.245225486189018 ], [ -99.038362153251185, 19.245365059098969 ], [ -99.038351785521243, 19.245503098176808 ], [ -99.038421162395025, 19.246089226397743 ], [ -99.038428583636161, 19.246090061131262 ], [ -99.038417923579715, 19.246 ] ], [ [ -99.030452121956984, 19.241485726159802 ], [ -99.030532790342775, 19.24127709047459 ], [ -99.030546820055065, 19.241265537606804 ], [ -99.030573188517792, 19.241248588440115 ], [ -99.030823537401261, 19.241205122378116 ], [ -99.030915244240106, 19.241178301565821 ], [ -99.030992382045241, 19.241130276341089 ], [ -99.031233698459431, 19.24067110361036 ], [ -99.032137150466511, 19.240281216741362 ], [ -99.032285447591875, 19.240156253001189 ], [ -99.032532248566284, 19.239808800876407 ], [ -99.032524420275848, 19.239806144288032 ], [ -99.032277784531971, 19.240153363802115 ], [ -99.032129487442845, 19.240278327513451 ], [ -99.031226035657113, 19.240668214291912 ], [ -99.030984719301529, 19.241127386917093 ], [ -99.030907581515265, 19.241175412130719 ], [ -99.030815874698916, 19.241202232936747 ], [ -99.030565525876867, 19.241245698988461 ], [ -99.030539157420591, 19.241262648151228 ], [ -99.030525127711741, 19.241274201016342 ], [ -99.03044445934546, 19.241482836653638 ], [ -99.030428739248009, 19.241569206833077 ], [ -99.030480392294052, 19.241649867946215 ], [ -99.03050289565239, 19.241719812077715 ], [ -99.030501276897866, 19.241858549550503 ], [ -99.030404866761586, 19.242207466142776 ], [ -99.030498059974676, 19.242374226754816 ], [ -99.030506312665537, 19.242443720324182 ], [ -99.030394292067385, 19.242725551970953 ], [ -99.030328166960444, 19.243143074914716 ], [ -99.03035587299955, 19.243336481701359 ], [ -99.030335177446446, 19.243471223804232 ], [ -99.030241390513154, 19.243751910372019 ], [ -99.03011495088181, 19.244001115966388 ], [ -99.03012332676704, 19.244002600074388 ], [ -99.030249053078109, 19.243754800398481 ], [ -99.030342840034024, 19.243474113766247 ], [ -99.030363535592016, 19.243339371632462 ], [ -99.03033582954582, 19.243145964801535 ], [ -99.030401954668406, 19.242728441761994 ], [ -99.030513975293644, 19.242446610050486 ], [ -99.030505722600665, 19.242377116465207 ], [ -99.030412529364426, 19.242210355815065 ], [ -99.030508939523884, 19.241861439142699 ], [ -99.030510558278621, 19.24172270163811 ], [ -99.030488054914656, 19.241652757490616 ], [ -99.030436401855795, 19.241572096359057 ], [ -99.030449523998257, 19.2415 ], [ -99.030452121956984, 19.241485726159802 ] ], [ [ -99.023469959730221, 19.240214832519413 ], [ -99.023469959730221, 19.24021483251941 ], [ -99.023437359797228, 19.240478369399824 ], [ -99.023469959730221, 19.240214832519413 ] ], [ [ -99.024704846201274, 19.240152247182277 ], [ -99.024835718519427, 19.240228707327422 ], [ -99.02499941081453, 19.240319277325508 ], [ -99.025000110188927, 19.240318314594351 ], [ -99.024843379751488, 19.240231596553453 ], [ -99.024712507401063, 19.240155136390957 ], [ -99.024, 19.239863296902357 ], [ -99.02386957676022, 19.239809876191831 ], [ -99.023868743460724, 19.239809783650248 ], [ -99.024704846201274, 19.240152247182277 ] ], [ [ -99.025501857073166, 19.240163387416114 ], [ -99.025571167358549, 19.240212657044367 ], [ -99.025676114800461, 19.240325157564985 ], [ -99.025712767039693, 19.240357017216002 ], [ -99.025774535949296, 19.240395026943517 ], [ -99.025840366642328, 19.240426127738594 ], [ -99.025846364136171, 19.240428230881886 ], [ -99.025782197412198, 19.240397916206447 ], [ -99.025720428487361, 19.240359906470307 ], [ -99.025683776239092, 19.240328046812039 ], [ -99.025578828771231, 19.240215546265773 ], [ -99.025509518468752, 19.240166276626312 ], [ -99.025298057642431, 19.24007528603175 ], [ -99.025296751021742, 19.240075131249395 ], [ -99.025501857073166, 19.240163387416114 ] ], [ [ -99.026561356179883, 19.240565337972058 ], [ -99.026605015267137, 19.240606138154913 ], [ -99.02665038645597, 19.240625227919093 ], [ -99.026652003224299, 19.240625573859589 ], [ -99.026612676934349, 19.240609027465155 ], [ -99.026569017836309, 19.240568227273002 ], [ -99.026511887522787, 19.240539427253186 ], [ -99.026505201689943, 19.240537029875089 ], [ -99.026561356179883, 19.240565337972058 ] ], [ [ -99.028564277630551, 19.238964561883073 ], [ -99.028564390594198, 19.238964422310435 ], [ -99.0285, 19.238938590748049 ], [ -99.028486428375132, 19.238933146221864 ], [ -99.028486080053952, 19.238933191375537 ], [ -99.028564277630551, 19.238964561883073 ] ], [ [ -99.031886897611201, 19.23956009072424 ], [ -99.03209938526372, 19.239661616921321 ], [ -99.032104963736387, 19.239663510017397 ], [ -99.031891018207119, 19.239561287251604 ], [ -99.031886897611201, 19.23956009072424 ] ], [ [ -99.03149497357073, 19.239298483808771 ], [ -99.03151162344804, 19.23933169547411 ], [ -99.031552473830928, 19.239359700514999 ], [ -99.031522247628715, 19.239453540745135 ], [ -99.031530106060245, 19.239455822655017 ], [ -99.031560136711548, 19.239362589533119 ], [ -99.031519286318584, 19.239334584485864 ], [ -99.031502636437125, 19.239301372812939 ], [ -99.031525029130478, 19.239129469529168 ], [ -99.031517148469163, 19.239128252482946 ], [ -99.03149497357073, 19.239298483808771 ] ], [ [ -99.031274794373232, 19.239089119088455 ], [ -99.031220355082169, 19.239004580265263 ], [ -99.031133961854437, 19.238966590531156 ], [ -99.031132598260811, 19.238966471545403 ], [ -99.031212692285536, 19.239001691328756 ], [ -99.031268351151454, 19.239088124032506 ], [ -99.031274794373232, 19.239089119088455 ] ], [ [ -99.030972795020972, 19.238923200245178 ], [ -99.031039041575482, 19.238956087604635 ], [ -99.031041278151875, 19.238956282765955 ], [ -99.030974299826823, 19.238923032127879 ], [ -99.030972795020972, 19.238923200245178 ] ], [ [ -99.030671190483758, 19.238948499372778 ], [ -99.03070689725169, 19.238971471731805 ], [ -99.030712347870235, 19.238972937511853 ], [ -99.030674257856234, 19.238948431864586 ], [ -99.030671190483758, 19.238948499372778 ] ], [ [ -99.030122107416943, 19.2387950986733 ], [ -99.030122053595889, 19.238795097348895 ], [ -99.030157831893135, 19.238808675503147 ], [ -99.030221675740009, 19.238846738644042 ], [ -99.030248444794381, 19.23886993158871 ], [ -99.030342884335667, 19.238943628020767 ], [ -99.030455938183593, 19.23901003842553 ], [ -99.030489527882168, 19.239023673066139 ], [ -99.030489946949899, 19.23902362172571 ], [ -99.030463600794391, 19.239012927364939 ], [ -99.030350546918584, 19.238946516945106 ], [ -99.030256107354006, 19.238872820496276 ], [ -99.030229338293026, 19.238849627546333 ], [ -99.030165494430406, 19.238811564396791 ], [ -99.030122107416943, 19.2387950986733 ] ], [ [ -99.029711651653585, 19.238864594877359 ], [ -99.029679125865286, 19.238847858059362 ], [ -99.029660059581374, 19.238836507618792 ], [ -99.029656919417647, 19.238836310880746 ], [ -99.029671463447414, 19.238844969156766 ], [ -99.029709794473916, 19.238864693180702 ], [ -99.029711651653585, 19.238864594877359 ] ], [ [ -99.029066997740159, 19.238768792900267 ], [ -99.028996334238343, 19.238724077266433 ], [ -99.028969992944553, 19.238713556621757 ], [ -99.028968730089744, 19.238713223648389 ], [ -99.028988671988373, 19.238721188391324 ], [ -99.02905933547278, 19.238765904015008 ], [ -99.029083520518242, 19.238793154136342 ], [ -99.029098092218874, 19.238813334894981 ], [ -99.029107764692668, 19.238840346544151 ], [ -99.029117819253216, 19.238857800132187 ], [ -99.029126621124462, 19.238870236992636 ], [ -99.029168275495437, 19.238888029721974 ], [ -99.02916939365295, 19.238888123296928 ], [ -99.029134283408524, 19.238873125901719 ], [ -99.029125481535118, 19.238860689038436 ], [ -99.029115426972069, 19.23884323544641 ], [ -99.029105754495859, 19.238816223791066 ], [ -99.029091182791618, 19.238796043027818 ], [ -99.029066997740159, 19.238768792900267 ] ], [ [ -99.033376826101531, 19.246892130074926 ], [ -99.033376853194753, 19.24689206490325 ], [ -99.033167975525345, 19.246811210472838 ], [ -99.033167783933109, 19.246811211966961 ], [ -99.033376826101531, 19.246892130074926 ] ], [ [ -99.032407313068276, 19.246719718463329 ], [ -99.032413699923254, 19.246721027147689 ], [ -99.032304727795719, 19.246585946623139 ], [ -99.03229848508434, 19.246584816614821 ], [ -99.032407313068276, 19.246719718463329 ] ], [ [ -99.031203509834498, 19.245969743702481 ], [ -99.031346062548323, 19.246 ], [ -99.031420349787169, 19.246015767197555 ], [ -99.031426259665395, 19.246 ], [ -99.031502255440429, 19.24579724787003 ], [ -99.031493865639902, 19.245796296768518 ], [ -99.031412686931233, 19.246012876654479 ], [ -99.031195847031896, 19.245966853169659 ], [ -99.031167054115556, 19.246184875612045 ], [ -99.031999593638517, 19.246529208098284 ], [ -99.032000791879483, 19.246529425003988 ], [ -99.031174715898672, 19.246187768892998 ], [ -99.031199513975636, 19.246 ], [ -99.031203509834498, 19.245969743702481 ] ], [ [ -99.031551997662206, 19.24464876292226 ], [ -99.031587754183178, 19.244811907484433 ], [ -99.031548277152268, 19.245204618395963 ], [ -99.031572885222118, 19.245273458822933 ], [ -99.031562515465964, 19.245414338761314 ], [ -99.031378506076948, 19.245781197345849 ], [ -99.031387128460139, 19.245782174813897 ], [ -99.031570178357825, 19.245417229167032 ], [ -99.031580548116324, 19.245276349196352 ], [ -99.03155594004032, 19.245207508753634 ], [ -99.031595417080354, 19.244814797752049 ], [ -99.031559179830964, 19.244649459797255 ], [ -99.031551997662206, 19.24464876292226 ] ], [ [ -99.031264583397814, 19.244532927069294 ], [ -99.03127673872018, 19.244619908250396 ], [ -99.031284097421334, 19.244620622254086 ], [ -99.031271805785934, 19.244532665645153 ], [ -99.031264583397814, 19.244532927069294 ] ], [ [ -99.030817103800246, 19.244263463049339 ], [ -99.030997143020997, 19.244539439867118 ], [ -99.031002787012568, 19.244539235575186 ], [ -99.030824194941246, 19.244265477055471 ], [ -99.030817103800246, 19.244263463049339 ] ], [ [ -99.030284970518807, 19.244032773811739 ], [ -99.030347045212892, 19.244129244512614 ], [ -99.03035414579287, 19.244131261199623 ], [ -99.030291520194766, 19.244033934336983 ], [ -99.030284970518807, 19.244032773811739 ] ], [ [ -99.021171191098631, 19.239323845356086 ], [ -99.021306937442517, 19.239378257604685 ], [ -99.021724817630172, 19.239644337943638 ], [ -99.02211113685388, 19.239790568026287 ], [ -99.022111295228953, 19.239790617417359 ], [ -99.021732478097206, 19.239647227039779 ], [ -99.021314597806509, 19.239381146640383 ], [ -99.021171798460088, 19.239323907283818 ], [ -99.021171191098631, 19.239323845356086 ] ], [ [ -99.019803677607484, 19.239278287048723 ], [ -99.019899247432335, 19.239366787591237 ], [ -99.019903991958586, 19.239366976792663 ], [ -99.01981133760205, 19.239281176063464 ], [ -99.019749917901194, 19.239249797305298 ], [ -99.019744222703864, 19.239247912086718 ], [ -99.019803677607484, 19.239278287048723 ] ] ] } }
]
}
